{"type":"FeatureCollection","features":[{"type":"Feature","id":"cctv-000001","geometry":{"type":"Point","coordinates":[102.86169,16.4967]},"properties":{"id":"cctv-000001","label":"กล้อง CCTV #1","sourceRecord":1,"sourceFolder":"กล้องCCTV","sourceFile":"CCTVpoint50node48N.shp","datasetId":"cctv","geometryDisplayRepair":false,"villageIds":["v01"],"villageId":"v01","electionIds":["e03"],"electionId":"e03","insideMunicipality":true}},{"type":"Feature","id":"cctv-000002","geometry":{"type":"Point","coordinates":[102.86612,16.482629999999993]},"properties":{"id":"cctv-000002","label":"กล้อง CCTV #2","sourceRecord":2,"sourceFolder":"กล้องCCTV","sourceFile":"CCTVpoint50node48N.shp","datasetId":"cctv","geometryDisplayRepair":false,"villageIds":["v25","v22"],"villageId":null,"electionIds":["e03"],"electionId":"e03","insideMunicipality":true}},{"type":"Feature","id":"cctv-000003","geometry":{"type":"Point","coordinates":[102.86816,16.49618]},"properties":{"id":"cctv-000003","label":"กล้อง CCTV #3","sourceRecord":3,"sourceFolder":"กล้องCCTV","sourceFile":"CCTVpoint50node48N.shp","datasetId":"cctv","geometryDisplayRepair":false,"villageIds":["v18"],"villageId":"v18","electionIds":["e03"],"electionId":"e03","insideMunicipality":true}},{"type":"Feature","id":"cctv-000004","geometry":{"type":"Point","coordinates":[102.86354,16.50131]},"properties":{"id":"cctv-000004","label":"กล้อง CCTV #4","sourceRecord":4,"sourceFolder":"กล้องCCTV","sourceFile":"CCTVpoint50node48N.shp","datasetId":"cctv","geometryDisplayRepair":false,"villageIds":["v01"],"villageId":"v01","electionIds":["e03"],"electionId":"e03","insideMunicipality":true}},{"type":"Feature","id":"cctv-000005","geometry":{"type":"Point","coordinates":[102.83642,16.49751]},"properties":{"id":"cctv-000005","label":"กล้อง CCTV #5","sourceRecord":5,"sourceFolder":"กล้องCCTV","sourceFile":"CCTVpoint50node48N.shp","datasetId":"cctv","geometryDisplayRepair":false,"villageIds":["v02"],"villageId":"v02","electionIds":["e01"],"electionId":"e01","insideMunicipality":true}},{"type":"Feature","id":"cctv-000006","geometry":{"type":"Point","coordinates":[102.83589,16.49411]},"properties":{"id":"cctv-000006","label":"กล้อง CCTV #6","sourceRecord":6,"sourceFolder":"กล้องCCTV","sourceFile":"CCTVpoint50node48N.shp","datasetId":"cctv","geometryDisplayRepair":false,"villageIds":["v02"],"villageId":"v02","electionIds":["e01"],"electionId":"e01","insideMunicipality":true}},{"type":"Feature","id":"cctv-000007","geometry":{"type":"Point","coordinates":[102.84499,16.506669999999993]},"properties":{"id":"cctv-000007","label":"กล้อง CCTV #7","sourceRecord":7,"sourceFolder":"กล้องCCTV","sourceFile":"CCTVpoint50node48N.shp","datasetId":"cctv","geometryDisplayRepair":false,"villageIds":["v17"],"villageId":"v17","electionIds":["e02"],"electionId":"e02","insideMunicipality":true}},{"type":"Feature","id":"cctv-000008","geometry":{"type":"Point","coordinates":[102.84605,16.499050000000004]},"properties":{"id":"cctv-000008","label":"กล้อง CCTV #8","sourceRecord":8,"sourceFolder":"กล้องCCTV","sourceFile":"CCTVpoint50node48N.shp","datasetId":"cctv","geometryDisplayRepair":false,"villageIds":["v17"],"villageId":"v17","electionIds":["e02"],"electionId":"e02","insideMunicipality":true}},{"type":"Feature","id":"cctv-000009","geometry":{"type":"Point","coordinates":[102.84923,16.475340000000003]},"properties":{"id":"cctv-000009","label":"กล้อง CCTV #9","sourceRecord":9,"sourceFolder":"กล้องCCTV","sourceFile":"CCTVpoint50node48N.shp","datasetId":"cctv","geometryDisplayRepair":false,"villageIds":["v14"],"villageId":"v14","electionIds":["e02"],"electionId":"e02","insideMunicipality":true}},{"type":"Feature","id":"cctv-000010","geometry":{"type":"Point","coordinates":[102.84814,16.48293]},"properties":{"id":"cctv-000010","label":"กล้อง CCTV #10","sourceRecord":10,"sourceFolder":"กล้องCCTV","sourceFile":"CCTVpoint50node48N.shp","datasetId":"cctv","geometryDisplayRepair":false,"villageIds":["v14"],"villageId":"v14","electionIds":["e02"],"electionId":"e02","insideMunicipality":true}},{"type":"Feature","id":"cctv-000011","geometry":{"type":"Point","coordinates":[102.83779,16.4817]},"properties":{"id":"cctv-000011","label":"กล้อง CCTV #11","sourceRecord":11,"sourceFolder":"กล้องCCTV","sourceFile":"CCTVpoint50node48N.shp","datasetId":"cctv","geometryDisplayRepair":false,"villageIds":["v14"],"villageId":"v14","electionIds":["e02"],"electionId":"e02","insideMunicipality":true}},{"type":"Feature","id":"cctv-000012","geometry":{"type":"Point","coordinates":[102.83632,16.485989999999997]},"properties":{"id":"cctv-000012","label":"กล้อง CCTV #12","sourceRecord":12,"sourceFolder":"กล้องCCTV","sourceFile":"CCTVpoint50node48N.shp","datasetId":"cctv","geometryDisplayRepair":false,"villageIds":["v24"],"villageId":"v24","electionIds":["e02"],"electionId":"e02","insideMunicipality":true}},{"type":"Feature","id":"cctv-000013","geometry":{"type":"Point","coordinates":[102.86053,16.507239999999996]},"properties":{"id":"cctv-000013","label":"กล้อง CCTV #13","sourceRecord":13,"sourceFolder":"กล้องCCTV","sourceFile":"CCTVpoint50node48N.shp","datasetId":"cctv","geometryDisplayRepair":false,"villageIds":["v07"],"villageId":"v07","electionIds":["e03"],"electionId":"e03","insideMunicipality":true}},{"type":"Feature","id":"cctv-000014","geometry":{"type":"Point","coordinates":[102.86176,16.50793]},"properties":{"id":"cctv-000014","label":"กล้อง CCTV #14","sourceRecord":14,"sourceFolder":"กล้องCCTV","sourceFile":"CCTVpoint50node48N.shp","datasetId":"cctv","geometryDisplayRepair":false,"villageIds":["v07"],"villageId":"v07","electionIds":["e03"],"electionId":"e03","insideMunicipality":true}},{"type":"Feature","id":"cctv-000015","geometry":{"type":"Point","coordinates":[102.86636,16.47243]},"properties":{"id":"cctv-000015","label":"กล้อง CCTV #15","sourceRecord":15,"sourceFolder":"กล้องCCTV","sourceFile":"CCTVpoint50node48N.shp","datasetId":"cctv","geometryDisplayRepair":false,"villageIds":["v25"],"villageId":"v25","electionIds":["e03"],"electionId":"e03","insideMunicipality":true}},{"type":"Feature","id":"cctv-000016","geometry":{"type":"Point","coordinates":[102.86239,16.474210000000003]},"properties":{"id":"cctv-000016","label":"กล้อง CCTV #16","sourceRecord":16,"sourceFolder":"กล้องCCTV","sourceFile":"CCTVpoint50node48N.shp","datasetId":"cctv","geometryDisplayRepair":false,"villageIds":["v25"],"villageId":"v25","electionIds":["e03"],"electionId":"e03","insideMunicipality":true}},{"type":"Feature","id":"cctv-000017","geometry":{"type":"Point","coordinates":[102.86017,16.474559999999997]},"properties":{"id":"cctv-000017","label":"กล้อง CCTV #17","sourceRecord":17,"sourceFolder":"กล้องCCTV","sourceFile":"CCTVpoint50node48N.shp","datasetId":"cctv","geometryDisplayRepair":false,"villageIds":["v15"],"villageId":"v15","electionIds":["e03"],"electionId":"e03","insideMunicipality":true}},{"type":"Feature","id":"cctv-000018","geometry":{"type":"Point","coordinates":[102.85632000000001,16.470789999999997]},"properties":{"id":"cctv-000018","label":"กล้อง CCTV #18","sourceRecord":18,"sourceFolder":"กล้องCCTV","sourceFile":"CCTVpoint50node48N.shp","datasetId":"cctv","geometryDisplayRepair":false,"villageIds":["v13"],"villageId":"v13","electionIds":["e02"],"electionId":"e02","insideMunicipality":true}},{"type":"Feature","id":"cctv-000019","geometry":{"type":"Point","coordinates":[102.86219,16.488660000000003]},"properties":{"id":"cctv-000019","label":"กล้อง CCTV #19","sourceRecord":19,"sourceFolder":"กล้องCCTV","sourceFile":"CCTVpoint50node48N.shp","datasetId":"cctv","geometryDisplayRepair":false,"villageIds":["v28"],"villageId":"v28","electionIds":["e03"],"electionId":"e03","insideMunicipality":true}},{"type":"Feature","id":"cctv-000020","geometry":{"type":"Point","coordinates":[102.86506,16.47796]},"properties":{"id":"cctv-000020","label":"กล้อง CCTV #20","sourceRecord":20,"sourceFolder":"กล้องCCTV","sourceFile":"CCTVpoint50node48N.shp","datasetId":"cctv","geometryDisplayRepair":false,"villageIds":["v25"],"villageId":"v25","electionIds":["e03"],"electionId":"e03","insideMunicipality":true}},{"type":"Feature","id":"cctv-000021","geometry":{"type":"Point","coordinates":[102.86783,16.479570000000002]},"properties":{"id":"cctv-000021","label":"กล้อง CCTV #21","sourceRecord":21,"sourceFolder":"กล้องCCTV","sourceFile":"CCTVpoint50node48N.shp","datasetId":"cctv","geometryDisplayRepair":false,"villageIds":["v22"],"villageId":"v22","electionIds":["e03"],"electionId":"e03","insideMunicipality":true}},{"type":"Feature","id":"cctv-000022","geometry":{"type":"Point","coordinates":[102.87226,16.482080000000003]},"properties":{"id":"cctv-000022","label":"กล้อง CCTV #22","sourceRecord":22,"sourceFolder":"กล้องCCTV","sourceFile":"CCTVpoint50node48N.shp","datasetId":"cctv","geometryDisplayRepair":false,"villageIds":["v22"],"villageId":"v22","electionIds":["e03"],"electionId":"e03","insideMunicipality":true}},{"type":"Feature","id":"cctv-000023","geometry":{"type":"Point","coordinates":[102.87367,16.480969999999996]},"properties":{"id":"cctv-000023","label":"กล้อง CCTV #23","sourceRecord":23,"sourceFolder":"กล้องCCTV","sourceFile":"CCTVpoint50node48N.shp","datasetId":"cctv","geometryDisplayRepair":false,"villageIds":["v22"],"villageId":"v22","electionIds":["e03"],"electionId":"e03","insideMunicipality":true}},{"type":"Feature","id":"cctv-000024","geometry":{"type":"Point","coordinates":[102.85863,16.46142]},"properties":{"id":"cctv-000024","label":"กล้อง CCTV #24","sourceRecord":24,"sourceFolder":"กล้องCCTV","sourceFile":"CCTVpoint50node48N.shp","datasetId":"cctv","geometryDisplayRepair":false,"villageIds":["v16"],"villageId":"v16","electionIds":["e03"],"electionId":"e03","insideMunicipality":true}},{"type":"Feature","id":"cctv-000025","geometry":{"type":"Point","coordinates":[102.87239,16.459439999999997]},"properties":{"id":"cctv-000025","label":"กล้อง CCTV #25","sourceRecord":25,"sourceFolder":"กล้องCCTV","sourceFile":"CCTVpoint50node48N.shp","datasetId":"cctv","geometryDisplayRepair":false,"villageIds":["v11"],"villageId":"v11","electionIds":["e03"],"electionId":"e03","insideMunicipality":true}},{"type":"Feature","id":"cctv-000026","geometry":{"type":"Point","coordinates":[102.87556000000001,16.463710000000003]},"properties":{"id":"cctv-000026","label":"กล้อง CCTV #26","sourceRecord":26,"sourceFolder":"กล้องCCTV","sourceFile":"CCTVpoint50node48N.shp","datasetId":"cctv","geometryDisplayRepair":false,"villageIds":["v16"],"villageId":"v16","electionIds":["e03"],"electionId":"e03","insideMunicipality":true}},{"type":"Feature","id":"cctv-000027","geometry":{"type":"Point","coordinates":[102.87141,16.45644]},"properties":{"id":"cctv-000027","label":"กล้อง CCTV #27","sourceRecord":27,"sourceFolder":"กล้องCCTV","sourceFile":"CCTVpoint50node48N.shp","datasetId":"cctv","geometryDisplayRepair":false,"villageIds":["v11"],"villageId":"v11","electionIds":["e03"],"electionId":"e03","insideMunicipality":true}},{"type":"Feature","id":"cctv-000028","geometry":{"type":"Point","coordinates":[102.85568,16.47783]},"properties":{"id":"cctv-000028","label":"กล้อง CCTV #28","sourceRecord":28,"sourceFolder":"กล้องCCTV","sourceFile":"CCTVpoint50node48N.shp","datasetId":"cctv","geometryDisplayRepair":false,"villageIds":["v26"],"villageId":"v26","electionIds":["e02"],"electionId":"e02","insideMunicipality":true}},{"type":"Feature","id":"cctv-000029","geometry":{"type":"Point","coordinates":[102.85414,16.47572]},"properties":{"id":"cctv-000029","label":"กล้อง CCTV #29","sourceRecord":29,"sourceFolder":"กล้องCCTV","sourceFile":"CCTVpoint50node48N.shp","datasetId":"cctv","geometryDisplayRepair":false,"villageIds":["v26"],"villageId":"v26","electionIds":["e02"],"electionId":"e02","insideMunicipality":true}},{"type":"Feature","id":"cctv-000030","geometry":{"type":"Point","coordinates":[102.85057,16.484499999999993]},"properties":{"id":"cctv-000030","label":"กล้อง CCTV #30","sourceRecord":30,"sourceFolder":"กล้องCCTV","sourceFile":"CCTVpoint50node48N.shp","datasetId":"cctv","geometryDisplayRepair":false,"villageIds":["v26"],"villageId":"v26","electionIds":["e02"],"electionId":"e02","insideMunicipality":true}},{"type":"Feature","id":"cctv-000031","geometry":{"type":"Point","coordinates":[102.89623,16.51976]},"properties":{"id":"cctv-000031","label":"กล้อง CCTV #31","sourceRecord":31,"sourceFolder":"กล้องCCTV","sourceFile":"CCTVpoint50node48N.shp","datasetId":"cctv","geometryDisplayRepair":false,"villageIds":["v04"],"villageId":"v04","electionIds":["e03"],"electionId":"e03","insideMunicipality":true}},{"type":"Feature","id":"cctv-000032","geometry":{"type":"Point","coordinates":[102.89346,16.51407]},"properties":{"id":"cctv-000032","label":"กล้อง CCTV #32","sourceRecord":32,"sourceFolder":"กล้องCCTV","sourceFile":"CCTVpoint50node48N.shp","datasetId":"cctv","geometryDisplayRepair":false,"villageIds":["v04"],"villageId":"v04","electionIds":["e03"],"electionId":"e03","insideMunicipality":false}},{"type":"Feature","id":"cctv-000033","geometry":{"type":"Point","coordinates":[102.83228,16.48865]},"properties":{"id":"cctv-000033","label":"กล้อง CCTV #33","sourceRecord":33,"sourceFolder":"กล้องCCTV","sourceFile":"CCTVpoint50node48N.shp","datasetId":"cctv","geometryDisplayRepair":false,"villageIds":["v03"],"villageId":"v03","electionIds":["e01"],"electionId":"e01","insideMunicipality":true}},{"type":"Feature","id":"cctv-000034","geometry":{"type":"Point","coordinates":[102.8159,16.4903]},"properties":{"id":"cctv-000034","label":"กล้อง CCTV #34","sourceRecord":34,"sourceFolder":"กล้องCCTV","sourceFile":"CCTVpoint50node48N.shp","datasetId":"cctv","geometryDisplayRepair":false,"villageIds":["v03"],"villageId":"v03","electionIds":["e01"],"electionId":"e01","insideMunicipality":true}},{"type":"Feature","id":"cctv-000035","geometry":{"type":"Point","coordinates":[102.8122,16.490499999999997]},"properties":{"id":"cctv-000035","label":"กล้อง CCTV #35","sourceRecord":35,"sourceFolder":"กล้องCCTV","sourceFile":"CCTVpoint50node48N.shp","datasetId":"cctv","geometryDisplayRepair":false,"villageIds":["v12"],"villageId":"v12","electionIds":["e01"],"electionId":"e01","insideMunicipality":true}},{"type":"Feature","id":"cctv-000036","geometry":{"type":"Point","coordinates":[102.81571,16.47981]},"properties":{"id":"cctv-000036","label":"กล้อง CCTV #36","sourceRecord":36,"sourceFolder":"กล้องCCTV","sourceFile":"CCTVpoint50node48N.shp","datasetId":"cctv","geometryDisplayRepair":false,"villageIds":[],"villageId":null,"electionIds":[],"electionId":null,"insideMunicipality":false}},{"type":"Feature","id":"cctv-000037","geometry":{"type":"Point","coordinates":[102.81599,16.486590000000003]},"properties":{"id":"cctv-000037","label":"กล้อง CCTV #37","sourceRecord":37,"sourceFolder":"กล้องCCTV","sourceFile":"CCTVpoint50node48N.shp","datasetId":"cctv","geometryDisplayRepair":false,"villageIds":["v12"],"villageId":"v12","electionIds":["e01"],"electionId":"e01","insideMunicipality":true}},{"type":"Feature","id":"cctv-000038","geometry":{"type":"Point","coordinates":[102.80988,16.480359999999997]},"properties":{"id":"cctv-000038","label":"กล้อง CCTV #38","sourceRecord":38,"sourceFolder":"กล้องCCTV","sourceFile":"CCTVpoint50node48N.shp","datasetId":"cctv","geometryDisplayRepair":false,"villageIds":[],"villageId":null,"electionIds":[],"electionId":null,"insideMunicipality":false}},{"type":"Feature","id":"cctv-000039","geometry":{"type":"Point","coordinates":[102.80268,16.47961]},"properties":{"id":"cctv-000039","label":"กล้อง CCTV #39","sourceRecord":39,"sourceFolder":"กล้องCCTV","sourceFile":"CCTVpoint50node48N.shp","datasetId":"cctv","geometryDisplayRepair":false,"villageIds":["v19"],"villageId":"v19","electionIds":["e01"],"electionId":"e01","insideMunicipality":true}},{"type":"Feature","id":"cctv-000040","geometry":{"type":"Point","coordinates":[102.7962,16.462209999999992]},"properties":{"id":"cctv-000040","label":"กล้อง CCTV #40","sourceRecord":40,"sourceFolder":"กล้องCCTV","sourceFile":"CCTVpoint50node48N.shp","datasetId":"cctv","geometryDisplayRepair":false,"villageIds":["v23"],"villageId":"v23","electionIds":["e01"],"electionId":"e01","insideMunicipality":false}},{"type":"Feature","id":"cctv-000041","geometry":{"type":"Point","coordinates":[102.84914,16.467029999999998]},"properties":{"id":"cctv-000041","label":"กล้อง CCTV #41","sourceRecord":41,"sourceFolder":"กล้องCCTV","sourceFile":"CCTVpoint50node48N.shp","datasetId":"cctv","geometryDisplayRepair":false,"villageIds":["v13"],"villageId":"v13","electionIds":["e02"],"electionId":"e02","insideMunicipality":true}},{"type":"Feature","id":"cctv-000042","geometry":{"type":"Point","coordinates":[102.84667,16.46242]},"properties":{"id":"cctv-000042","label":"กล้อง CCTV #42","sourceRecord":42,"sourceFolder":"กล้องCCTV","sourceFile":"CCTVpoint50node48N.shp","datasetId":"cctv","geometryDisplayRepair":false,"villageIds":["v13"],"villageId":"v13","electionIds":["e02"],"electionId":"e02","insideMunicipality":true}},{"type":"Feature","id":"cctv-000043","geometry":{"type":"Point","coordinates":[102.84266,16.463029999999996]},"properties":{"id":"cctv-000043","label":"กล้อง CCTV #43","sourceRecord":43,"sourceFolder":"กล้องCCTV","sourceFile":"CCTVpoint50node48N.shp","datasetId":"cctv","geometryDisplayRepair":false,"villageIds":["v20"],"villageId":"v20","electionIds":["e02"],"electionId":"e02","insideMunicipality":true}},{"type":"Feature","id":"cctv-000044","geometry":{"type":"Point","coordinates":[102.84409,16.457549999999998]},"properties":{"id":"cctv-000044","label":"กล้อง CCTV #44","sourceRecord":44,"sourceFolder":"กล้องCCTV","sourceFile":"CCTVpoint50node48N.shp","datasetId":"cctv","geometryDisplayRepair":false,"villageIds":["v13"],"villageId":"v13","electionIds":["e02"],"electionId":"e02","insideMunicipality":true}},{"type":"Feature","id":"cctv-000045","geometry":{"type":"Point","coordinates":[102.83683,16.461249999999993]},"properties":{"id":"cctv-000045","label":"กล้อง CCTV #45","sourceRecord":45,"sourceFolder":"กล้องCCTV","sourceFile":"CCTVpoint50node48N.shp","datasetId":"cctv","geometryDisplayRepair":false,"villageIds":["v21"],"villageId":"v21","electionIds":["e02"],"electionId":"e02","insideMunicipality":true}},{"type":"Feature","id":"cctv-000046","geometry":{"type":"Point","coordinates":[102.84296,16.466240000000003]},"properties":{"id":"cctv-000046","label":"กล้อง CCTV #46","sourceRecord":46,"sourceFolder":"กล้องCCTV","sourceFile":"CCTVpoint50node48N.shp","datasetId":"cctv","geometryDisplayRepair":false,"villageIds":["v13"],"villageId":"v13","electionIds":["e02"],"electionId":"e02","insideMunicipality":true}},{"type":"Feature","id":"cctv-000047","geometry":{"type":"Point","coordinates":[102.89516,16.49904]},"properties":{"id":"cctv-000047","label":"กล้อง CCTV #47","sourceRecord":47,"sourceFolder":"กล้องCCTV","sourceFile":"CCTVpoint50node48N.shp","datasetId":"cctv","geometryDisplayRepair":false,"villageIds":["v05"],"villageId":"v05","electionIds":["e03"],"electionId":"e03","insideMunicipality":true}},{"type":"Feature","id":"cctv-000048","geometry":{"type":"Point","coordinates":[102.88713,16.484620000000003]},"properties":{"id":"cctv-000048","label":"กล้อง CCTV #48","sourceRecord":48,"sourceFolder":"กล้องCCTV","sourceFile":"CCTVpoint50node48N.shp","datasetId":"cctv","geometryDisplayRepair":false,"villageIds":["v22"],"villageId":"v22","electionIds":["e03"],"electionId":"e03","insideMunicipality":true}},{"type":"Feature","id":"cctv-000049","geometry":{"type":"Point","coordinates":[102.89824,16.47167]},"properties":{"id":"cctv-000049","label":"กล้อง CCTV #49","sourceRecord":49,"sourceFolder":"กล้องCCTV","sourceFile":"CCTVpoint50node48N.shp","datasetId":"cctv","geometryDisplayRepair":false,"villageIds":["v10"],"villageId":"v10","electionIds":["e03"],"electionId":"e03","insideMunicipality":true}},{"type":"Feature","id":"cctv-000050","geometry":{"type":"Point","coordinates":[102.90371,16.470289999999995]},"properties":{"id":"cctv-000050","label":"กล้อง CCTV #50","sourceRecord":50,"sourceFolder":"กล้องCCTV","sourceFile":"CCTVpoint50node48N.shp","datasetId":"cctv","geometryDisplayRepair":false,"villageIds":["v10"],"villageId":"v10","electionIds":["e03"],"electionId":"e03","insideMunicipality":false}}]}