{"type":"FeatureCollection","features":[{"type":"Feature","id":"education-000001","geometry":{"type":"Point","coordinates":[102.87464497690503,16.48091305907616]},"properties":{"id":"education-000001","label":"โรงเรียนบ้านหนองหิน","sourceRecord":1,"sourceFolder":"สถานศึกษา","sourceFile":"สถานศึกษา.shp","datasetId":"education","geometryDisplayRepair":false,"villageIds":["v22"],"villageId":"v22","electionIds":["e03"],"electionId":"e03","insideMunicipality":true}},{"type":"Feature","id":"education-000002","geometry":{"type":"Point","coordinates":[102.86318595689686,16.492441471923605]},"properties":{"id":"education-000002","label":"โรงเรียนบ้านศิลา","sourceRecord":2,"sourceFolder":"สถานศึกษา","sourceFile":"สถานศึกษา.shp","datasetId":"education","geometryDisplayRepair":false,"villageIds":["v18"],"villageId":"v18","electionIds":["e03"],"electionId":"e03","insideMunicipality":true}},{"type":"Feature","id":"education-000003","geometry":{"type":"Point","coordinates":[102.90102511726424,16.470956597712267]},"properties":{"id":"education-000003","label":"โรงเรียนบ้านดงพอง","sourceRecord":3,"sourceFolder":"สถานศึกษา","sourceFile":"สถานศึกษา.shp","datasetId":"education","geometryDisplayRepair":false,"villageIds":["v10"],"villageId":"v10","electionIds":["e03"],"electionId":"e03","insideMunicipality":true}},{"type":"Feature","id":"education-000004","geometry":{"type":"Point","coordinates":[102.8609149425144,16.474584780814133]},"properties":{"id":"education-000004","label":"โรงเรียนบ้านโกทา","sourceRecord":4,"sourceFolder":"สถานศึกษา","sourceFile":"สถานศึกษา.shp","datasetId":"education","geometryDisplayRepair":false,"villageIds":["v25"],"villageId":"v25","electionIds":["e03"],"electionId":"e03","insideMunicipality":true}},{"type":"Feature","id":"education-000005","geometry":{"type":"Point","coordinates":[102.85405098818569,16.469981626456402]},"properties":{"id":"education-000005","label":"โรงเรียนขามแก่นนคร","sourceRecord":5,"sourceFolder":"สถานศึกษา","sourceFile":"สถานศึกษา.shp","datasetId":"education","geometryDisplayRepair":false,"villageIds":["v13"],"villageId":"v13","electionIds":["e02"],"electionId":"e02","insideMunicipality":true}},{"type":"Feature","id":"education-000006","geometry":{"type":"Point","coordinates":[102.86797095772526,16.459679396067028]},"properties":{"id":"education-000006","label":"โรงเรียนบ้านดอนยาง","sourceRecord":6,"sourceFolder":"สถานศึกษา","sourceFile":"สถานศึกษา.shp","datasetId":"education","geometryDisplayRepair":false,"villageIds":["v16"],"villageId":"v16","electionIds":["e03"],"electionId":"e03","insideMunicipality":true}},{"type":"Feature","id":"education-000007","geometry":{"type":"Point","coordinates":[102.84852037718024,16.47675253792108]},"properties":{"id":"education-000007","label":"โรงเรียนหนองไผ่ มอดินแดง","sourceRecord":7,"sourceFolder":"สถานศึกษา","sourceFile":"สถานศึกษา.shp","datasetId":"education","geometryDisplayRepair":false,"villageIds":["v14"],"villageId":"v14","electionIds":["e02"],"electionId":"e02","insideMunicipality":true}},{"type":"Feature","id":"education-000008","geometry":{"type":"Point","coordinates":[102.83343155317631,16.497213611535315]},"properties":{"id":"education-000008","label":"โรงเรียนบ้านหนองกุงวิทยาคาร","sourceRecord":8,"sourceFolder":"สถานศึกษา","sourceFile":"สถานศึกษา.shp","datasetId":"education","geometryDisplayRepair":false,"villageIds":["v02"],"villageId":"v02","electionIds":["e01"],"electionId":"e01","insideMunicipality":true}},{"type":"Feature","id":"education-000009","geometry":{"type":"Point","coordinates":[102.81338185535596,16.490156479047734]},"properties":{"id":"education-000009","label":"โรงเรียนบ้านโนนม่วง","sourceRecord":9,"sourceFolder":"สถานศึกษา","sourceFile":"สถานศึกษา.shp","datasetId":"education","geometryDisplayRepair":false,"villageIds":["v12"],"villageId":"v12","electionIds":["e01"],"electionId":"e01","insideMunicipality":true}},{"type":"Feature","id":"education-000010","geometry":{"type":"Point","coordinates":[102.84430380101404,16.49847197020437]},"properties":{"id":"education-000010","label":"ศูนย์พัฒนาเด็กเล็กเทศบาลเมืองศิลา","sourceRecord":10,"sourceFolder":"สถานศึกษา","sourceFile":"สถานศึกษา.shp","datasetId":"education","geometryDisplayRepair":false,"villageIds":["v17"],"villageId":"v17","electionIds":["e02"],"electionId":"e02","insideMunicipality":true}},{"type":"Feature","id":"education-000011","geometry":{"type":"Point","coordinates":[102.85829475665444,16.512245974129367]},"properties":{"id":"education-000011","label":"โรงเรียนไพบูลย์วิทยาเต่านอ","sourceRecord":11,"sourceFolder":"สถานศึกษา","sourceFile":"สถานศึกษา.shp","datasetId":"education","geometryDisplayRepair":false,"villageIds":["v07"],"villageId":"v07","electionIds":["e03"],"electionId":"e03","insideMunicipality":true}},{"type":"Feature","id":"education-000012","geometry":{"type":"Point","coordinates":[102.83398725121953,16.48328507094702]},"properties":{"id":"education-000012","label":"โรงเรียนอนุบาล พรทิพย์","sourceRecord":12,"sourceFolder":"สถานศึกษา","sourceFile":"สถานศึกษา.shp","datasetId":"education","geometryDisplayRepair":false,"villageIds":["v24"],"villageId":"v24","electionIds":["e02"],"electionId":"e02","insideMunicipality":true}},{"type":"Feature","id":"education-000013","geometry":{"type":"Point","coordinates":[102.8448234786428,16.4623047571508]},"properties":{"id":"education-000013","label":"โรงเรียนอนุบาลราตรี","sourceRecord":13,"sourceFolder":"สถานศึกษา","sourceFile":"สถานศึกษา.shp","datasetId":"education","geometryDisplayRepair":false,"villageIds":["v20"],"villageId":"v20","electionIds":["e02"],"electionId":"e02","insideMunicipality":true}},{"type":"Feature","id":"education-000014","geometry":{"type":"Point","coordinates":[102.85490797645845,16.47057423330223]},"properties":{"id":"education-000014","label":"โรงเรียนอนุบาลบุญพร้อง","sourceRecord":14,"sourceFolder":"สถานศึกษา","sourceFile":"สถานศึกษา.shp","datasetId":"education","geometryDisplayRepair":false,"villageIds":["v13"],"villageId":"v13","electionIds":["e02"],"electionId":"e02","insideMunicipality":true}},{"type":"Feature","id":"education-000015","geometry":{"type":"Point","coordinates":[102.87390247878338,16.477840756996024]},"properties":{"id":"education-000015","label":"โรงเรียนอนุบาล ตั้งใจ","sourceRecord":15,"sourceFolder":"สถานศึกษา","sourceFile":"สถานศึกษา.shp","datasetId":"education","geometryDisplayRepair":false,"villageIds":["v08"],"villageId":"v08","electionIds":["e03"],"electionId":"e03","insideMunicipality":true}},{"type":"Feature","id":"education-000016","geometry":{"type":"Point","coordinates":[102.83640196493029,16.485985741525102]},"properties":{"id":"education-000016","label":"วรากูลเนอสเซอรี่","sourceRecord":16,"sourceFolder":"สถานศึกษา","sourceFile":"สถานศึกษา.shp","datasetId":"education","geometryDisplayRepair":false,"villageIds":["v24"],"villageId":"v24","electionIds":["e02"],"electionId":"e02","insideMunicipality":true}},{"type":"Feature","id":"education-000017","geometry":{"type":"Point","coordinates":[102.8400164888532,16.48647764716537]},"properties":{"id":"education-000017","label":"สถานรับเลี้ยงเด็กต้นกล้าเนอสเซอรี่","sourceRecord":17,"sourceFolder":"สถานศึกษา","sourceFile":"สถานศึกษา.shp","datasetId":"education","geometryDisplayRepair":false,"villageIds":["v14"],"villageId":"v14","electionIds":["e02"],"electionId":"e02","insideMunicipality":true}},{"type":"Feature","id":"education-000018","geometry":{"type":"Point","coordinates":[102.86060736410523,16.46088258570989]},"properties":{"id":"education-000018","label":"โรงเรียนไพบูลย์วิทยา","sourceRecord":18,"sourceFolder":"สถานศึกษา","sourceFile":"สถานศึกษา.shp","datasetId":"education","geometryDisplayRepair":false,"villageIds":["v11"],"villageId":"v11","electionIds":["e03"],"electionId":"e03","insideMunicipality":true}},{"type":"Feature","id":"education-000019","geometry":{"type":"Point","coordinates":[102.85528605244788,16.474540882237815]},"properties":{"id":"education-000019","label":"โรงเรียนอนุบาลเบญจพร","sourceRecord":19,"sourceFolder":"สถานศึกษา","sourceFile":"สถานศึกษา.shp","datasetId":"education","geometryDisplayRepair":false,"villageIds":["v15"],"villageId":"v15","electionIds":["e03"],"electionId":"e03","insideMunicipality":true}},{"type":"Feature","id":"education-000020","geometry":{"type":"Point","coordinates":[102.80095544017638,16.468687233132066]},"properties":{"id":"education-000020","label":"โรงเรียนสีหราชเดโชชัย","sourceRecord":20,"sourceFolder":"สถานศึกษา","sourceFile":"สถานศึกษา.shp","datasetId":"education","geometryDisplayRepair":false,"villageIds":["v19"],"villageId":"v19","electionIds":["e01"],"electionId":"e01","insideMunicipality":true}}]}