{"type":"FeatureCollection","features":[{"type":"Feature","id":"e01","geometry":{"type":"Polygon","coordinates":[[[102.80999381260605,16.507767143031668],[102.80863375483537,16.507442957415233],[102.80747884724411,16.507095616284577],[102.80735061008052,16.507057506519104],[102.80653609675382,16.506503426348047],[102.80607585444352,16.50625587264248],[102.8048240947746,16.50563236401959],[102.8044190889715,16.50535613430041],[102.80326295442083,16.50250722705735],[102.80373038199143,16.502335040087814],[102.80388872276201,16.5016662551533],[102.80354350558515,16.501466552781764],[102.80316392601058,16.501987537231937],[102.80095916896374,16.500126944071887],[102.7991846949726,16.501670535802102],[102.79868849770608,16.501488210938234],[102.79835420863377,16.500902792531445],[102.79703631522733,16.500335471459465],[102.79667327097445,16.500553018475777],[102.79605930081114,16.49977173744244],[102.79592341511392,16.499324394777794],[102.79577133864949,16.499148854698976],[102.79573109447108,16.498939706581513],[102.7953037542272,16.49904588652926],[102.79490992585029,16.498798221395408],[102.79424187801368,16.498161839841586],[102.7941816834041,16.49797778092382],[102.79334560317974,16.49770647124185],[102.79313795535761,16.49751769309753],[102.79295053340921,16.496990743366226],[102.79238839684385,16.496554711218295],[102.79256550078546,16.495968360846046],[102.79296090623015,16.495498163956825],[102.7933977342136,16.495132765036775],[102.79392187557002,16.494799911107027],[102.7939744523954,16.494499239767507],[102.79389947635207,16.494028820579437],[102.79394053092034,16.493298721114733],[102.79395006445816,16.492457602239774],[102.79429554417905,16.492053286893174],[102.79485450484022,16.491901058144585],[102.79536869055781,16.49165031880313],[102.79507259064691,16.491457447958382],[102.79476203853355,16.49109365037145],[102.79457894966096,16.49076282153115],[102.79412662638367,16.49076121325331],[102.79411339460452,16.49107359307423],[102.79233697145071,16.490595077368013],[102.79197216303736,16.490791125574766],[102.79042208654828,16.487256520511277],[102.7912846407276,16.486902063206504],[102.7905953965489,16.48550610598696],[102.78928766479886,16.48623629029503],[102.78896641965282,16.48373665007372],[102.78789143404848,16.4798797208597],[102.79031166890452,16.47770014957847],[102.78938303572274,16.476920728268947],[102.79159808549188,16.475246214479174],[102.7917149754819,16.475214964081992],[102.79306484616075,16.474243444825557],[102.7941493188592,16.47361019841975],[102.7955488029178,16.472600452515028],[102.79557360131562,16.472239643507592],[102.7943735105142,16.472792969760793],[102.79492248611821,16.470964667660514],[102.79532616594408,16.469159820302234],[102.7954284579089,16.464923006681317],[102.79544331530116,16.462234500479013],[102.7970964736472,16.462141949419184],[102.7980770575897,16.461987342566836],[102.798150502604,16.462362928869876],[102.79971723089439,16.462070172022464],[102.80042518567011,16.461980156308528],[102.80218432765712,16.46167440822602],[102.80298730800428,16.46142421010435],[102.80377682792272,16.46823163956169],[102.80393227057911,16.468225773700283],[102.80430428741033,16.471408108660075],[102.80459010088646,16.47362251612315],[102.80482044286191,16.475244133699434],[102.80497577496122,16.47645547890924],[102.8051876693896,16.476417525708733],[102.80525822641908,16.47680303692331],[102.80564162515063,16.479192288098336],[102.80591678225126,16.480802193916332],[102.80596068028338,16.480871058023776],[102.80757507697619,16.48075679504556],[102.80912829384704,16.480469463446987],[102.81429128254555,16.479927500825845],[102.81435036575226,16.47985502865546],[102.81528352323588,16.479780439878244],[102.81731401396118,16.48006025433941],[102.81914666868676,16.480315498707743],[102.82169402495259,16.48075245988611],[102.82863384785624,16.48218729865479],[102.82874204182599,16.481302674909728],[102.83230374488073,16.48209814917747],[102.83230644534012,16.483622526276157],[102.83228500610191,16.487619216432233],[102.83288096035051,16.487677869788463],[102.8380072559078,16.4872054726687],[102.83920766091606,16.486969669168868],[102.84051446734277,16.486466213114635],[102.84112227206454,16.48949052980839],[102.84119263674705,16.490538671283655],[102.84099855118497,16.491474565929206],[102.84096334595287,16.493955742072007],[102.84076611463968,16.49505809336623],[102.84029115052753,16.496011416839437],[102.84015734414012,16.496455921888533],[102.83998268093175,16.496777814366805],[102.83942723476822,16.49731774691087],[102.83912513767669,16.497566404183583],[102.83903302412361,16.49765763057869],[102.83887856749801,16.49796043747878],[102.83876475125113,16.49852519421168],[102.83874725014026,16.49866049429038],[102.83882238092527,16.49925807355036],[102.83886343806795,16.499402553811617],[102.8388951261783,16.499430320626786],[102.83887961190057,16.499546776803125],[102.8390813878483,16.50042520219965],[102.83921044495064,16.500808970224888],[102.83945834684857,16.50137575145541],[102.83963334464694,16.501624513186634],[102.83978555384749,16.50168439475261],[102.83987427168547,16.50169903130852],[102.84042343938147,16.50186934173868],[102.84099379227568,16.502213079754583],[102.8409754852755,16.50226090927174],[102.84099112775692,16.50245314540643],[102.84102587664144,16.502525532329887],[102.84106862553921,16.5028380950717],[102.84114830062559,16.50318705324386],[102.84115094192843,16.503269398190852],[102.84120106717876,16.503558027807763],[102.8412323375725,16.50362351898145],[102.8412856371888,16.50394648041054],[102.84132254039035,16.50430528644126],[102.84134159319288,16.50467076788024],[102.84138174698377,16.504896870256363],[102.84140163574202,16.50515500437759],[102.84144427573301,16.505413373517523],[102.84099157745959,16.505455343338152],[102.84101256780218,16.505742299990263],[102.84038009332829,16.5058372892303],[102.84036694014522,16.505741116077733],[102.83936321091014,16.50533149964145],[102.83849896711995,16.505167530338674],[102.83791027387336,16.50490625585644],[102.83719647875097,16.504513349129436],[102.83697535777719,16.504447950400014],[102.83667545823265,16.50545597859992],[102.83959068299052,16.50674559790328],[102.8395613903477,16.506822124755377],[102.83819569291384,16.50878224725984],[102.83866087522013,16.50931545140924],[102.83965850220785,16.51088138433683],[102.83991047146235,16.511371035449447],[102.84124674465961,16.511292927717335],[102.84171401943544,16.510707813035733],[102.84182826018542,16.51053749820456],[102.84232360560482,16.509985598788763],[102.8425245953268,16.509687215037275],[102.84251779875162,16.509530741253702],[102.84401806722254,16.509539369465838],[102.84466420331204,16.509624238422568],[102.84404888719483,16.513813350039275],[102.84451754384135,16.51387306554305],[102.8436584865348,16.519133902276966],[102.84344343298284,16.519369395840013],[102.84280145802127,16.519305769492682],[102.84279771346431,16.51964064063436],[102.8426059336968,16.51961728389366],[102.84261743380047,16.519246845635262],[102.84235207835597,16.51919423707926],[102.84217921722323,16.520125953403767],[102.8416438375578,16.52044109108096],[102.84137347539743,16.520174633580506],[102.84103402155323,16.52014261950547],[102.84100208951192,16.520024708822792],[102.84084697702298,16.52002310487531],[102.84056120750923,16.51981349297248],[102.84027345809425,16.51978202650844],[102.8402633003646,16.520031320484936],[102.83977142540483,16.519755465505007],[102.83973871429347,16.52004014582772],[102.83955342289414,16.52009523735824],[102.83945302537587,16.519823407280438],[102.8391736140559,16.519706498546586],[102.83878237858698,16.51968107113046],[102.83812277955035,16.519873773059665],[102.83803985889053,16.51969119946768],[102.83785599471815,16.519618034835343],[102.83782125707656,16.51941815982348],[102.83700363814661,16.519872871704724],[102.83584040919418,16.51885604228114],[102.83267036727106,16.518612944328495],[102.83283528818599,16.515830248889092],[102.83290108212775,16.50951756304808],[102.83229880860313,16.5092062512451],[102.83125729269919,16.509414245482898],[102.83142544503345,16.51002381036484],[102.83058169728636,16.510834546481533],[102.83058765203447,16.510962877311606],[102.83047590916325,16.51104722948034],[102.82983365269736,16.51101205404562],[102.82982284663852,16.511318362012165],[102.82709394952936,16.511272178813982],[102.82284313056688,16.510791982820322],[102.80999377699233,16.50777030516237],[102.80999381260605,16.507767143031668]]]},"properties":{"id":"e01","label":"เขตเลือกตั้ง 1","number":1,"sourceFolder":"เขตเลทอตั้ง3เขต","boundaryStatus":"derived_display","derivation":"joined source polylines; endpoint closure <=1m","closureGapM":0.35,"sourceRecordCount":2,"legalAuthorityVerified":false}},{"type":"Feature","id":"e02","geometry":{"type":"Polygon","coordinates":[[[102.83230641462546,16.483620405964455],[102.8364011016043,16.482262253109862],[102.83560534194149,16.468298075338517],[102.83560583971463,16.468255659815622],[102.83539506195622,16.46624073737604],[102.83546554678975,16.466232097639967],[102.83529105033625,16.465771245417358],[102.83538849109647,16.465739463501375],[102.83510424112198,16.46412400040992],[102.83527889984487,16.464132832097917],[102.835035204948,16.461925240921765],[102.83501883977739,16.461866531153085],[102.83510171829971,16.46183692922029],[102.83473226578508,16.461337759461124],[102.83512460248618,16.461196605669244],[102.83493597391482,16.460915947965713],[102.83482363650373,16.460978023045723],[102.83459666842317,16.460543562296113],[102.83495160359169,16.460273207365383],[102.83475895879462,16.46002646831519],[102.83499417158077,16.45982748024204],[102.83484103708805,16.459629162379546],[102.83498559842197,16.45950652604771],[102.8348694952787,16.459361287854577],[102.8349062617749,16.459328878679873],[102.83456364343421,16.458927182922853],[102.83473646849612,16.458882127663518],[102.83475371160107,16.45874997812036],[102.8349201917058,16.458620542056487],[102.83495773778851,16.45851787836929],[102.83461367506071,16.45850293637756],[102.8345159250153,16.458085550120916],[102.83477602719951,16.458021720141506],[102.8347083867024,16.457585493639986],[102.83471673285905,16.45748955443252],[102.8347597042035,16.457335420967944],[102.83528396135858,16.45707086611182],[102.8346766556107,16.45625117516513],[102.83507300323663,16.45560065468542],[102.83529381813527,16.455694744087506],[102.83636353475961,16.45544678696447],[102.8370901332658,16.455417638600736],[102.83710103177832,16.455668576570286],[102.83825752870457,16.455627247064047],[102.83835376874704,16.45572003471324],[102.83834783957754,16.45583677015823],[102.83840721935206,16.456164982335075],[102.83916171591837,16.456062462045765],[102.83922715095991,16.456373470553345],[102.83991458097633,16.456237918334164],[102.84001803578047,16.45630249077493],[102.8404605137766,16.45624557473477],[102.84054428242169,16.456699265589886],[102.84097806623558,16.456673835757446],[102.84103591309186,16.45672875429752],[102.84161601386491,16.456567689232656],[102.84165760413104,16.456831437047637],[102.84192177295357,16.456791883347464],[102.84190658777045,16.456738535647727],[102.84206777208955,16.456714315750737],[102.84212559710592,16.456901482915455],[102.84241071359915,16.45684950408156],[102.84243498886316,16.45703229171478],[102.84344148747311,16.45685285986713],[102.84369519640049,16.457292708236096],[102.84382861172526,16.45716450995318],[102.8446609870902,16.456702005737835],[102.84583503556962,16.45384154443125],[102.84586051970003,16.453491523864574],[102.84673457864335,16.453580666155233],[102.85092527740055,16.45483705210474],[102.85281015116671,16.46006451401417],[102.85294288655966,16.459997794348386],[102.8529896352478,16.460092707372223],[102.8531938091369,16.45994546269173],[102.85354357406125,16.45980410194848],[102.85392111937107,16.459723418957235],[102.85404615765574,16.459735680623997],[102.8545068473861,16.459648161798007],[102.8549665729421,16.46016566827775],[102.85516314851468,16.46060581088476],[102.8552910185227,16.460567589672465],[102.85535972208095,16.460528762605737],[102.85561303592432,16.46108697929207],[102.85555372447564,16.461099548909342],[102.85581544190435,16.461721539547092],[102.85723963523098,16.461458302358047],[102.85738156954447,16.461382889359488],[102.85738448621625,16.461519233744283],[102.85736639586466,16.46152109105141],[102.85738241368298,16.461927541062806],[102.85741104594443,16.462264169987012],[102.85746405182012,16.46262299963788],[102.85736360483354,16.462603760165322],[102.85743607508633,16.46370022425888],[102.85740022374861,16.465328597485247],[102.85726179335437,16.465450644479954],[102.85632433512723,16.470808882509434],[102.85602936218056,16.470933237902525],[102.85594329418355,16.470895022108877],[102.85587881476937,16.47106675855885],[102.85591053040427,16.471080260211817],[102.85570692542359,16.471691995306053],[102.85499930456082,16.47146513224142],[102.85494551210961,16.471596349260153],[102.8547300883902,16.471523865415477],[102.85445651410734,16.472288611281495],[102.85487272595532,16.472432721253767],[102.85458536042256,16.473205794413147],[102.85417827697016,16.473040714569613],[102.85400389567683,16.47350063068509],[102.8537112390257,16.47341417698529],[102.85369900867326,16.473078042949968],[102.8522061494799,16.473058338453964],[102.85323020526565,16.47495575179536],[102.85349810925865,16.47519964494645],[102.85525869247793,16.47660135284177],[102.85585154518277,16.477751666501796],[102.85587399697853,16.47791753454347],[102.85596062500889,16.478125649499958],[102.85599208968958,16.478269006102426],[102.85738119128816,16.481643719934382],[102.85879290874489,16.48580248864618],[102.85857870621062,16.48586079669358],[102.85853111717498,16.485709838537648],[102.85804342722496,16.485770841383367],[102.85731942843367,16.485799064489516],[102.85580148059773,16.485871945038753],[102.85614838498913,16.486918236706664],[102.85662210604156,16.488375002667798],[102.85686873373629,16.48834057218818],[102.85695616273358,16.488352027381033],[102.85705738689721,16.488353064525104],[102.85712816877825,16.488385467796995],[102.85747187878813,16.488604135901692],[102.85766230962835,16.488703760646686],[102.85777637073872,16.48878148430964],[102.8579639499706,16.488891638966045],[102.85825971280244,16.489116414488894],[102.85786917601214,16.489210084908585],[102.85754291904519,16.48924457943121],[102.85669603821285,16.489209527741977],[102.8564044598543,16.489326805139076],[102.85540002605823,16.48935463241315],[102.85522386294677,16.49049497645264],[102.85514979236595,16.490512695642053],[102.85522320042514,16.491300119562478],[102.85333897292301,16.49195658332206],[102.85305150677426,16.491972110951796],[102.8530068043175,16.491311693899817],[102.85249866796791,16.491488624739738],[102.85245055900396,16.492482086003612],[102.85273931488626,16.494724889652016],[102.85252606266654,16.494709500298388],[102.85214869592224,16.495308825278318],[102.8517891863562,16.49709864920961],[102.8519187801564,16.497601985571663],[102.85222937798885,16.49777365346851],[102.85253795685436,16.497850716856085],[102.85276051742993,16.498087983592374],[102.85300955910813,16.498007781063585],[102.85338302272328,16.498035262227937],[102.85350615642872,16.498398603734945],[102.85373997841177,16.4985872156704],[102.85445451543397,16.498801452120748],[102.85462001678033,16.498934680888894],[102.85485895712267,16.499214972019214],[102.85541208453299,16.499063993707562],[102.85534029212594,16.499184442246836],[102.85534853739148,16.49927024313912],[102.85580104772068,16.499214292820042],[102.8558359169749,16.499108244031728],[102.85601675161827,16.499101231665975],[102.85600066497915,16.4993854434474],[102.85576140591073,16.499466311201978],[102.85532650831576,16.500371724957535],[102.85558335400346,16.50073264452299],[102.8556113932579,16.501009561009038],[102.85582313119751,16.501054350945214],[102.85553339610713,16.502314902729644],[102.85527548019817,16.502939795026],[102.85509201616564,16.50379171844074],[102.85451794282638,16.503343896983687],[102.85409913210609,16.503106258741944],[102.85242876980685,16.502378480329103],[102.8523797302748,16.502505251696856],[102.85229521736825,16.504019312514107],[102.85159936666724,16.503980341151046],[102.85083165415516,16.5039777503913],[102.85044953716492,16.50257556141911],[102.85050925392557,16.50164233478792],[102.84927626845364,16.501469278678282],[102.84924329094828,16.501468939328685],[102.84905636760368,16.503128662274445],[102.84913331576413,16.503129454228215],[102.84893597394624,16.505565093386803],[102.85133692378558,16.506008742796617],[102.85146825125588,16.506063124508962],[102.85198582042769,16.50648385784046],[102.85205824680851,16.506562381676666],[102.85234951451999,16.506735075952236],[102.85258285698868,16.506843536932525],[102.85271804488816,16.50688028050714],[102.85295982187421,16.507386563028845],[102.85320602744312,16.50765778514533],[102.85327229692929,16.50763018264488],[102.85381027489544,16.508692801720066],[102.85435953035872,16.51180564096513],[102.85347921274769,16.512445678575457],[102.8536523763506,16.512839669080723],[102.85357721151881,16.512905185904703],[102.85384198564861,16.513300117689123],[102.85382739715435,16.51332482624518],[102.85413645299587,16.513858315286868],[102.85493737293211,16.513927307389842],[102.85530984173344,16.514422777624098],[102.85453713762298,16.515688147157555],[102.85425349546969,16.516223832942437],[102.85413733454506,16.516371790109876],[102.85339366244293,16.51630338233829],[102.8527630407576,16.516368712650408],[102.85223346734246,16.516617375355008],[102.85168388319691,16.51686306866321],[102.85151101235334,16.516960723882725],[102.85110350866982,16.517044916492793],[102.85050102453434,16.51715472186051],[102.84991751054552,16.517361392245242],[102.85053813574116,16.518304074215422],[102.85116858978358,16.519186171110377],[102.851117057674,16.51918564078851],[102.85024976065235,16.521491305620827],[102.84985817606666,16.521458923035507],[102.84993556663369,16.521253212099158],[102.84959548096244,16.521101168846062],[102.84957375126518,16.5210284861285],[102.84918487512482,16.52070384987168],[102.84898277299737,16.52064017779997],[102.84900263210146,16.52054256289132],[102.84893176353829,16.52049835745149],[102.84880601010258,16.520323160529717],[102.84869754907118,16.520282190651958],[102.84853607339089,16.520280526837265],[102.84830772537065,16.52021296079194],[102.84811952174782,16.52025087359215],[102.84791770141901,16.52016184288027],[102.8478539826412,16.52015031728807],[102.84779077373122,16.519923231870152],[102.84756666326801,16.519812233460335],[102.8475518766968,16.5191128532407],[102.84691495615192,16.51931279434197],[102.84670657213232,16.519477300751394],[102.84644974176553,16.519777167486048],[102.84638154529793,16.51983080819406],[102.84639804368975,16.520033845531238],[102.84628242353658,16.519963834553284],[102.84617476650374,16.51985041295231],[102.84613550687867,16.519665238086166],[102.84598873163664,16.519692707504237],[102.84555087562678,16.519891074603414],[102.84537636740612,16.52004868314948],[102.8452488405057,16.5198644088068],[102.84506055662898,16.519909563862416],[102.84495004775488,16.520053340771184],[102.84475126141417,16.520029551333913],[102.84464987010165,16.520028504727698],[102.84457127348814,16.519665399802353],[102.84449870066798,16.519436405677215],[102.84415563179849,16.519215487757943],[102.8441184815515,16.51917887484186],[102.84403014451104,16.519069986516758],[102.84367845161127,16.519130424798735],[102.84451754384135,16.51387306554305],[102.84404888719483,16.513813350039275],[102.84466420331204,16.509624238422568],[102.84401806722254,16.509539369465838],[102.84331423094814,16.509527988868662],[102.84251779924358,16.50953075257951],[102.8425245953268,16.509687215037275],[102.84232360560482,16.509985598788763],[102.84182826018542,16.51053749820456],[102.84171401943544,16.510707813035733],[102.84124674465961,16.511292927717335],[102.83991047146235,16.511371035449447],[102.83965850220785,16.51088138433683],[102.83866087522013,16.50931545140924],[102.83819569291384,16.50878224725984],[102.8395613903477,16.506822124755377],[102.83959068299052,16.50674559790328],[102.83667545823265,16.50545597859992],[102.83697535777719,16.504447950400014],[102.83719647875097,16.504513349129436],[102.83791027387336,16.50490625585644],[102.83849896711995,16.505167530338674],[102.83936321091014,16.50533149964145],[102.84036694014522,16.505741116077733],[102.84038009332829,16.5058372892303],[102.84101256780218,16.505742299990263],[102.84099157808969,16.505455351952033],[102.84144416626714,16.50541288469297],[102.84102587664144,16.502525532329887],[102.84099112775692,16.50245314540643],[102.8409754852755,16.50226090927174],[102.84099379227568,16.502213079754583],[102.84042343938147,16.50186934173868],[102.83987427168547,16.50169903130852],[102.83978555384749,16.50168439475261],[102.83963334464694,16.501624513186634],[102.83945731993794,16.501373476402648],[102.83921318046897,16.500815297271238],[102.8390813878483,16.50042520219965],[102.83887961190057,16.499546776803125],[102.8388951261783,16.499430320626786],[102.83886343806795,16.499402553811617],[102.83882238092527,16.49925807355036],[102.83874725014026,16.49866049429038],[102.83876475125113,16.49852519421168],[102.83887820848757,16.49796221889721],[102.83903302412361,16.49765763057869],[102.83947945163243,16.497274237357946],[102.83998268093175,16.496777814366805],[102.84015734414012,16.496455921888533],[102.84029115052753,16.496011416839437],[102.84076611463968,16.49505809336623],[102.84096779999959,16.493983958636303],[102.84099855118497,16.491474565929206],[102.84119263674705,16.490538671283655],[102.84112227206454,16.48949052980839],[102.84051446734277,16.486466213114635],[102.83920766091606,16.486969669168868],[102.83801070787139,16.487204794576638],[102.83288096035051,16.487677869788463],[102.83228572316347,16.48761930083537],[102.83230641462546,16.483620405964455]]]},"properties":{"id":"e02","label":"เขตเลือกตั้ง 2","number":2,"sourceFolder":"เขตเลทอตั้ง3เขต","boundaryStatus":"derived_display","derivation":"joined source polylines; endpoint closure <=1m","closureGapM":0.0,"sourceRecordCount":2,"legalAuthorityVerified":false}},{"type":"Feature","id":"e03","geometry":{"type":"Polygon","coordinates":[[[102.85116861675641,16.51918615994039],[102.85053813574116,16.518304074215422],[102.84991754730068,16.517361380845323],[102.85050105150714,16.51715471068907],[102.85110353564555,16.51704490532022],[102.85151103933106,16.516960712709377],[102.85168391017554,16.516863057489456],[102.85223349432397,16.516617364180032],[102.85276306774189,16.516368701474253],[102.85339366244293,16.51630338233829],[102.85413731755744,16.516371788547282],[102.85425349546969,16.516223832942437],[102.8545371646164,16.51568813597763],[102.85530984173344,16.514422777624098],[102.85493737293211,16.513927307389842],[102.8541364799902,16.5138583041053],[102.85384201264243,16.51330010650733],[102.85357721151881,16.512905185904703],[102.8536523763506,16.512839669080723],[102.85347923974112,16.51244566739319],[102.85435955735713,16.511805629780604],[102.85381030189596,16.508692790532532],[102.85327232392896,16.507630171456892],[102.85320605444244,16.507657773957487],[102.8529598488728,16.507386551841062],[102.85271807188643,16.506880269319126],[102.85258288398636,16.50684352574469],[102.85234954151674,16.506735064764644],[102.8520582738042,16.506562370489334],[102.85198584742317,16.506483846653147],[102.85146827824963,16.506063113321975],[102.85132774443622,16.506007062858878],[102.84893647563725,16.505558579698686],[102.84913281638464,16.503135295920135],[102.84905639459078,16.503128651087735],[102.84924329094828,16.501468939328685],[102.85050936264898,16.501641046385107],[102.85044953716492,16.50257556141911],[102.8508316811491,16.503977739202735],[102.8515993936647,16.503980329961227],[102.85229519107453,16.504019311041557],[102.8523797302748,16.502505251696856],[102.85242876220657,16.50237849997648],[102.85354303935543,16.502858359802648],[102.85409915911627,16.503106247546903],[102.85451794282638,16.503343896983687],[102.85509204317934,16.50379170724493],[102.85527550721399,16.50293978382882],[102.85553342312505,16.50231489153125],[102.85575654541151,16.501355543470424],[102.85579922818897,16.501140320023556],[102.85581115491088,16.501106350297423],[102.8558229908332,16.501054855272578],[102.85561142027812,16.50100954980886],[102.85558338102396,16.500732633322517],[102.85532653533562,16.500371713757026],[102.85576143293395,16.499466299999625],[102.85600069200358,16.499385432244544],[102.8560167786432,16.499101220462734],[102.8558359169749,16.499108244031728],[102.85580104772068,16.499214292820042],[102.85534853739148,16.49927024313912],[102.85534029212594,16.499184442246836],[102.85541208453299,16.499063993707562],[102.85485895712267,16.499214972019214],[102.85462001678033,16.498934680888894],[102.85445451543397,16.498801452120748],[102.85373997841177,16.4985872156704],[102.85338302272328,16.498035262227937],[102.85300955910813,16.498007781063585],[102.85276051742993,16.498087983592374],[102.85253795685436,16.497850716856085],[102.85222937798885,16.49777365346851],[102.85191806552798,16.497599326090945],[102.85178678073547,16.49711075040997],[102.85214866890935,16.495308836479975],[102.85273931488626,16.494724889652016],[102.85245053198545,16.492482097209322],[102.85249864094773,16.49148863594678],[102.85300677729472,16.491311705107915],[102.85305147975227,16.49197212215914],[102.85333894589967,16.491956594529896],[102.8552231733922,16.491300130774242],[102.8551497653322,16.490512706854684],[102.85522383591265,16.49049498766542],[102.85539999902159,16.48935464362766],[102.85640443281304,16.489326816355273],[102.85669601117007,16.489209538958807],[102.85754289199858,16.48924459064939],[102.85786914896401,16.489210096127344],[102.85825968575237,16.48911642570841],[102.85796392292156,16.488891650185362],[102.8574718517409,16.488604147120558],[102.85712814173225,16.488385479015573],[102.8570573598515,16.488353075743607],[102.85695613568832,16.488352038599366],[102.85686870669142,16.488340583406384],[102.85662207899787,16.48837501388555],[102.85580145355407,16.48587195625831],[102.85804340017087,16.48577085260676],[102.85853109011857,16.485709849761914],[102.85857867915422,16.485860807917724],[102.8587935023087,16.485805446008875],[102.85741196134714,16.48171847218377],[102.85693701167915,16.480546224536447],[102.85599208968958,16.478269006102426],[102.85596065206485,16.47812563827037],[102.8558740240344,16.47791752331375],[102.85585003050932,16.477748791320316],[102.85525869247793,16.47660135284177],[102.85323023231386,16.47495574056627],[102.8522061494799,16.473058338453964],[102.85369900867326,16.473078042949968],[102.85371126607842,16.47341416575346],[102.85400392273075,16.473500619452896],[102.85417830402558,16.473040703336544],[102.85458534053856,16.473205786349837],[102.85487275301482,16.472432710018783],[102.85445654116515,16.47228860004702],[102.8547300883902,16.471523865415477],[102.8549454923767,16.471596342620604],[102.85499933162234,16.471465121005004],[102.85570690434817,16.47169198854932],[102.85591055747054,16.471080248973426],[102.85587881476937,16.47106675855885],[102.85594329418355,16.470895022108877],[102.8560293892476,16.470933226663746],[102.85632436219578,16.47080887127001],[102.85726179335437,16.465450644479954],[102.85740022374861,16.465328597485247],[102.8574361021706,16.463700213008647],[102.8573636319191,16.46260374891382],[102.8574640789061,16.46262298838624],[102.85741104594443,16.462264169987012],[102.85738244076964,16.461927529810414],[102.85738445894813,16.461519236543857],[102.85774596970298,16.461482120819646],[102.85789054898883,16.459800763177416],[102.85827882072408,16.459814343869432],[102.85860781696688,16.459784070369334],[102.8586369801796,16.458715193314987],[102.85877205065367,16.458658910560686],[102.86716916336441,16.449337054618816],[102.86744998669829,16.44914331851013],[102.8688322237586,16.448956967873766],[102.86889939682904,16.448854336639858],[102.87060728168335,16.44875720310312],[102.87097479370273,16.448580931588285],[102.87108921338903,16.448343482413463],[102.87231958863791,16.447976719148066],[102.87255536294725,16.448022845008644],[102.87296616919843,16.448265018680146],[102.87331544686104,16.44829371997882],[102.87352299415632,16.449461540132415],[102.87385872083811,16.44945717270946],[102.87442769749494,16.45021101949995],[102.87489195169054,16.45065640378941],[102.87578924217324,16.451065331562386],[102.8764625772307,16.45093803026017],[102.87650340616223,16.45139902703166],[102.87666674221781,16.45131114056265],[102.87687393024945,16.45074614392962],[102.87712939430865,16.450718884582272],[102.87763014491837,16.45053368055841],[102.87776336511595,16.450370870225573],[102.87806513649872,16.450351540359673],[102.87849647790387,16.450505142883674],[102.87901181258046,16.45075659795756],[102.87930512352338,16.45080433689237],[102.87931042290775,16.451028244381433],[102.87948224899583,16.451582155908916],[102.8798662325209,16.451824818372444],[102.8799645543626,16.452027281576694],[102.87978967745624,16.452465758390883],[102.88009821126442,16.452536035909933],[102.88173481857913,16.45252387501006],[102.88176661717183,16.454047051222897],[102.883298610803,16.454038363298743],[102.88325928157516,16.455522877622176],[102.88662389273506,16.45564203921241],[102.88658179626879,16.457183082593975],[102.88842228919131,16.45717179324887],[102.88844613979931,16.458183111393467],[102.88860850866449,16.458184747875507],[102.89010801884385,16.45817435288385],[102.8901197170364,16.45895637710228],[102.89166998649087,16.4589350292607],[102.89170408659885,16.460069332124686],[102.89329870610834,16.46004841948765],[102.8933228848548,16.461169007914368],[102.8964999690932,16.46113480573871],[102.89653494218972,16.462938215528723],[102.89812560021723,16.462913338616314],[102.89813430374846,16.46360197313014],[102.89974086839464,16.46360057311937],[102.89973766654943,16.46426964983219],[102.90123973963807,16.46423608172462],[102.90124338742893,16.46558016046496],[102.90309970116506,16.46559681122011],[102.90359756226428,16.466724091823156],[102.90324026364567,16.467146481127763],[102.90292468311696,16.467625693989618],[102.90291388825514,16.468617743812636],[102.90411410505436,16.46998603267333],[102.9049742831195,16.4700904607759],[102.9061511764863,16.47077707889049],[102.90698761295197,16.471421756281238],[102.9079290556503,16.471616799588446],[102.90885032431312,16.47166953931733],[102.90989314209072,16.47158359371548],[102.91017309335624,16.471615970213414],[102.91048676465493,16.47177123558689],[102.91046361771676,16.47223229486772],[102.91040463202667,16.472385292095904],[102.91018030281941,16.472577446597523],[102.90984345749861,16.47274523465073],[102.90818452065263,16.47326747241334],[102.90773975511054,16.474006293093],[102.90823833204416,16.47539471861031],[102.90784357425187,16.475652781788856],[102.90755977223867,16.47577461015334],[102.90705782271931,16.47581818976728],[102.90563850022866,16.47574271593041],[102.90479764817427,16.47553356811021],[102.90461038371156,16.475127111818285],[102.90469312658196,16.474460189515206],[102.90507925215614,16.47346054391513],[102.90526805901185,16.472684203177174],[102.90515905361086,16.47165565833041],[102.90476300499522,16.471015690678765],[102.90274113172373,16.47163778812729],[102.90144164008579,16.471248965247458],[102.90166761654112,16.471674367447513],[102.9016883432484,16.471808783706233],[102.90175448623205,16.47203118246805],[102.90175900456856,16.472173216470203],[102.90192886965178,16.472497797450135],[102.90201699615177,16.472737921960114],[102.90186058679232,16.473035892169918],[102.90187756024673,16.473331710022777],[102.9019137000578,16.473532412491277],[102.90188146152134,16.47390553910263],[102.90186240060508,16.474739774767567],[102.90179929370979,16.474984218534374],[102.90157446055012,16.475458501881555],[102.90127536227986,16.47590286442893],[102.9010185698195,16.476349595723114],[102.90067634018672,16.476680711684875],[102.90049720431412,16.476842298844065],[102.90023498699885,16.477043898293378],[102.9000799961473,16.47720961736136],[102.8998049891764,16.4772885498127],[102.8995818854039,16.47741468394816],[102.89950491377013,16.477448922276587],[102.89911503589673,16.477524755743847],[102.8985307107013,16.47749943862335],[102.89815164507628,16.477507302194418],[102.8975740178709,16.477421753271148],[102.89723257732655,16.477305510265595],[102.89678556862324,16.477258227464855],[102.89615142155027,16.477179886913316],[102.89590211342707,16.477119029242292],[102.89568425738376,16.477132399197],[102.89547005447551,16.477180816438896],[102.89509132620627,16.477157557211736],[102.89460889740299,16.477216890935463],[102.8941399262181,16.47733665523153],[102.89381175438221,16.477485066045073],[102.89360647257611,16.477640548344105],[102.89335145150379,16.477735233442253],[102.89312305071539,16.477978009307954],[102.89270954730061,16.478187800373128],[102.89233402460128,16.478427148649384],[102.8918665227593,16.47841076941087],[102.89157052357031,16.47819383305743],[102.89128905034805,16.47812486567538],[102.89116186014533,16.47795631068247],[102.89121179304101,16.47781288097226],[102.89047067278163,16.477747060538608],[102.8904587053515,16.477735269676735],[102.89048918759909,16.479694577034024],[102.89005100046978,16.47992232611023],[102.88854369876393,16.482280928200886],[102.88881816511645,16.483564948951457],[102.88938985908759,16.4836209154593],[102.89146296937427,16.482556281873773],[102.89200089035447,16.481526362391914],[102.89731785499113,16.48010150904805],[102.897376186659,16.48270677628737],[102.89696481011903,16.483268862506723],[102.89681730311729,16.48353904980367],[102.89426178960966,16.485345379077604],[102.8938580936682,16.485507155839866],[102.893386427329,16.485823989412104],[102.89316746464876,16.486126863678923],[102.89330693267216,16.486590938507728],[102.89429858366316,16.487257551730206],[102.89567790893973,16.487705817982654],[102.89664652549342,16.487598377561667],[102.8971798412905,16.487854269187483],[102.89736104561212,16.487751030147926],[102.89802359223039,16.488256727877253],[102.8988957486802,16.489520159047192],[102.8990338559835,16.489529628050754],[102.89949255347408,16.488978961292336],[102.89948117106096,16.488352093389654],[102.89995045727247,16.48774230696926],[102.90024290435365,16.487545662133567],[102.90051165352511,16.487527351330797],[102.90071504861419,16.48751188568729],[102.90152543732628,16.487577790939877],[102.902186997816,16.48781552088954],[102.90248525248427,16.48792180399221],[102.90301529181798,16.488072427707973],[102.90312071266487,16.48805597747888],[102.9035224806518,16.488154543347736],[102.90500683316863,16.48933013928507],[102.90508184223124,16.490285029468588],[102.90545304164024,16.4910328007619],[102.90562246342822,16.4911395403843],[102.90578707605678,16.491018638915047],[102.90613297587613,16.490913558185717],[102.90616420375495,16.491046925134846],[102.90648088514521,16.49095905841767],[102.90656211096373,16.4908303186367],[102.90656168239067,16.490532692840116],[102.90661058800296,16.4903721166177],[102.90691536555137,16.4903786685631],[102.90692405344676,16.490245701163055],[102.90718016264051,16.490222003454473],[102.90717472730019,16.490390017739607],[102.90739986057046,16.49037826480863],[102.90781389812476,16.490011255444273],[102.90795652732257,16.49024727818726],[102.90800885176014,16.490443881802623],[102.90826728346937,16.490372936663526],[102.90825748812102,16.490271297141366],[102.90869215854077,16.49017935474333],[102.90879308668853,16.490243389774275],[102.90945472324441,16.490137958643636],[102.90987175823854,16.490336456591415],[102.91043824623686,16.491319018210177],[102.9106317707749,16.49205450282306],[102.91046769832579,16.492632351167664],[102.90960273748773,16.493252213786764],[102.90919787090142,16.493440744818642],[102.9088883308413,16.493539191062226],[102.90702706200827,16.493322738356778],[102.90678820078587,16.49326082308842],[102.90570066442952,16.492978572959395],[102.90393558023744,16.49242516949114],[102.90353672452788,16.492729296374417],[102.90352010632547,16.493261346071748],[102.9039041455653,16.49433313030854],[102.90405428447575,16.494208584114173],[102.90484295186292,16.494946535378414],[102.90522001139213,16.494981826247635],[102.90551196304949,16.495000507482988],[102.90658273355648,16.49498672115135],[102.90666845798175,16.49528345013443],[102.90708389249178,16.49546268054156],[102.90746232407142,16.4957080670244],[102.90781467713053,16.496016217696415],[102.90794985290944,16.49643949272931],[102.9081575799385,16.496697175708135],[102.90834127627369,16.497164703966366],[102.90861098133831,16.498240590909862],[102.9085803212801,16.498560665113644],[102.90909281144906,16.49933435608244],[102.90976885308704,16.49974903413781],[102.91113121929516,16.50012855286736],[102.91184929950971,16.500177744878652],[102.91217999917897,16.500297567242363],[102.91242588827077,16.500494981736725],[102.91245347341763,16.500492303318207],[102.91246776673334,16.500586971452204],[102.91246554823766,16.50079372357155],[102.91279310924364,16.501504971115995],[102.91266498480928,16.502259894685395],[102.91202347620155,16.502578417760652],[102.91135492860803,16.502791509009],[102.91070718550402,16.503005987504764],[102.910339801828,16.503002314486597],[102.91011724583183,16.503083980263813],[102.91001737274054,16.503260216356754],[102.90983368073205,16.503258379294756],[102.90944833955983,16.503330145228418],[102.90883594933331,16.50344571969934],[102.90821618549683,16.50356358162028],[102.90750569799974,16.503689985771583],[102.90710448214409,16.5033019600027],[102.90628591674108,16.503228775064397],[102.90559899271975,16.502986761227383],[102.90496239047363,16.50307608719178],[102.90432925000434,16.502844061030217],[102.90426057021918,16.50285282483753],[102.90379500105028,16.502754812374352],[102.90339394176024,16.5026940744771],[102.90339437470968,16.50265390573526],[102.90329982337491,16.50256315854409],[102.90326032623459,16.502364260007973],[102.9040764718376,16.502320457441346],[102.904093177884,16.501565606955594],[102.90393454525405,16.501170556081124],[102.90311819861985,16.50043807078755],[102.90245811735191,16.50032038117631],[102.90184966236964,16.500298914186818],[102.90131019923126,16.500591954439194],[102.90115546616912,16.500958113568448],[102.90111481030034,16.50123247970279],[102.90109563749608,16.501262593168683],[102.90096877773031,16.501374461589467],[102.90077646391046,16.502312015880857],[102.90066759891914,16.50250286032658],[102.90068682740808,16.505184122897163],[102.90100135042881,16.50611868631778],[102.90099744833121,16.506674256811685],[102.9004627921168,16.50750735054997],[102.90045816778671,16.507547712044826],[102.89935597370508,16.508185181206883],[102.89755845459108,16.507468044499113],[102.89723532205467,16.507137488873347],[102.89671787845923,16.506958526972767],[102.89617224780154,16.507062135177353],[102.8959178548917,16.507462392555368],[102.89568144940294,16.508390409679],[102.895795109171,16.50860993181987],[102.89610617377072,16.50922048404559],[102.89655441688144,16.510162736066878],[102.89656049274615,16.510480270377453],[102.89658006148017,16.510781424595464],[102.89647200721156,16.511450149782657],[102.89622802134167,16.51184774552956],[102.89609131238322,16.51182434743738],[102.8957423994279,16.51207407733479],[102.8953868855355,16.512406319693252],[102.89533303217718,16.512460830193728],[102.89514713735674,16.51276358421366],[102.89496569627849,16.51318199436043],[102.89495323967029,16.51362963389927],[102.89509873923527,16.51389535501653],[102.89549154758568,16.51415989784078],[102.89581539077402,16.51429345291467],[102.89646669269176,16.51422660915334],[102.89801552163247,16.513664143607595],[102.90043138538074,16.513314079445415],[102.90140900576462,16.512622892142875],[102.90169021129702,16.51212473219339],[102.90194377767483,16.511896055262916],[102.9023275328616,16.511413604973242],[102.90275977117516,16.511197731571688],[102.9038494833624,16.511047178901066],[102.90401599307802,16.51112959453655],[102.9041690000067,16.511758738018937],[102.90423456307889,16.511852986520204],[102.90403560771207,16.512309768367754],[102.90388771023687,16.512794588948196],[102.90388256595726,16.51327166636133],[102.90393903444904,16.513327286371553],[102.9037977468517,16.514786617222967],[102.90377738036722,16.514911200385157],[102.90362781702738,16.515550153009542],[102.9034632514987,16.51599259793316],[102.90320536184521,16.516268945729113],[102.90288904095459,16.516495158411928],[102.90241205081938,16.51662616623906],[102.90198102750477,16.51672827295013],[102.90178966852275,16.51683278677886],[102.90132006765997,16.516807881952687],[102.90085373665619,16.516656386488293],[102.90051478745868,16.516511675984606],[102.90003490663233,16.51620589359044],[102.8985645353773,16.51584426862595],[102.89837265999614,16.51599648677747],[102.89829142300684,16.516120456461444],[102.89830033539675,16.51635176946294],[102.89852245294684,16.51709722247725],[102.89886444674293,16.51766404118466],[102.89920779127212,16.51810608587663],[102.89959241054183,16.518425593175373],[102.89983502673597,16.518683113223595],[102.90025055798941,16.51895888784624],[102.90103836945258,16.519816463209036],[102.90145931332451,16.520472157629264],[102.90199476488166,16.52091796462253],[102.90246590948055,16.521531792044545],[102.90299096750266,16.522241831315178],[102.90374225623266,16.52314501524332],[102.9041505749944,16.52369778676865],[102.90444496011091,16.524095290792772],[102.90489960896358,16.524802701657258],[102.90432719410218,16.525136451272253],[102.90390281015316,16.52532671194044],[102.9035413966276,16.525675423506204],[102.90321982495611,16.524976687216284],[102.90287414207168,16.52457316095366],[102.90231763601068,16.525019006188618],[102.90236269391058,16.52507451221748],[102.9015408893885,16.525600268772326],[102.90155622402452,16.525941752911482],[102.90038112946488,16.52571155864235],[102.90029596544085,16.525846499852076],[102.89934259871967,16.52551943448486],[102.89863079251526,16.52519663204488],[102.89797483883459,16.525162501163194],[102.89690453373113,16.52562150696359],[102.89538086207907,16.52244794029268],[102.89397492687411,16.523158627246673],[102.89291053789223,16.520967788952937],[102.89148662124951,16.521582852807082],[102.89109989999069,16.520756823158635],[102.88807711510121,16.521454802529643],[102.88795073681226,16.52153059811124],[102.88665778015792,16.521822140132684],[102.88654389182535,16.52179896617434],[102.88446872869191,16.521772444094417],[102.88368549320914,16.521748950613357],[102.88261836434897,16.52174010632598],[102.88253210850588,16.521583670525793],[102.88094760205516,16.52152693660026],[102.8809105702675,16.521561915486966],[102.88044435349414,16.52163142795199],[102.88042772880884,16.522147438290684],[102.87982179161274,16.52225795631812],[102.8797221906666,16.522317047839813],[102.87897433738429,16.52199833004653],[102.87861339113523,16.52199289506917],[102.87817259384461,16.52208387335062],[102.87820052094125,16.522211434058914],[102.87783008468837,16.522235952717732],[102.87657689568279,16.522380538733273],[102.87627975178923,16.52240580001777],[102.87522584339771,16.522425128064498],[102.87517860252638,16.521885489135897],[102.8751038620433,16.52117940355277],[102.87501813217641,16.52030527160632],[102.87453081993222,16.520293240610417],[102.87463017098625,16.520927099737932],[102.87407527005863,16.52106286886557],[102.87387592229123,16.52085931769623],[102.87384919739509,16.52062216966605],[102.8737850143285,16.520458884874177],[102.873821046416,16.520347884771628],[102.8739254878884,16.51967897834476],[102.87387598890066,16.51642970308327],[102.87392537535571,16.515579473721793],[102.87267705606762,16.515540381458187],[102.87136493746605,16.515548225004114],[102.87110129865941,16.51619606189692],[102.87103290523959,16.516250164279473],[102.87114185795822,16.516675529774417],[102.87023340934503,16.51663444810776],[102.86996456470655,16.5179239148305],[102.87045811308059,16.518871147324678],[102.86838063628095,16.519990133078778],[102.86827831890558,16.520296672690645],[102.86814868287435,16.520086757564968],[102.8684728418539,16.519101908460716],[102.86805946640224,16.518698182435777],[102.86685415581265,16.519658121234176],[102.86574119610283,16.517714627036316],[102.86578769375004,16.51748529824079],[102.86300514696079,16.520064229609993],[102.8623986356453,16.519727457706686],[102.86198399779727,16.519772708602556],[102.86143984858,16.519597435116694],[102.86128389171455,16.51961528265766],[102.86084937471854,16.519801745120045],[102.86051999991273,16.52009181158499],[102.85929001973487,16.520126933140652],[102.85913390664147,16.520158919133827],[102.85888428922497,16.52019524932995],[102.85853697801146,16.52044977401846],[102.85839862140267,16.52036704002331],[102.85828022420583,16.520136022582307],[102.85800869748526,16.520165056120547],[102.8578393491508,16.52023402735656],[102.85745774978002,16.520440470006605],[102.8573058271371,16.52059093444086],[102.85728571108572,16.520753357731333],[102.85708954049636,16.52092811585919],[102.85694217855149,16.520997311913522],[102.85682904532227,16.52095372551539],[102.85648321239887,16.52107391527241],[102.85625041377072,16.521412693784455],[102.85592777975187,16.52147511760905],[102.85590804193095,16.521706927239226],[102.85543885230574,16.521931358515108],[102.85480781914049,16.521772962842434],[102.85437375035129,16.52166906858605],[102.85415622811486,16.521661308904328],[102.85399755095206,16.521510527333305],[102.85348429767853,16.521317431875683],[102.85307980050375,16.521387848105668],[102.8528338936722,16.52135769882616],[102.85242735764969,16.521353517538056],[102.85188814991216,16.521436355932927],[102.85164059428004,16.521555338725932],[102.85137677706983,16.521591292500293],[102.85116905767282,16.52173278099619],[102.85089342187322,16.521801757006646],[102.85080193022507,16.521789767021115],[102.85066025015938,16.521655730407744],[102.85024976065235,16.521491305620827],[102.8511170846466,16.519185629618605],[102.85116855456828,16.519186170747982],[102.85116861675641,16.51918615994039]]]},"properties":{"id":"e03","label":"เขตเลือกตั้ง 3","number":3,"sourceFolder":"เขตเลทอตั้ง3เขต","boundaryStatus":"derived_display","derivation":"joined source polylines; endpoint closure <=1m","closureGapM":0.0067,"sourceRecordCount":1,"legalAuthorityVerified":false}}]}