{"type":"FeatureCollection","features":[{"type":"Feature","id":"health-000001","geometry":{"type":"Point","coordinates":[102.81771230674484,16.491088185422228]},"properties":{"id":"health-000001","label":"โรงพยาบาลส่งเสริมสุขภาพตำบลบ้านโนนม่วง","sourceRecord":1,"sourceFolder":"สถานพยาบาล","sourceFile":"สถานพยาบาล.shp","datasetId":"health","geometryDisplayRepair":false,"villageIds":["v03"],"villageId":"v03","electionIds":["e01"],"electionId":"e01","insideMunicipality":true}},{"type":"Feature","id":"health-000002","geometry":{"type":"Point","coordinates":[102.8338418468283,16.497404786842115]},"properties":{"id":"health-000002","label":"ศูนย์สุขภาพชุมชน เมืองบ้านหนองกุง","sourceRecord":2,"sourceFolder":"สถานพยาบาล","sourceFile":"สถานพยาบาล.shp","datasetId":"health","geometryDisplayRepair":false,"villageIds":["v02"],"villageId":"v02","electionIds":["e01"],"electionId":"e01","insideMunicipality":true}},{"type":"Feature","id":"health-000003","geometry":{"type":"Point","coordinates":[102.8329886558368,16.483685922891027]},"properties":{"id":"health-000003","label":"กุมารเวชคลินิค","sourceRecord":3,"sourceFolder":"สถานพยาบาล","sourceFile":"สถานพยาบาล.shp","datasetId":"health","geometryDisplayRepair":false,"villageIds":["v24"],"villageId":"v24","electionIds":["e02"],"electionId":"e02","insideMunicipality":true}},{"type":"Feature","id":"health-000004","geometry":{"type":"Point","coordinates":[102.80085229993873,16.46645897257581]},"properties":{"id":"health-000004","label":"โรงพยาบาลธัญญารักษ์ขอนแก่น","sourceRecord":4,"sourceFolder":"สถานพยาบาล","sourceFile":"สถานพยาบาล.shp","datasetId":"health","geometryDisplayRepair":false,"villageIds":["v19"],"villageId":"v19","electionIds":["e01"],"electionId":"e01","insideMunicipality":true}}]}