{"type":"FeatureCollection","features":[{"type":"Feature","id":"sila","geometry":{"type":"Polygon","coordinates":[[[102.91047162330757,16.50232561332634],[102.91043608930815,16.502061760835925],[102.91041390192517,16.501897011483443],[102.91032102704715,16.50166755656501],[102.91019037904542,16.501448958891867],[102.91010022130445,16.501369901163194],[102.90995238459993,16.501240265563354],[102.90979519330119,16.501145560594136],[102.90960744677787,16.50103244638305],[102.90929754155147,16.500939003979486],[102.90892839864749,16.500835392167193],[102.90858284310038,16.50068397142018],[102.90812973726771,16.5005323072792],[102.90778074379638,16.500414006964856],[102.90765364149422,16.500370922195906],[102.90739144369316,16.50026643379361],[102.90711721588613,16.500115931089404],[102.90682008382522,16.499930895236417],[102.90668930007853,16.499676207890122],[102.90659457779911,16.49938362903156],[102.90650892745116,16.499048024688356],[102.90642310458892,16.498616562067195],[102.90632394440136,16.498248504547142],[102.90619669014643,16.497849394466517],[102.90607583611431,16.49741971439325],[102.90590989554397,16.49707320538043],[102.90575586315822,16.496853912809797],[102.90560136472104,16.49666959002016],[102.90537325915741,16.496545288056364],[102.90506905991444,16.496386319415425],[102.90464823593479,16.49624080828992],[102.90438901568949,16.496158966329997],[102.9042435496071,16.49611303908342],[102.90389756107359,16.495997705325856],[102.90349272125023,16.4958913652359],[102.90314720021279,16.495741059985313],[102.90283767725599,16.495578803586383],[102.90264029234191,16.495479915307072],[102.90251649223116,16.495417892292213],[102.90229008896648,16.495232654001523],[102.90205257726146,16.494988977994993],[102.9018386281367,16.494667044190034],[102.90166053073557,16.494413235391068],[102.90153015393028,16.49409086784775],[102.90143577514175,16.493756549958064],[102.90142497511948,16.493480443795757],[102.90192388996996,16.49312068009443],[102.90226795218145,16.49287257787982],[102.90361475384535,16.493432613940044],[102.90414501917846,16.493508927302898],[102.90437038909563,16.493541361092756],[102.90519118737275,16.493747083173073],[102.90534465244596,16.493785546740817],[102.90571181409035,16.493872666393166],[102.90604217375883,16.49395105311741],[102.90628595932583,16.494008897440168],[102.90726548709664,16.494009764372908],[102.90757789234159,16.49382547658597],[102.9079620705209,16.49359884877311],[102.90832887928256,16.493382466007443],[102.908529356781,16.493264202581962],[102.90876710729174,16.493123951019072],[102.90895436470731,16.492379877872352],[102.90891795206244,16.492126090131887],[102.90860494853568,16.491857164695347],[102.90830535485803,16.49159975963451],[102.9081421182378,16.49145950946959],[102.90788496875277,16.49131660323711],[102.90762607916268,16.491172729467834],[102.90737055074567,16.491030723120637],[102.9071514386516,16.49090895424334],[102.90674239523429,16.490974383609075],[102.90666879899454,16.490947565227366],[102.90658605872746,16.49093106782496],[102.90650071429133,16.490930408021097],[102.90640737163078,16.490938919980405],[102.90633888408667,16.490962756132024],[102.90616634262733,16.49104379901155],[102.90597743532481,16.49113994972791],[102.90578450165968,16.49123814950735],[102.90564860376557,16.491317611888636],[102.90553904897897,16.491381670777823],[102.90535413110024,16.491489795744396],[102.90515105383382,16.4915928366255],[102.90501621086302,16.491637539871007],[102.90484101436118,16.49169562098335],[102.90471185548262,16.491710231843495],[102.90454244713254,16.491729395724846],[102.9043043200758,16.49171692920039],[102.90417927920426,16.491703637337633],[102.90397046319332,16.49168143999673],[102.90376754504999,16.491646887002826],[102.9034960808383,16.491546306341856],[102.90332709043622,16.49148369320243],[102.90301758960732,16.4912639182655],[102.90285092433774,16.49111365285944],[102.90278178670289,16.49098863234993],[102.90273259997817,16.49083842783766],[102.90272461067494,16.49048400083113],[102.90272195265551,16.49036608442751],[102.90270681058955,16.490223138449885],[102.90265897761712,16.490111253303244],[102.9025559320174,16.489985738171498],[102.90246791513682,16.4898999429386],[102.90227098759986,16.48970798570196],[102.90216633445121,16.48959895219424],[102.9019498362041,16.4893733916917],[102.90173442674273,16.489187048592118],[102.90161675985672,16.489085258906638],[102.90137666404318,16.48889846707331],[102.9012005607471,16.48876146031882],[102.90109819999074,16.488698700639308],[102.90087924984499,16.48856445709817],[102.900743190221,16.488489695872566],[102.90064397259786,16.48843517828111],[102.90041474915239,16.488309225474392],[102.90008080368439,16.48823989670456],[102.89979519521995,16.488238868508997],[102.89947292557824,16.488237707864055],[102.89909148612834,16.488248209010354],[102.89885105779314,16.488324873706826],[102.8986493310412,16.48846622795083],[102.89855179957547,16.488559472971126],[102.89835456781623,16.48874803607369],[102.89823974939928,16.488892277882492],[102.89812310509633,16.489038813166633],[102.89787118649812,16.48947545683004],[102.89781583069758,16.489634350619003],[102.89773909836391,16.489854603259154],[102.89761910823653,16.490108339137123],[102.89754439899917,16.49017176131326],[102.89746337284004,16.490211617675342],[102.89732160462718,16.49022441223565],[102.89717825817549,16.490187613282984],[102.89691893148805,16.490079670872202],[102.89672490491867,16.489963743502734],[102.8964986969631,16.48981683784052],[102.89609466131274,16.489516484498836],[102.89573750461275,16.48925134550873],[102.89547627827382,16.489048394162765],[102.89532072796442,16.48892754405292],[102.89491632010166,16.48869599011229],[102.89453488962283,16.488590320021412],[102.89416564079201,16.48850923363712],[102.893748722478,16.488324149763493],[102.89346303841792,16.488183987200678],[102.8930700751185,16.487998455359495],[102.89265671502241,16.487839666825156],[102.89255765653913,16.487801614253087],[102.89210521255588,16.48759350446333],[102.89171211813725,16.487430527972492],[102.89139072793998,16.487258320791216],[102.8912454262298,16.48718208052937],[102.89116445867181,16.48710802563667],[102.89106541867439,16.48694859445527],[102.89102226491775,16.48680729523401],[102.89100216511244,16.486649777559265],[102.89102363648156,16.48649599706713],[102.89106733142883,16.48634293059883],[102.89116733451934,16.486141448155312],[102.8912490723581,16.485991056753726],[102.8913735925612,16.485817312762627],[102.89150739682678,16.485698658011888],[102.89171809443913,16.48556729337796],[102.89219519826558,16.485372321845826],[102.89246259728075,16.485273062641784],[102.89278056226195,16.48515503261902],[102.89307388304299,16.48498693185546],[102.89343754785206,16.48477851622615],[102.89390360021272,16.48441119451779],[102.89434770088111,16.48393666623542],[102.8944288888219,16.48384991530799],[102.8948244436521,16.4834354106305],[102.89531495721573,16.483034925014177],[102.89569681616108,16.482783076962182],[102.89602009108926,16.482495103147055],[102.89633080024765,16.48216337928637],[102.89648718388115,16.48183002074336],[102.8966194759403,16.481461021880673],[102.89664376849053,16.481244032728657],[102.89663199485275,16.48100628779729],[102.89650848313862,16.480821376336163],[102.89635942413551,16.480644835478206],[102.89615744997363,16.480481686405426],[102.8958354460638,16.480365885727238],[102.89513160508754,16.48044441333966],[102.89464260201032,16.48056968709851],[102.89413361952928,16.480660370322436],[102.89385296355798,16.48070675615],[102.89344916971662,16.480773493055747],[102.89269796173394,16.480909284981358],[102.89198346388223,16.48098123420076],[102.89136179046945,16.481077392534544],[102.89099926467138,16.481185642650356],[102.89076435049496,16.481362568484453],[102.8905566257044,16.481554777298363],[102.89041774883302,16.481741193447345],[102.89036219793944,16.481984739793624],[102.89029684615845,16.482271254182436],[102.89022420509198,16.48273049312038],[102.89004458905876,16.482925562051328],[102.88986501427117,16.483064240082527],[102.88931547585968,16.48340716766447],[102.88915829422825,16.48349751283325],[102.88877811245256,16.483716033579878],[102.88830053397852,16.483887322122925],[102.88793042638474,16.483967514185718],[102.88764298520394,16.484002183719358],[102.88745701884248,16.48399662021565],[102.88733480007429,16.483963931446166],[102.88719040162863,16.483903459997247],[102.88706060774143,16.483813393921782],[102.88703235682976,16.483491584033562],[102.88699311366406,16.483044559392916],[102.88696028895157,16.48267064782127],[102.88726501381987,16.482164621536416],[102.88752963584345,16.481725187248887],[102.88836815289602,16.48033271922329],[102.88908208313943,16.48000326429388],[102.88925230445157,16.479942405125353],[102.88956902239401,16.479829168576238],[102.88975535730678,16.479762547731873],[102.89013402199964,16.479627162002167],[102.8903392368042,16.47955379022861],[102.89069923049969,16.47942507871326],[102.89100339217968,16.479316328637644],[102.89123400141334,16.479233876138444],[102.89192626835771,16.47898635956469],[102.89236528297238,16.478829390514573],[102.89266222267031,16.47879462041341],[102.89291490297393,16.47876503251131],[102.89324014280156,16.478726947695574],[102.89363448689305,16.478680770225047],[102.89392862963447,16.478646325770267],[102.89413067984471,16.478622665206867],[102.89440874475564,16.478590102806596],[102.89470965799921,16.478554864349338],[102.89501265826291,16.478519381034502],[102.89580978249352,16.478426030377644],[102.89636015448465,16.47846060805869],[102.89653502745755,16.47847159432788],[102.89672529281648,16.47848354744645],[102.89688164790329,16.47849337007643],[102.89707129368382,16.47850528395665],[102.8974607080669,16.47844499990407],[102.8978079899576,16.478391237598533],[102.89802148269307,16.47835818672972],[102.89821733522602,16.47832786654006],[102.89854574119076,16.478277025137146],[102.898808780883,16.478236302862506],[102.89918872021028,16.47799631687829],[102.89971473700334,16.477664059845843],[102.90001334877968,16.477105836771642],[102.90008709294241,16.47696797923846],[102.90017339080681,16.476806653462738],[102.90043421659198,16.476319061989724],[102.900696972024,16.475827860025582],[102.900773771126,16.47509887536861],[102.90080117648944,16.474838738829554],[102.90085189134714,16.474521862212615],[102.90087327269927,16.47438826679246],[102.90096993339486,16.474078831459],[102.90112190893653,16.473777080807245],[102.90127168790075,16.473479690336525],[102.90141990083421,16.47318540812191],[102.9016420946526,16.473150336074987],[102.90201004128791,16.473092257206602],[102.90212344900633,16.473074356122893],[102.9028837930655,16.472954336284047],[102.90284315379827,16.47321959052912],[102.902754854418,16.473795920815427],[102.90237238232585,16.474654635562636],[102.90210137657151,16.475267437779312],[102.902192767163,16.47595579241209],[102.90264551961603,16.476634039063416],[102.90363312623603,16.476914795399065],[102.90472646870302,16.47722560408572],[102.90576178271137,16.477071045788787],[102.90632738095684,16.476986607354846],[102.90693899275631,16.476541841520394],[102.90719503873306,16.47567109188947],[102.90720999182435,16.475308629873705],[102.90722356510686,16.474979611408322],[102.9077383489595,16.474657401152665],[102.90760259533494,16.474106964620475],[102.90851688159974,16.4735904219579],[102.90883956303755,16.473408115504384],[102.9093784229993,16.47310367193762],[102.90967524602353,16.472365331896214],[102.90870324311189,16.471740643389637],[102.908368490382,16.471629610112853],[102.90791697356002,16.471553463636706],[102.90754501612746,16.471626952433667],[102.9070104705861,16.471665133362233],[102.90672875879291,16.471663629063237],[102.90656947268752,16.47161810971606],[102.90605388941873,16.4714085349543],[102.90591427565968,16.471351784340982],[102.90540236658681,16.47111999792865],[102.90472333016919,16.470830429800184],[102.90422321652811,16.47057473622989],[102.90363964406218,16.470411949491044],[102.90297215348801,16.470260876925398],[102.9024954228415,16.470122032013613],[102.902150155974,16.46998186114898],[102.90196055349861,16.46964818963082],[102.90191451201513,16.46918778319175],[102.90194436888927,16.468723705357544],[102.90227166918511,16.468228315034178],[102.90251565147913,16.467859029732875],[102.90281684718721,16.46740314509053],[102.90325173320946,16.46674490403067],[102.90312407363466,16.46503580570957],[102.90169456119327,16.46556783392545],[102.90050673782608,16.466025018941995],[102.89995437001554,16.466237618339214],[102.89967964577141,16.466429597523515],[102.89967226383139,16.46555238742761],[102.89966401480929,16.464572199663763],[102.89966131159495,16.46425100459836],[102.89965957012724,16.46404408752185],[102.89964688997927,16.462537546478096],[102.89862863832934,16.46255215231205],[102.89763743985816,16.462566365325227],[102.89681004776924,16.462578225879753],[102.89651191902058,16.462582498711896],[102.8964799263039,16.46157997954722],[102.8964622129184,16.46102491960612],[102.89643415230874,16.460145629031906],[102.89634787485078,16.457442136511215],[102.8935886591001,16.457436569564795],[102.89269304824384,16.457434754779403],[102.89204248445628,16.457433434133456],[102.89141470402073,16.45743215782143],[102.89096814165477,16.457431248790044],[102.89002434621668,16.457429324447563],[102.8894081828117,16.457428065831998],[102.88902217138154,16.45742727641612],[102.88877481998996,16.457426770193997],[102.88796839823836,16.45742511776567],[102.88757675880679,16.457424314141974],[102.88680629431538,16.457422731051],[102.88679831365206,16.456430295725575],[102.88679314476387,16.45578755504849],[102.88674591781809,16.449916304362365],[102.88479783603528,16.44992984066065],[102.8811689382184,16.44995500778764],[102.88079227969759,16.449957616383642],[102.88013677082101,16.44996215457592],[102.87962175727974,16.449965718655953],[102.87931752339873,16.44996782346883],[102.87881195512539,16.44997132021591],[102.87849287125603,16.449973526520605],[102.87831614563488,16.449974748280113],[102.87802532318456,16.449976758501737],[102.8775995955064,16.449979700485635],[102.87741181323693,16.4499848680442],[102.87713487646421,16.4499924887264],[102.8768384945542,16.450000644087638],[102.87648597261486,16.45001034367107],[102.87625569085655,16.450016679513872],[102.8759093211554,16.450020094133745],[102.87568524520297,16.4500223028383],[102.87552051017123,16.450023926469466],[102.87538283075762,16.450025283340462],[102.87513180599053,16.450027757029854],[102.87496232159921,16.450029427020304],[102.87470489319341,16.450031963291885],[102.87421234266654,16.450036815182738],[102.87370936625582,16.450041768576977],[102.87338920855842,16.450044920912422],[102.87309409857319,16.45004782618902],[102.87275250732456,16.45007128346012],[102.87228553167718,16.45010335003278],[102.872067615385,16.449795276630816],[102.87188349710866,16.449317622681864],[102.8714514832851,16.44930922532581],[102.87138396238093,16.449166018276443],[102.8707398643513,16.449203732398075],[102.87033006758234,16.449235645301798],[102.86960347713728,16.44929222648123],[102.86925601539744,16.449319283171707],[102.86903751948337,16.449315677880385],[102.86878845015454,16.449137297258236],[102.86828448351126,16.44917154847424],[102.86713029422482,16.44924998628659],[102.86715788146572,16.449394466167302],[102.86595579293105,16.449624403265304],[102.86579281407482,16.4496555774917],[102.86544554135776,16.44970696217875],[102.86526830910798,16.449901570474644],[102.86484199368915,16.450369679915354],[102.86376447052689,16.45155282333722],[102.86356457548487,16.45177230996233],[102.86328224954354,16.452082305208187],[102.86308397270774,16.45230001323646],[102.86284395220194,16.45256355484043],[102.86266420130909,16.452760919930174],[102.86253031777304,16.45290792262297],[102.86227209478626,16.4531914477547],[102.8620540754702,16.45343082885889],[102.86161925244733,16.453908253687324],[102.86069620920165,16.454921720374834],[102.86039526095783,16.455252146744577],[102.85986197496317,16.4558376643619],[102.85775015490852,16.458156269947843],[102.85690426474969,16.45908496462844],[102.85690272591242,16.459321908207585],[102.8568994363819,16.45982839528399],[102.85689156936158,16.461039561075868],[102.85604397154017,16.46185842733852],[102.85577988790575,16.461853905392275],[102.85564600257912,16.46185161272535],[102.85524902580175,16.46193951375852],[102.85412362467996,16.462188702329442],[102.85401697719296,16.4619506201095],[102.85381388894962,16.461497239898748],[102.85360473902543,16.46103032535185],[102.85347031336126,16.461068474472334],[102.85336970879776,16.460850531482322],[102.85332379394693,16.460751064471033],[102.85326970053917,16.460633879831523],[102.85305007330389,16.46038641640354],[102.85281047548517,16.460116450365256],[102.85234696463651,16.460200915479625],[102.85197764293626,16.460277350155653],[102.85155583347955,16.46036464678436],[102.85129669682017,16.46056169533977],[102.85110855291498,16.46053604863779],[102.85091682446021,16.460012869220126],[102.85081614102866,16.45973812811183],[102.85063206966333,16.459235839434722],[102.85049526894227,16.45886254006978],[102.85029590795334,16.458318525118642],[102.85015072037945,16.45792233654999],[102.84985714661704,16.457121226704253],[102.84964523795229,16.45654296259376],[102.84952246926689,16.456207945541657],[102.8494703159167,16.456047932901747],[102.84936611473088,16.455728230688763],[102.8492270103052,16.45530143961016],[102.84880779190183,16.455175512985114],[102.84821286646807,16.454996805065054],[102.84777253409983,16.454864533650156],[102.84746019850905,16.45477071053222],[102.84711066371084,16.454665712431954],[102.8466659881986,16.45453213367423],[102.84588206855715,16.454296644674056],[102.84547834141567,16.454175363956715],[102.84532033954524,16.45414040511065],[102.84484824277429,16.454035950149954],[102.84416793071362,16.45395973117452],[102.84413946351924,16.45431179149639],[102.84390826394595,16.454871453321058],[102.84375919353042,16.455232303994862],[102.84370875314508,16.45535440327157],[102.84344291396972,16.455997907665086],[102.84334269896029,16.45624049203019],[102.84320615850137,16.456571005965912],[102.84310647400399,16.456812304357697],[102.84295869439804,16.457170021388748],[102.8424053830986,16.45747979686476],[102.84216605514693,16.457613785607407],[102.84195553588495,16.457596551773204],[102.8416082987324,16.45746831158364],[102.84145551840956,16.457390955362794],[102.84074780462106,16.457516905130884],[102.84070760114227,16.457332278429185],[102.84040901740138,16.457362596709157],[102.8403673443832,16.45717955264863],[102.84025402482028,16.457210747288965],[102.840271134634,16.45725081950658],[102.84015314519017,16.457286102309414],[102.84010880601994,16.45726778274478],[102.83994632054527,16.45730163949169],[102.83991108984975,16.45703888717528],[102.83952682642257,16.45715006769832],[102.83932900733394,16.45719321994378],[102.83931770895391,16.45710435435237],[102.83884142227028,16.457176207714276],[102.83881062220269,16.456942351754925],[102.83878568876736,16.45680797385169],[102.83875841744992,16.456714260997394],[102.8384983520646,16.45675004142423],[102.83830868030576,16.456776225266108],[102.83822334197565,16.456693432369633],[102.83752487886277,16.45682329391381],[102.83750909278542,16.456716748020735],[102.83748690243876,16.456515119482983],[102.83716880414897,16.456573497691675],[102.83694379994347,16.456614790716557],[102.83670563564627,16.45665674094496],[102.83665920711393,16.45635452004548],[102.83665662524349,16.45619831792319],[102.83659443658571,16.456111099884648],[102.83598307999989,16.45613833332279],[102.83567343193316,16.456160865711194],[102.83540968030336,16.456162227305526],[102.8354102834934,16.456135796933822],[102.83539654641336,16.45588506611009],[102.83508781712425,16.45589780588354],[102.83479132284683,16.455905905691868],[102.83458361923736,16.455922017892274],[102.83443392105153,16.455967483364965],[102.83424950847515,16.456015593950823],[102.83418539392258,16.45604414097426],[102.83396135988049,16.45609521609237],[102.83359281430063,16.456169152708053],[102.83244187766263,16.455567113986906],[102.83353992210913,16.48265531798348],[102.83080789060762,16.482660686724884],[102.82703497485997,16.48180805614122],[102.82694600451833,16.482648478252145],[102.8216561729253,16.481474980837056],[102.81887156069243,16.481001458021204],[102.81548683538958,16.480512153025803],[102.8142300043672,16.480335273540774],[102.81260406487313,16.480391743540487],[102.809860337923,16.480673595965765],[102.80727219057961,16.48098238567455],[102.80382622538998,16.481311756280622],[102.801284258898,16.461904804844355],[102.80034670207705,16.462164414295643],[102.79722779309445,16.462692212225736],[102.79706353716873,16.462341071603245],[102.79547192566534,16.462606373777408],[102.79375365045705,16.46269987471145],[102.79361013705304,16.46973542552256],[102.79333847438173,16.47061846721224],[102.78919962319443,16.473354506958675],[102.79001574945893,16.47569210475352],[102.78929850268672,16.47619652080828],[102.7906377996021,16.47823326049996],[102.78896763947884,16.479233576186214],[102.78838755431721,16.478425817434974],[102.78619109424565,16.48034242772534],[102.7872631029969,16.48419521526266],[102.78830309784516,16.486256262000573],[102.78569066643922,16.488577055828596],[102.8219456103053,16.50736678106597],[102.82217619171799,16.50748625356839],[102.8227327107857,16.50777460449354],[102.82390781474061,16.50838345740343],[102.82409137581747,16.50847856443196],[102.8242021160608,16.508535941269255],[102.82458121661783,16.508732360534832],[102.82496974298263,16.508933662423065],[102.82527646335453,16.509092578518946],[102.82567298768703,16.509298022297813],[102.82667827516536,16.509818868153683],[102.82706466761272,16.51001905861805],[102.82750775499154,16.51024862148773],[102.82805187373155,16.51053052662006],[102.82826978375525,16.510643424091956],[102.82843156599985,16.510727241982075],[102.82868361828184,16.510857827572792],[102.8288473789325,16.510942669969776],[102.82895614419368,16.51099901981957],[102.82911184934234,16.511079688459393],[102.8292836069733,16.511168673462087],[102.82943125664184,16.511245168328944],[102.82978092833594,16.511578282796968],[102.83005657466272,16.5118408759302],[102.83022593002644,16.51201170680145],[102.83022593002644,16.51201170680145],[102.83053436412057,16.513402385728753],[102.83077396559374,16.514482699572103],[102.83087667805643,16.514945806285777],[102.8309674621495,16.5153551293986],[102.83113469624014,16.51610914341696],[102.8310437924505,16.51773979243924],[102.83100267629612,16.51847732223212],[102.83099375131937,16.51863741431058],[102.83096671648504,16.51904465908632],[102.83150541508247,16.519092916127427],[102.83169757318723,16.519135781407698],[102.83178363702116,16.51866091643126],[102.83196798796708,16.518742572367728],[102.83209052207253,16.51870527242952],[102.83225846454086,16.518771776932624],[102.83273333078961,16.518855979992907],[102.83341570036742,16.519022587929694],[102.83396516753348,16.519165963734302],[102.83438313739074,16.519348068606917],[102.83476821462304,16.519553183615603],[102.83498593782477,16.519802745108414],[102.8353036097482,16.520351592276004],[102.83545829077326,16.520676863465724],[102.83582075645042,16.520678300972207],[102.83621607857535,16.520264008222323],[102.83670473525329,16.520106150807848],[102.8374399039021,16.51990898981202],[102.83774375535725,16.519989356274554],[102.83821492454712,16.52005192922169],[102.83852512854499,16.52021863653353],[102.83864999998613,16.5203125472939],[102.83880827902756,16.520349496006897],[102.83903289931295,16.520478027695944],[102.83920610639561,16.520521479559033],[102.8393411231023,16.520637646971107],[102.83950614427374,16.520660194989464],[102.83966890589943,16.520696428467126],[102.83978673558764,16.520819777833598],[102.83992253080791,16.520913612044627],[102.84008536692723,16.520896532151898],[102.84033191768943,16.5208305699268],[102.84074456361186,16.52055156914935],[102.84094636713507,16.520439439620493],[102.84125862932504,16.520380765449204],[102.84146682018216,16.519952440614297],[102.84195847159485,16.519612696788595],[102.84232954826129,16.519548067379784],[102.84241846641571,16.519657674289583],[102.8424556162601,16.519694287544343],[102.842798682786,16.519915208804402],[102.84287125297277,16.520144203304948],[102.84294984538433,16.520507308427636],[102.84305123675772,16.52050835613798],[102.84325002296276,16.520532147700496],[102.84336053360288,16.52038837225854],[102.84354881814502,16.52034321933893],[102.84367634297618,16.52052749473778],[102.84384322207106,16.520380678353543],[102.84385085317123,16.520369888381822],[102.8442622643888,16.520185745026126],[102.84428871182352,16.520171526419524],[102.84443548749364,16.520144058652452],[102.84447474497526,16.520329233610322],[102.84458240075557,16.52044265617954],[102.84469804947335,16.520512686035186],[102.84468152414861,16.52030963114335],[102.84474972129453,16.52025599127674],[102.84478779614338,16.520209286252413],[102.8450065553636,16.519956127888644],[102.84505222091981,16.51990225529514],[102.84506049037162,16.519896633026068],[102.84521494146296,16.519791624051283],[102.84541712108923,16.519848054939565],[102.84585186481252,16.519591690261013],[102.84587064093976,16.519591884013888],[102.84597934164309,16.519611120355634],[102.845992072973,16.5198177590832],[102.84589064159272,16.519820335364077],[102.84584975507798,16.52012061711659],[102.84586664319207,16.52029106937113],[102.8460907525153,16.520402070023927],[102.84615395880759,16.52062915571873],[102.84621767749624,16.52064068198505],[102.84641949692664,16.52072971473671],[102.84660770113004,16.52069180405839],[102.84683604852279,16.520759372471847],[102.8469975243002,16.520761038044974],[102.84710598492944,16.520802009031424],[102.84723173640126,16.520977207006666],[102.8473026044972,16.521021413139227],[102.84728274423387,16.521119027653903],[102.84748484576058,16.521182701814556],[102.84778819014579,16.52143037814254],[102.84787371837452,16.521507341723634],[102.847895447235,16.52158002454618],[102.8482355313688,16.521732071232886],[102.84815813833318,16.52193778095131],[102.84858974264706,16.521976104327834],[102.84896021069744,16.5221345967155],[102.84910188929352,16.522268634630922],[102.84919338086719,16.52228062559271],[102.84947321353226,16.522208794777782],[102.84967673888181,16.522070166741347],[102.84994055670451,16.522034215910132],[102.85018811391117,16.521915236033696],[102.85072732301036,16.521832403671162],[102.85113385927801,16.521836589386307],[102.85137976593393,16.521866741293504],[102.85178426422732,16.521796329603777],[102.8522975156077,16.52198943030948],[102.85245619111699,16.522140213337615],[102.85267371341989,16.522147975378054],[102.85331145948061,16.522303001924374],[102.85373881306953,16.522410276449346],[102.85408986219386,16.52225368725411],[102.85420800566686,16.52218585069894],[102.8542277462208,16.521954041704895],[102.85455038120551,16.52189162151294],[102.85478318397556,16.521552846155245],[102.85512901855917,16.521432660388744],[102.85524215135919,16.52147624794181],[102.85538951422238,16.5214070536205],[102.8555856922293,16.52123225575885],[102.85560580497427,16.521069875173385],[102.85575772949196,16.52091941266936],[102.85613933156039,16.52071297455639],[102.85630868082653,16.520644005292745],[102.85658020808445,16.520614974768918],[102.85669860265789,16.52084599308214],[102.85683695839674,16.520928728436303],[102.85718427284705,16.52067420799805],[102.85743389087068,16.520637880590574],[102.85759000445242,16.520605896358262],[102.85844052994463,16.52058280508707],[102.85846074341141,16.520577709320147],[102.85881998593453,16.520570788282413],[102.85914936438107,16.520280725936342],[102.85958388387913,16.520094268551667],[102.8597398410671,16.520076422744157],[102.86023634954041,16.52025121352547],[102.86028398862399,16.52025170184732],[102.86069862730375,16.520206455556107],[102.86130513511043,16.520543233464043],[102.86394145545303,16.51808279132314],[102.86404121379357,16.518193664992808],[102.8651541515226,16.520137167806336],[102.8663594742459,16.519177243894028],[102.8667728452642,16.519580973695835],[102.86644867449984,16.520565817479564],[102.8665783081638,16.52077573363872],[102.86668062920839,16.520469195698425],[102.8687581206424,16.519350234630622],[102.86826458301613,16.51840299846986],[102.8683307486409,16.518218063034784],[102.86842890647101,16.517789508240366],[102.8685334429701,16.517113537015494],[102.86944189176323,16.517154628515307],[102.86933294395268,16.51672926260269],[102.86940133805672,16.51667516106404],[102.86965154539816,16.51606035130682],[102.87074600896928,16.516038355169684],[102.87216374829892,16.515923764123723],[102.87214026364045,16.516729608860377],[102.87218183576101,16.517953300397995],[102.87222548850498,16.520158102004313],[102.87208500569722,16.52093800558909],[102.87214918689585,16.521101290785236],[102.87217590903057,16.521338438677365],[102.87237525455645,16.521541991652267],[102.87293015748104,16.52140622882271],[102.87283081378742,16.520772369759563],[102.87331812624616,16.520784406048588],[102.87352581276023,16.522904260933146],[102.87457972214793,16.522884944416376],[102.87650049498255,16.522690599759006],[102.87647256936135,16.52256303897705],[102.87688405102843,16.5224717674584],[102.87727431449022,16.5224775045722],[102.87802216458182,16.522796229945158],[102.87812176629376,16.52273713961674],[102.87872770522902,16.52262662839807],[102.87874433597747,16.522110619174608],[102.87921055390697,16.52204111192017],[102.87924758613191,16.522006133500636],[102.88083209307689,16.52206288460472],[102.88091834714871,16.522219321062597],[102.88198511555494,16.52223638861512],[102.8848438768108,16.522278223617178],[102.88495776495512,16.522301398775706],[102.88625072597625,16.52200987138244],[102.88637710524668,16.521934077316164],[102.88940754892327,16.521232539318063],[102.88978661239629,16.522062164545538],[102.89121053729701,16.521447117331554],[102.89227490137257,16.52363796327446],[102.89368084594497,16.522927292937258],[102.895204481505,16.52610087049225],[102.89627479277925,16.525641877193852],[102.89650694570079,16.525652204657938],[102.89662451426818,16.526050986648194],[102.89668003382666,16.526276071125025],[102.89669774674486,16.52646869554344],[102.89652555267813,16.527289856921712],[102.8963190228319,16.528089848750874],[102.89635328946851,16.52826146922197],[102.89710970792764,16.52998421748094],[102.89842289232692,16.53010084656159],[102.90065307940014,16.52970529041396],[102.90149394798193,16.529558393632854],[102.9026075531749,16.529356816652022],[102.90362994209244,16.529145067204173],[102.90420677776598,16.529498181650585],[102.90461681620155,16.529757157447243],[102.90482758416626,16.52943445787386],[102.90487889356517,16.528788984413264],[102.90479480849156,16.528358029019905],[102.90493081485894,16.528363685321633],[102.90495661361243,16.52807096833763],[102.9043785629572,16.52694827718683],[102.90420770504906,16.526917281869437],[102.90297921217012,16.524950494304093],[102.90277955769133,16.524564876500722],[102.90185958756956,16.523448828405616],[102.901309981256,16.522811648186973],[102.90113382661245,16.522586510953495],[102.90096985075542,16.522311678517703],[102.90079835875463,16.52214307438737],[102.90064464673718,16.521900493269495],[102.9004814341828,16.521626708874123],[102.90032224290262,16.52139784969966],[102.90012628285311,16.521278463700664],[102.89978799354948,16.5209195520005],[102.89956380269997,16.520577093698144],[102.89934297184588,16.52027510858275],[102.89885708515592,16.519741747089167],[102.8986045821569,16.51941035888826],[102.89842240451051,16.5191175391377],[102.8980652830577,16.518907729831785],[102.89769561063598,16.518600594174195],[102.89730123214882,16.518145533512445],[102.89704680474051,16.517862721929287],[102.8968278771455,16.517532622575718],[102.89673024309838,16.51715731469126],[102.89660250846472,16.51679103249682],[102.89660609653973,16.51655216413347],[102.89677636743524,16.51634670696098],[102.89688365836714,16.516308829811678],[102.89748040600543,16.51645361199931],[102.89783972689062,16.516545229928177],[102.89830995034936,16.516645424120703],[102.89857108216127,16.516777047608116],[102.89879437221089,16.516966738835837],[102.89912079660381,16.51707359686713],[102.8994210681742,16.517212680285592],[102.89960886008177,16.5172363696445],[102.90005782260262,16.517283557901525],[102.90129703890538,16.517248810029905],[102.90113353597349,16.516979861553356],[102.90157447513852,16.516704352167533],[102.90184689848095,16.51635048304255],[102.90205806675299,16.515678983197265],[102.90208908138025,16.515258017073034],[102.90225917078169,16.51380391514307],[102.90222079242307,16.513749091399067],[102.90245225069498,16.512321298218865],[102.9021662434459,16.511582814659164],[102.90064805787812,16.511881083946133],[102.90031569531567,16.51238594162318],[102.90000441342755,16.512591352792402],[102.89966239840271,16.51308943361543],[102.89873888697115,16.513804888578907],[102.89699849106728,16.514040806370094],[102.89633285774298,16.514113882613778],[102.89481862748934,16.514703454009723],[102.8941297621429,16.51475959506329],[102.89342089815284,16.514346298370477],[102.89331750837364,16.514122170298343],[102.89327739022863,16.513634610110778],[102.89364210998639,16.51292217274214],[102.89394302226923,16.512590197787453],[102.89443465771666,16.51226979897332],[102.89453971496845,16.51229848104426],[102.89477646433104,16.511945878876677],[102.89488986157967,16.511244266724756],[102.89488244321318,16.510658955509797],[102.8943388916084,16.509564061248458],[102.89400325775094,16.50888230015962],[102.89428841113175,16.507933580868563],[102.89444487899536,16.507531506689357],[102.89501005340348,16.50745446826766],[102.89554850401645,16.507612559095342],[102.89585861566395,16.507947447937237],[102.89698908862391,16.508375033208402],[102.89761356317963,16.50864612526141],[102.89765612769516,16.508664602947533],[102.89875833005897,16.50802714695187],[102.89876295486546,16.507986785580258],[102.89902024323403,16.507627722845932],[102.89929762123688,16.50715369917371],[102.89930152984826,16.5065981297246],[102.89898701754821,16.505663564561193],[102.89894590884892,16.50462264751098],[102.89893319924495,16.50366687260988],[102.89896782046517,16.502982306617767],[102.89907668777289,16.502791463702977],[102.89928253132908,16.501804265766623],[102.89936218766185,16.50160158123666],[102.89949826962314,16.50125532117707],[102.89956651200002,16.501081678109845],[102.89986562542347,16.5009118372077],[102.89996246540781,16.500856849907706],[102.90007083191128,16.500795317569384],[102.90029869701473,16.500811825610125],[102.90062441560524,16.500835422365757],[102.90092764135422,16.500857389164842],[102.90131599388347,16.50088552221944],[102.90179353093943,16.501200270649512],[102.9022143447062,16.501631104674836],[102.9023898907955,16.502075598462024],[102.90237317787347,16.502461384310244],[102.9023566443123,16.50284302628375],[102.90243062401781,16.50298486832998],[102.90248772693603,16.5030943521996],[102.9025478447463,16.503209616413606],[102.9026308472358,16.503368757329454],[102.90293362511939,16.503239183171583],[102.9030764700607,16.503308691162637],[102.90327891168747,16.503377084901807],[102.90363663611785,16.50343580852668],[102.90397028731851,16.503460020321516],[102.90443567327627,16.503495301516196],[102.90475692329329,16.503542299568988],[102.90519773367376,16.503634427714328],[102.90556715367376,16.503751573704083],[102.90590100889895,16.503785928455244],[102.90615112559883,16.50378064266326],[102.9063660727838,16.503776099879087],[102.90679488841616,16.503765820767917],[102.90722463552319,16.50368560098423],[102.9075462555543,16.503663793035482],[102.90792809100492,16.503584468577923],[102.9083332970783,16.5035047060017],[102.90852502445804,16.503462075647253],[102.90864344694202,16.503435744449124],[102.90900155249948,16.503368140201697],[102.90937155920497,16.503252945888082],[102.90965765652192,16.503150600001366],[102.90983678581583,16.503048001321424],[102.9101113784426,16.502954892562673],[102.91026630249642,16.502840341339645],[102.91036234532656,16.502704337245543],[102.91042173763083,16.502576913969417],[102.91049354123422,16.502485347091863],[102.91047162330757,16.50232561332634]]]},"properties":{"id":"sila","label":"เทศบาลเมืองศิลา","sourceFolder":"ขอบเขตทม.ศิลา","boundaryStatus":"source_supplied_owner_validation_pending"}}]}