{"type":"FeatureCollection","features":[{"type":"Feature","id":"publicfacilities-000001","geometry":{"type":"Polygon","coordinates":[[[102.83250343012254,16.502887273413656],[102.83176373074774,16.502908337687852],[102.83113267408176,16.50285805580338],[102.83113201416779,16.502888486917428],[102.83114159578751,16.50357687620367],[102.832322314278,16.50371687867065],[102.83249428321038,16.50316187246102],[102.83250343012254,16.502887273413656]]]},"properties":{"id":"publicfacilities-000001","label":"ศูนย์ไปรษณีย์ขอนแก่น","sourceRecord":1,"sourceFolder":"สาธารณูปการ","sourceFile":"สาธารณูปการ.shp","datasetId":"publicfacilities","geometryDisplayRepair":false,"villageIds":["v02"],"villageId":"v02","electionIds":["e01"],"electionId":"e01","insideMunicipality":true,"sourceTypeCode":14}},{"type":"Feature","id":"publicfacilities-000002","geometry":{"type":"Polygon","coordinates":[[[102.8173235954152,16.485957165384054],[102.81742722973664,16.486614745449945],[102.81836046588872,16.486702744391295],[102.81851740125852,16.48761029473551],[102.81904743992241,16.487495562025053],[102.81899162307056,16.487117240546823],[102.8197232598075,16.487103869524454],[102.8197082247407,16.48662727034711],[102.82022675123663,16.486651094969044],[102.82021887820846,16.48739244784799],[102.82119341313322,16.487427153305514],[102.82175517248879,16.48738770234893],[102.82371797142203,16.48723270786972],[102.82380829138476,16.48722736219166],[102.82388489665018,16.487298520813457],[102.82392897558266,16.487354727020286],[102.82402138588873,16.487410048842303],[102.82459363799163,16.487458038686857],[102.82508416383077,16.487526794087632],[102.82502888507942,16.48810685549158],[102.82502171971694,16.488160844884042],[102.82615444943373,16.4882861853166],[102.82644558461773,16.48666598307488],[102.82812147186503,16.486597811909256],[102.8306156255536,16.486542362187187],[102.83059432761065,16.48270871497421],[102.83017338893373,16.48267907057637],[102.8282462100166,16.48227311976142],[102.82801370023734,16.482796635961158],[102.82602028803107,16.482397107350103],[102.81894927918404,16.481045715959812],[102.81764639336662,16.483390133534428],[102.81859179615985,16.483855608993196],[102.81838660777873,16.484756564665265],[102.81787296038901,16.484947666570147],[102.8173235954152,16.485957165384054]]]},"properties":{"id":"publicfacilities-000002","label":"ศูนย์วิจัยพืชไร่ขอนแก่น","sourceRecord":2,"sourceFolder":"สาธารณูปการ","sourceFile":"สาธารณูปการ.shp","datasetId":"publicfacilities","geometryDisplayRepair":false,"villageIds":["v27"],"villageId":"v27","electionIds":["e01"],"electionId":"e01","insideMunicipality":true,"sourceTypeCode":17}},{"type":"Feature","id":"publicfacilities-000003","geometry":{"type":"Polygon","coordinates":[[[102.84118277209846,16.466065057337133],[102.84140329555942,16.46592846276471],[102.84128878780574,16.46578144978143],[102.84115351593704,16.46588748683518],[102.84118277209846,16.466065057337133]]]},"properties":{"id":"publicfacilities-000003","label":"ช. ขอนแก่นรวมช่าง","sourceRecord":3,"sourceFolder":"สาธารณูปการ","sourceFile":"สาธารณูปการ.shp","datasetId":"publicfacilities","geometryDisplayRepair":false,"villageIds":["v21"],"villageId":"v21","electionIds":["e02"],"electionId":"e02","insideMunicipality":true,"sourceTypeCode":11}},{"type":"Feature","id":"publicfacilities-000004","geometry":{"type":"Polygon","coordinates":[[[102.84545192175798,16.465261595856017],[102.84562823654478,16.465516057814956],[102.84604790096914,16.465209003840396],[102.845918036401,16.464988214295264],[102.84545192175798,16.465261595856017]]]},"properties":{"id":"publicfacilities-000004","label":"วงษ์พาณิชย์","sourceRecord":4,"sourceFolder":"สาธารณูปการ","sourceFile":"สาธารณูปการ.shp","datasetId":"publicfacilities","geometryDisplayRepair":false,"villageIds":["v13","v14"],"villageId":null,"electionIds":["e02"],"electionId":"e02","insideMunicipality":true,"sourceTypeCode":11}},{"type":"Feature","id":"publicfacilities-000005","geometry":{"type":"Polygon","coordinates":[[[102.83135662989055,16.45705096399612],[102.83021162812233,16.457291749251507],[102.83025685461702,16.45826775546278],[102.83109348594367,16.458223584948396],[102.8316523400524,16.458149805782742],[102.83135662989055,16.45705096399612]]]},"properties":{"id":"publicfacilities-000005","label":"วัดตราชูวนาราม","sourceRecord":5,"sourceFolder":"สาธารณูปการ","sourceFile":"สาธารณูปการ.shp","datasetId":"publicfacilities","geometryDisplayRepair":false,"villageIds":[],"villageId":null,"electionIds":[],"electionId":null,"insideMunicipality":false,"sourceTypeCode":6}},{"type":"Feature","id":"publicfacilities-000006","geometry":{"type":"Polygon","coordinates":[[[102.85993239230336,16.461492142685927],[102.85988451489895,16.460783853785376],[102.8589140457025,16.460853072792514],[102.8579434796358,16.460917622640395],[102.85804042316913,16.46166233301655],[102.85872108379397,16.461607793448383],[102.85993239230336,16.461492142685927]]]},"properties":{"id":"publicfacilities-000006","label":"โรงเรียนไพบูลย์วิทยา","sourceRecord":6,"sourceFolder":"สาธารณูปการ","sourceFile":"สาธารณูปการ.shp","datasetId":"publicfacilities","geometryDisplayRepair":false,"villageIds":["v11","v16"],"villageId":null,"electionIds":["e03"],"electionId":"e03","insideMunicipality":true,"sourceTypeCode":4}},{"type":"Feature","id":"publicfacilities-000007","geometry":{"type":"Polygon","coordinates":[[[102.83206761378925,16.483638883231222],[102.83214368189198,16.48395348973803],[102.83258835015855,16.483804190278356],[102.83247118554273,16.483509293831823],[102.83206761378925,16.483638883231222]]]},"properties":{"id":"publicfacilities-000007","label":"โรงเรียนอนุบาลพรทิพย์","sourceRecord":7,"sourceFolder":"สาธารณูปการ","sourceFile":"สาธารณูปการ.shp","datasetId":"publicfacilities","geometryDisplayRepair":false,"villageIds":["v24","v27"],"villageId":null,"electionIds":["e02","e01"],"electionId":null,"insideMunicipality":true,"sourceTypeCode":4}},{"type":"Feature","id":"publicfacilities-000008","geometry":{"type":"Polygon","coordinates":[[[102.83464299963958,16.474838506142447],[102.83456051096314,16.475732420924388],[102.83365662022638,16.475682992071018],[102.83361896033134,16.47679727699126],[102.83424746780113,16.47682864446149],[102.83438201049312,16.47723033982247],[102.8346776171465,16.478471506169363],[102.834685697523,16.479994966614488],[102.83471534464448,16.481094805431663],[102.83475579886591,16.482540721623437],[102.83666434102263,16.481855475260108],[102.83772543674992,16.481470486331617],[102.83866416987752,16.48114930183125],[102.83997479171106,16.480678923948464],[102.84139265040012,16.480187334599705],[102.84230805834767,16.479897338742266],[102.84323487955626,16.479601876469513],[102.8432850284366,16.478949367956673],[102.84334564927825,16.47816060986765],[102.84340586688872,16.477333987695857],[102.84347446238654,16.47656708258701],[102.84356534237685,16.47551505604884],[102.84271685336489,16.47545109356263],[102.8408697379409,16.475310879821503],[102.84022559189546,16.475251961654923],[102.83884166319675,16.475146759939957],[102.83711305583283,16.475009777895206],[102.83594965901631,16.474933160833906],[102.83464299963958,16.474838506142447]]]},"properties":{"id":"publicfacilities-000008","label":"ศูนย์ป้องกันและบรรเทาสาธารณภัยเขต 6 ขอนแก่น","sourceRecord":8,"sourceFolder":"สาธารณูปการ","sourceFile":"สาธารณูปการ.shp","datasetId":"publicfacilities","geometryDisplayRepair":false,"villageIds":["v14"],"villageId":"v14","electionIds":["e02"],"electionId":"e02","insideMunicipality":true,"sourceTypeCode":17}},{"type":"Feature","id":"publicfacilities-000009","geometry":{"type":"Polygon","coordinates":[[[102.83114533425226,16.474764408319555],[102.83153364482536,16.47475729414609],[102.8315486370366,16.47522107289285],[102.8311495522164,16.475205202913266],[102.83115843316187,16.475808286246977],[102.83116716900983,16.476525427622533],[102.83116281624024,16.4770989704345],[102.83172824154671,16.477020699544294],[102.83282782445283,16.476864726547017],[102.83336596387267,16.476790725892073],[102.83336150800957,16.47656444047751],[102.83335676019857,16.47473473087815],[102.83231512785224,16.474655732697787],[102.83114809410144,16.47457285750143],[102.83114533425226,16.474764408319555]]]},"properties":{"id":"publicfacilities-000009","label":"สำนักประชาสัมพันธ์เขต 1 ขอนแก่น","sourceRecord":9,"sourceFolder":"สาธารณูปการ","sourceFile":"สาธารณูปการ.shp","datasetId":"publicfacilities","geometryDisplayRepair":false,"villageIds":[],"villageId":null,"electionIds":[],"electionId":null,"insideMunicipality":true,"sourceTypeCode":17}},{"type":"Feature","id":"publicfacilities-000010","geometry":{"type":"Polygon","coordinates":[[[102.81072466316257,16.491001735919102],[102.81145329466418,16.49102053034135],[102.81235531275031,16.491051682031493],[102.81225040856235,16.49034263680524],[102.81220626396164,16.49006228586105],[102.81157651292172,16.4899971570936],[102.81121978779186,16.49037144410881],[102.81080082778648,16.49078024593258],[102.81060844440714,16.491001589764263],[102.81072466316257,16.491001735919102]]]},"properties":{"id":"publicfacilities-000010","label":"โรงเรียนบ้านโนนม่วง","sourceRecord":10,"sourceFolder":"สาธารณูปการ","sourceFile":"สาธารณูปการ.shp","datasetId":"publicfacilities","geometryDisplayRepair":false,"villageIds":["v12","v03"],"villageId":null,"electionIds":["e01"],"electionId":"e01","insideMunicipality":true,"sourceTypeCode":4}},{"type":"Feature","id":"publicfacilities-000011","geometry":{"type":"Polygon","coordinates":[[[102.8175186241177,16.491315116268215],[102.81726937773695,16.490661177086455],[102.81704869463408,16.490281577808982],[102.81636777043153,16.490439488107587],[102.81599772374273,16.490510113566945],[102.81598094440585,16.49059202646311],[102.81612940886791,16.491025132025346],[102.81624547186877,16.49132875620864],[102.81640183565254,16.491613298433084],[102.81668879257842,16.491618700365954],[102.81676474090627,16.491553446847956],[102.8175186241177,16.491315116268215]]]},"properties":{"id":"publicfacilities-000011","label":"วัดม่วงศรี","sourceRecord":11,"sourceFolder":"สาธารณูปการ","sourceFile":"สาธารณูปการ.shp","datasetId":"publicfacilities","geometryDisplayRepair":false,"villageIds":["v03"],"villageId":"v03","electionIds":["e01"],"electionId":"e01","insideMunicipality":true,"sourceTypeCode":6}},{"type":"Feature","id":"publicfacilities-000012","geometry":{"type":"Polygon","coordinates":[[[102.82865870418004,16.486661732503446],[102.82650181801473,16.486726862855775],[102.82601328076484,16.489031859539043],[102.82773251544323,16.48903527436415],[102.8286248541895,16.489028918988772],[102.82865870418004,16.486661732503446]]]},"properties":{"id":"publicfacilities-000012","label":"วัดป่ามหาวนาราม","sourceRecord":12,"sourceFolder":"สาธารณูปการ","sourceFile":"สาธารณูปการ.shp","datasetId":"publicfacilities","geometryDisplayRepair":false,"villageIds":["v27","v03"],"villageId":null,"electionIds":["e01"],"electionId":"e01","insideMunicipality":true,"sourceTypeCode":6}},{"type":"Feature","id":"publicfacilities-000013","geometry":{"type":"Polygon","coordinates":[[[102.83219170786417,16.496794928958334],[102.83237795831215,16.498010745899062],[102.83297302955187,16.498005838211814],[102.8329729277264,16.498004895381104],[102.83357255246287,16.498011048418554],[102.8346085483873,16.49800798046677],[102.83437141855597,16.497161645458622],[102.83420934066967,16.496752490477213],[102.83396496558818,16.496342405993264],[102.8322050348066,16.496791552596232],[102.83219170786417,16.496794928958334]]]},"properties":{"id":"publicfacilities-000013","label":"วัดสว่างสุทธาราม","sourceRecord":13,"sourceFolder":"สาธารณูปการ","sourceFile":"สาธารณูปการ.shp","datasetId":"publicfacilities","geometryDisplayRepair":false,"villageIds":["v02"],"villageId":"v02","electionIds":["e01"],"electionId":"e01","insideMunicipality":true,"sourceTypeCode":6}},{"type":"Feature","id":"publicfacilities-000014","geometry":{"type":"Polygon","coordinates":[[[102.86093430283438,16.493453924200814],[102.86214423628087,16.49320892987945],[102.86155382633798,16.492095651608356],[102.86095348487036,16.4921874808054],[102.86093523960987,16.493142848571832],[102.86093430283438,16.493453924200814]]]},"properties":{"id":"publicfacilities-000014","label":"โรงเรียนบ้านศิลา","sourceRecord":14,"sourceFolder":"สาธารณูปการ","sourceFile":"สาธารณูปการ.shp","datasetId":"publicfacilities","geometryDisplayRepair":false,"villageIds":["v28"],"villageId":"v28","electionIds":["e03"],"electionId":"e03","insideMunicipality":true,"sourceTypeCode":4}},{"type":"Feature","id":"publicfacilities-000015","geometry":{"type":"Polygon","coordinates":[[[102.86169721192917,16.495973430734935],[102.86260231797924,16.49565614740873],[102.86226747127988,16.49479369179518],[102.86201732605282,16.49436099736902],[102.86156750140223,16.49370300649836],[102.86147147026587,16.493598505426032],[102.86095943267244,16.493871910380147],[102.86101530071008,16.494350552620933],[102.86113050503427,16.49479087051454],[102.8614244793631,16.495435946279077],[102.86165764936825,16.495905688267847],[102.86169721192917,16.495973430734935]]]},"properties":{"id":"publicfacilities-000015","label":"วัดโพธิ์ศรี","sourceRecord":15,"sourceFolder":"สาธารณูปการ","sourceFile":"สาธารณูปการ.shp","datasetId":"publicfacilities","geometryDisplayRepair":false,"villageIds":["v28"],"villageId":"v28","electionIds":["e03"],"electionId":"e03","insideMunicipality":true,"sourceTypeCode":6}},{"type":"Feature","id":"publicfacilities-000016","geometry":{"type":"Polygon","coordinates":[[[102.89588901724966,16.50057090236631],[102.89663470999267,16.500586883737437],[102.89653022041004,16.500009294891978],[102.89629237263466,16.500036732502867],[102.89579284105623,16.500092052520557],[102.89588901724966,16.50057090236631]]]},"properties":{"id":"publicfacilities-000016","label":"วัดสโมสรวนาราม","sourceRecord":16,"sourceFolder":"สาธารณูปการ","sourceFile":"สาธารณูปการ.shp","datasetId":"publicfacilities","geometryDisplayRepair":false,"villageIds":["v05"],"villageId":"v05","electionIds":["e03"],"electionId":"e03","insideMunicipality":true,"sourceTypeCode":6}},{"type":"Feature","id":"publicfacilities-000017","geometry":{"type":"Polygon","coordinates":[[[102.8179074178959,16.484884347666018],[102.81834549505824,16.484707101537264],[102.81851074757499,16.483881205534338],[102.81761737410166,16.483442350324836],[102.81736579007467,16.483785242150383],[102.81672652266766,16.484515185474738],[102.81725551593728,16.485020084321068],[102.8174121361657,16.485065034346622],[102.8179074178959,16.484884347666018]]]},"properties":{"id":"publicfacilities-000017","label":"พิมานคอนโดปาร์ค","sourceRecord":17,"sourceFolder":"สาธารณูปการ","sourceFile":"สาธารณูปการ.shp","datasetId":"publicfacilities","geometryDisplayRepair":false,"villageIds":["v27"],"villageId":"v27","electionIds":["e01"],"electionId":"e01","insideMunicipality":true,"sourceTypeCode":13}},{"type":"Feature","id":"publicfacilities-000018","geometry":{"type":"Polygon","coordinates":[[[102.89282153571338,16.514583990721167],[102.89261451993261,16.51412106750226],[102.89258591485724,16.51385454604841],[102.89268016857984,16.513004593593863],[102.89151532958546,16.512807284856446],[102.8914812175721,16.513115276614027],[102.89151942179203,16.5135596979429],[102.8915939272723,16.51380560392741],[102.89169314271803,16.514005123282846],[102.891979669046,16.514480754395727],[102.89226118310032,16.514573909700594],[102.89276641290121,16.51473537690038],[102.89282153571338,16.514583990721167]]]},"properties":{"id":"publicfacilities-000018","label":"โรงเรียนบ้านห้วยชัน","sourceRecord":18,"sourceFolder":"สาธารณูปการ","sourceFile":"สาธารณูปการ.shp","datasetId":"publicfacilities","geometryDisplayRepair":false,"villageIds":["v04"],"villageId":"v04","electionIds":["e03"],"electionId":"e03","insideMunicipality":true,"sourceTypeCode":4}},{"type":"Feature","id":"publicfacilities-000019","geometry":{"type":"Polygon","coordinates":[[[102.841331089494,16.518034780207888],[102.84151394357902,16.51795276599837],[102.84160320825478,16.51790675715276],[102.8417737427374,16.517939176950822],[102.84185376771826,16.51771763571331],[102.84190837368797,16.51746586597683],[102.84187977009815,16.517383596497922],[102.84146888905961,16.517174544425618],[102.84140985204155,16.51753434849788],[102.841331089494,16.518034780207888]]]},"properties":{"id":"publicfacilities-000019","label":"สถานีรถไฟสำราญ","sourceRecord":19,"sourceFolder":"สาธารณูปการ","sourceFile":"สาธารณูปการ.shp","datasetId":"publicfacilities","geometryDisplayRepair":false,"villageIds":["v02"],"villageId":"v02","electionIds":["e01"],"electionId":"e01","insideMunicipality":true,"sourceTypeCode":23}},{"type":"Feature","id":"publicfacilities-000020","geometry":{"type":"Polygon","coordinates":[[[102.89874622110722,16.47180219372665],[102.89889855559592,16.47172684956579],[102.89908912844031,16.471986536090526],[102.89973322367274,16.471664040865836],[102.89965787560963,16.47121996823902],[102.8996461276142,16.47093392859128],[102.89845188863603,16.471251971716438],[102.89874622110722,16.47180219372665]]]},"properties":{"id":"publicfacilities-000020","label":"โรงเรียนบ้านดงพอง","sourceRecord":20,"sourceFolder":"สาธารณูปการ","sourceFile":"สาธารณูปการ.shp","datasetId":"publicfacilities","geometryDisplayRepair":false,"villageIds":["v10"],"villageId":"v10","electionIds":["e03"],"electionId":"e03","insideMunicipality":true,"sourceTypeCode":4}},{"type":"Feature","id":"publicfacilities-000021","geometry":{"type":"Polygon","coordinates":[[[102.90219227274261,16.47156090807564],[102.90225146397815,16.47153580256494],[102.90227347570918,16.47150471693445],[102.9022492143318,16.471202933157763],[102.90223665185327,16.470982872584365],[102.90213992305027,16.470918788237256],[102.90207108835321,16.470896692040597],[102.9016029641128,16.470757994075946],[102.90115754140355,16.4706260207889],[102.90004920879265,16.470382980090235],[102.8998453191114,16.470317720318125],[102.89977512296316,16.47031727156615],[102.89975559301544,16.47031714668492],[102.89972419061833,16.470339611317737],[102.89972033251757,16.47034871099326],[102.89972424862745,16.471111437158633],[102.8997535323483,16.47138205094228],[102.89978651977023,16.471686877784887],[102.89987446291478,16.47192343463997],[102.90002145140673,16.47253870773889],[102.90006152070974,16.472707111983787],[102.90008331320516,16.472777514600935],[102.90031212955445,16.473209901644392],[102.90034514222835,16.47325352330099],[102.90040265416383,16.473251485285186],[102.90044566983032,16.47317097981801],[102.90050828024042,16.47302922175131],[102.9005628926631,16.47290625477341],[102.90064876927154,16.47271582943349],[102.90074609367117,16.47251779948586],[102.90086574811956,16.472353806559866],[102.900965978221,16.472269327803637],[102.90108266793122,16.472192409457985],[102.90118281715885,16.472103996605448],[102.9013464423479,16.471927854006275],[102.90145027461696,16.47181970733643],[102.90160763794101,16.471738096319957],[102.9017537638239,16.471696809848947],[102.901903643341,16.47165783153923],[102.90207386344831,16.47160745018308],[102.90219227274261,16.47156090807564]]]},"properties":{"id":"publicfacilities-000021","label":"วัดท่าราษฎร์","sourceRecord":21,"sourceFolder":"สาธารณูปการ","sourceFile":"สาธารณูปการ.shp","datasetId":"publicfacilities","geometryDisplayRepair":false,"villageIds":["v10"],"villageId":"v10","electionIds":["e03"],"electionId":"e03","insideMunicipality":true,"sourceTypeCode":6}},{"type":"Feature","id":"publicfacilities-000022","geometry":{"type":"Polygon","coordinates":[[[102.87574218346043,16.48321685159718],[102.87572306849779,16.483203564852055],[102.87568238915888,16.483202140188112],[102.87549949334304,16.48324863926442],[102.87516622230292,16.483260777619883],[102.87498397595283,16.48325819691618],[102.87484651325593,16.483228584374547],[102.87476606362954,16.48319362283022],[102.8746644697434,16.483150955463515],[102.87456723527903,16.483116309480785],[102.87448015721014,16.48307982857032],[102.87440633530453,16.483046387918705],[102.87432747470544,16.48301115040466],[102.87424583860222,16.482996716173204],[102.87415780268316,16.48300239450621],[102.8740364386795,16.483020844789866],[102.8735494103305,16.483125790501273],[102.87351694421221,16.483127373804773],[102.87352727592156,16.48316422266013],[102.87378622912435,16.48373355882728],[102.8741087257593,16.484409135486647],[102.87438890122498,16.484983632919153],[102.87442656032289,16.484973591053816],[102.87453418242151,16.484944892816547],[102.87458187283669,16.48493119398802],[102.87487884378842,16.48485204095614],[102.87520500789294,16.48478929331577],[102.87547364767624,16.484741847623507],[102.87578269587226,16.484709729544157],[102.87625176778522,16.48465648269673],[102.87616566678236,16.483826226940597],[102.87601403493642,16.483769735550368],[102.87588203047757,16.483695632587736],[102.87584478636718,16.48362471042035],[102.87582437010059,16.483499149686413],[102.87582070910587,16.483424036357288],[102.8757783346412,16.483306008776797],[102.87574218346043,16.48321685159718]]]},"properties":{"id":"publicfacilities-000022","label":"วัดสวรรค์วนาราม","sourceRecord":22,"sourceFolder":"สาธารณูปการ","sourceFile":"สาธารณูปการ.shp","datasetId":"publicfacilities","geometryDisplayRepair":false,"villageIds":["v22"],"villageId":"v22","electionIds":["e03"],"electionId":"e03","insideMunicipality":true,"sourceTypeCode":6}},{"type":"Feature","id":"publicfacilities-000023","geometry":{"type":"Polygon","coordinates":[[[102.87226407211094,16.481128192504663],[102.87226133968841,16.481731857747672],[102.87227607634229,16.481837268861913],[102.87228968014986,16.48188579469119],[102.8723219320856,16.481922423471087],[102.87235350293649,16.481954665454538],[102.87243210407895,16.482018863012023],[102.87246968044231,16.482042040620627],[102.8725162951913,16.48205311391851],[102.87257515836744,16.48205799186184],[102.87273616969527,16.482066943066123],[102.87285990155029,16.482067637154735],[102.87307335406786,16.482069650772388],[102.8731538008355,16.482071144876695],[102.87325594899907,16.4820752206027],[102.87337028617634,16.48207011823187],[102.87355579703043,16.482066680678187],[102.8738014560605,16.482054978837994],[102.87370609529697,16.481489955146227],[102.8736028490555,16.4809773820903],[102.87226407211094,16.481128192504663]]]},"properties":{"id":"publicfacilities-000023","label":"โรงเรียนบ้านหนองหิน","sourceRecord":23,"sourceFolder":"สาธารณูปการ","sourceFile":"สาธารณูปการ.shp","datasetId":"publicfacilities","geometryDisplayRepair":false,"villageIds":["v22"],"villageId":"v22","electionIds":["e03"],"electionId":"e03","insideMunicipality":true,"sourceTypeCode":4}},{"type":"Feature","id":"publicfacilities-000024","geometry":{"type":"Polygon","coordinates":[[[102.8613333773186,16.48016144595386],[102.86177245658145,16.48019122274249],[102.86195012366203,16.479463702171667],[102.86349749012545,16.479637624571335],[102.86315851910354,16.47857551580638],[102.8625880938464,16.47816867384526],[102.86186037360889,16.477664844321513],[102.8613333773186,16.48016144595386]]]},"properties":{"id":"publicfacilities-000024","label":"โรงกรองน้ำบ้านโกทา","sourceRecord":24,"sourceFolder":"สาธารณูปการ","sourceFile":"สาธารณูปการ.shp","datasetId":"publicfacilities","geometryDisplayRepair":false,"villageIds":["v25"],"villageId":"v25","electionIds":["e03"],"electionId":"e03","insideMunicipality":true,"sourceTypeCode":14}},{"type":"Feature","id":"publicfacilities-000025","geometry":{"type":"Polygon","coordinates":[[[102.87097647120032,16.460299414362066],[102.87160398102475,16.461473967530715],[102.87256832805878,16.46119567116495],[102.87254282829242,16.460638943694327],[102.87306519545741,16.460733237758475],[102.87310458213281,16.460399452198732],[102.87249061458218,16.460436189026872],[102.87239017544462,16.45984806001192],[102.87221036327097,16.459903978718145],[102.87097647120032,16.460299414362066]]]},"properties":{"id":"publicfacilities-000025","label":"วัดสว่างดอนยาง","sourceRecord":25,"sourceFolder":"สาธารณูปการ","sourceFile":"สาธารณูปการ.shp","datasetId":"publicfacilities","geometryDisplayRepair":false,"villageIds":["v16"],"villageId":"v16","electionIds":["e03"],"electionId":"e03","insideMunicipality":true,"sourceTypeCode":6}},{"type":"Feature","id":"publicfacilities-000026","geometry":{"type":"Polygon","coordinates":[[[102.86499996158635,16.460377070401034],[102.8669204737554,16.460537249315855],[102.86641787666116,16.459356309919574],[102.86499060672546,16.45971492755312],[102.86499996158635,16.460377070401034]]]},"properties":{"id":"publicfacilities-000026","label":"โรงเรียนบ้านดอนยาง","sourceRecord":26,"sourceFolder":"สาธารณูปการ","sourceFile":"สาธารณูปการ.shp","datasetId":"publicfacilities","geometryDisplayRepair":false,"villageIds":["v11","v16"],"villageId":null,"electionIds":["e03"],"electionId":"e03","insideMunicipality":true,"sourceTypeCode":4}},{"type":"Feature","id":"publicfacilities-000027","geometry":{"type":"Polygon","coordinates":[[[102.86550602931447,16.46056589706859],[102.86539152246198,16.4614734506319],[102.86546545582823,16.462093279541566],[102.86555842099234,16.46263675902735],[102.86574933547462,16.46272918977322],[102.86777545028094,16.462671983795477],[102.86713718474012,16.46070026463843],[102.86550602931447,16.46056589706859]]]},"properties":{"id":"publicfacilities-000027","label":"วัดป่าเรไร","sourceRecord":27,"sourceFolder":"สาธารณูปการ","sourceFile":"สาธารณูปการ.shp","datasetId":"publicfacilities","geometryDisplayRepair":false,"villageIds":["v16"],"villageId":"v16","electionIds":["e03"],"electionId":"e03","insideMunicipality":true,"sourceTypeCode":6}},{"type":"Feature","id":"publicfacilities-000028","geometry":{"type":"Polygon","coordinates":[[[102.84863058605352,16.48253484980576],[102.8491965954652,16.482136187698412],[102.84968435123986,16.48178351826053],[102.84927168723598,16.48115253471491],[102.84849194740717,16.481417233374287],[102.84863058605352,16.48253484980576]]]},"properties":{"id":"publicfacilities-000028","label":"วัดจุณณะปิยะวนาวาส","sourceRecord":28,"sourceFolder":"สาธารณูปการ","sourceFile":"สาธารณูปการ.shp","datasetId":"publicfacilities","geometryDisplayRepair":false,"villageIds":["v14","v26"],"villageId":null,"electionIds":["e02"],"electionId":"e02","insideMunicipality":true,"sourceTypeCode":6}},{"type":"Feature","id":"publicfacilities-000029","geometry":{"type":"Polygon","coordinates":[[[102.85150475914509,16.469829902743303],[102.84787943421553,16.467859753843964],[102.84753980657347,16.467675702364495],[102.84771483806874,16.46803193347772],[102.85045260969628,16.473507179203835],[102.85150475914509,16.469829902743303]]]},"properties":{"id":"publicfacilities-000029","label":"วัดป่ารัตนมงคล","sourceRecord":29,"sourceFolder":"สาธารณูปการ","sourceFile":"สาธารณูปการ.shp","datasetId":"publicfacilities","geometryDisplayRepair":false,"villageIds":["v13","v14"],"villageId":null,"electionIds":["e02"],"electionId":"e02","insideMunicipality":true,"sourceTypeCode":6}},{"type":"Feature","id":"publicfacilities-000030","geometry":{"type":"Polygon","coordinates":[[[102.85231276926477,16.47080955785414],[102.85250375313419,16.47038660129615],[102.85178811566054,16.46999307610263],[102.85150475914509,16.469829902743303],[102.85045260969628,16.473507179203835],[102.85050356228777,16.47353425680152],[102.85212257578915,16.47356343096761],[102.85249523241201,16.472395438228386],[102.85297805873381,16.471104341703306],[102.85228181335349,16.470878113556058],[102.85231276926477,16.47080955785414]]]},"properties":{"id":"publicfacilities-000030","label":"โรงเรียนขามแก่นนคร","sourceRecord":30,"sourceFolder":"สาธารณูปการ","sourceFile":"สาธารณูปการ.shp","datasetId":"publicfacilities","geometryDisplayRepair":false,"villageIds":["v13","v15"],"villageId":null,"electionIds":["e03","e02"],"electionId":null,"insideMunicipality":true,"sourceTypeCode":4}},{"type":"Feature","id":"publicfacilities-000031","geometry":{"type":"Polygon","coordinates":[[[102.8531863696835,16.470737266471456],[102.85306725576237,16.471059236900174],[102.85303990492771,16.47114046006706],[102.85325668990349,16.47120166125346],[102.8534100170097,16.47082007425153],[102.8531863696835,16.470737266471456]]]},"properties":{"id":"publicfacilities-000031","label":"โรงเรียนอนุบาลบุญพร้อง","sourceRecord":31,"sourceFolder":"สาธารณูปการ","sourceFile":"สาธารณูปการ.shp","datasetId":"publicfacilities","geometryDisplayRepair":false,"villageIds":["v13"],"villageId":"v13","electionIds":["e02"],"electionId":"e02","insideMunicipality":true,"sourceTypeCode":4}},{"type":"Feature","id":"publicfacilities-000032","geometry":{"type":"Polygon","coordinates":[[[102.86064185175043,16.474800075122236],[102.86047787395752,16.474875329794948],[102.8594955288184,16.475802016541554],[102.86033065924451,16.47636701835742],[102.86110200078473,16.475951029545758],[102.86064185175043,16.474800075122236]]]},"properties":{"id":"publicfacilities-000032","label":"วัดเกษรวนาราม","sourceRecord":32,"sourceFolder":"สาธารณูปการ","sourceFile":"สาธารณูปการ.shp","datasetId":"publicfacilities","geometryDisplayRepair":false,"villageIds":["v15","v25"],"villageId":null,"electionIds":["e03"],"electionId":"e03","insideMunicipality":true,"sourceTypeCode":6}},{"type":"Feature","id":"publicfacilities-000033","geometry":{"type":"Polygon","coordinates":[[[102.85550506525182,16.46568018366795],[102.85411328042463,16.465472952209772],[102.85366310419255,16.468132124632007],[102.85500807361527,16.468351771824423],[102.85505126787166,16.46835882651582],[102.8553359745283,16.46668853566557],[102.85550506525182,16.46568018366795]]]},"properties":{"id":"publicfacilities-000033","label":"โรงสูบน้ำดิบหนองโกทา","sourceRecord":33,"sourceFolder":"สาธารณูปการ","sourceFile":"สาธารณูปการ.shp","datasetId":"publicfacilities","geometryDisplayRepair":false,"villageIds":["v13"],"villageId":"v13","electionIds":["e02"],"electionId":"e02","insideMunicipality":true,"sourceTypeCode":14}},{"type":"Feature","id":"publicfacilities-000034","geometry":{"type":"Polygon","coordinates":[[[102.8450567828792,16.454729615753624],[102.84473498600909,16.45413529188359],[102.84416386639835,16.453979847742755],[102.84412442491819,16.45431540045287],[102.84390249133462,16.45485345614914],[102.8450567828792,16.454729615753624]]]},"properties":{"id":"publicfacilities-000034","label":"สถานีวิทยุรด. จังหวัดขอนแก่น","sourceRecord":34,"sourceFolder":"สาธารณูปการ","sourceFile":"สาธารณูปการ.shp","datasetId":"publicfacilities","geometryDisplayRepair":false,"villageIds":[],"villageId":null,"electionIds":[],"electionId":null,"insideMunicipality":true,"sourceTypeCode":17}},{"type":"Feature","id":"publicfacilities-000035","geometry":{"type":"Polygon","coordinates":[[[102.84070062418932,16.474317224352816],[102.83956364334621,16.47425295434661],[102.83960877873763,16.475008129272403],[102.84074656544178,16.475090127728976],[102.84070062418932,16.474317224352816]]]},"properties":{"id":"publicfacilities-000035","label":"ศูนย์วิศวกรรมการแพทย์ที่ 2 ขอนแก่น","sourceRecord":35,"sourceFolder":"สาธารณูปการ","sourceFile":"สาธารณูปการ.shp","datasetId":"publicfacilities","geometryDisplayRepair":false,"villageIds":["v14"],"villageId":"v14","electionIds":["e02"],"electionId":"e02","insideMunicipality":true,"sourceTypeCode":17}},{"type":"Feature","id":"publicfacilities-000036","geometry":{"type":"Polygon","coordinates":[[[102.84081777933451,16.474313945775368],[102.84083192766238,16.475154575661367],[102.84142422908162,16.475193018684042],[102.84149988169683,16.474339001053565],[102.84081777933451,16.474313945775368]]]},"properties":{"id":"publicfacilities-000036","label":"ศูนย์วิเคราะห์และทดสอบสิ่งแวดล้อมอุตสาหกรรมภาคตะวันออกเฉียงเหนือ","sourceRecord":36,"sourceFolder":"สาธารณูปการ","sourceFile":"สาธารณูปการ.shp","datasetId":"publicfacilities","geometryDisplayRepair":false,"villageIds":["v14"],"villageId":"v14","electionIds":["e02"],"electionId":"e02","insideMunicipality":true,"sourceTypeCode":17}},{"type":"Feature","id":"publicfacilities-000037","geometry":{"type":"Polygon","coordinates":[[[102.84424136401263,16.475438596325795],[102.84442382250099,16.474065216202547],[102.84264432429124,16.473895702871822],[102.8424154154209,16.47530532222408],[102.84424136401263,16.475438596325795]]]},"properties":{"id":"publicfacilities-000037","label":"คลังปุ๋ยองค์การตลาดเพื่อเกษตรกร","sourceRecord":37,"sourceFolder":"สาธารณูปการ","sourceFile":"สาธารณูปการ.shp","datasetId":"publicfacilities","geometryDisplayRepair":false,"villageIds":["v14"],"villageId":"v14","electionIds":["e02"],"electionId":"e02","insideMunicipality":true,"sourceTypeCode":11}},{"type":"Feature","id":"publicfacilities-000038","geometry":{"type":"Polygon","coordinates":[[[102.83172653065789,16.474107349478757],[102.83111469579275,16.47406942059662],[102.83114400611103,16.474476499676463],[102.83178740198038,16.47451951815274],[102.83172653065789,16.474107349478757]]]},"properties":{"id":"publicfacilities-000038","label":"อาคารที่ทำการองค์การตลาดเพื่อเกษตรกร","sourceRecord":38,"sourceFolder":"สาธารณูปการ","sourceFile":"สาธารณูปการ.shp","datasetId":"publicfacilities","geometryDisplayRepair":false,"villageIds":[],"villageId":null,"electionIds":[],"electionId":null,"insideMunicipality":false,"sourceTypeCode":17}},{"type":"Feature","id":"publicfacilities-000039","geometry":{"type":"Polygon","coordinates":[[[102.84331299782741,16.479803304398057],[102.84455674913451,16.47940454843392],[102.84490150945699,16.47564369210287],[102.8436370087181,16.475526830020055],[102.84331299782741,16.479803304398057]]]},"properties":{"id":"publicfacilities-000039","label":"วิทยาลัยป้องกันและบรรเทาสาธารณภัย (วิทยาเขตขอนแก่น)","sourceRecord":39,"sourceFolder":"สาธารณูปการ","sourceFile":"สาธารณูปการ.shp","datasetId":"publicfacilities","geometryDisplayRepair":false,"villageIds":["v14"],"villageId":"v14","electionIds":["e02"],"electionId":"e02","insideMunicipality":true,"sourceTypeCode":4}},{"type":"Feature","id":"publicfacilities-000040","geometry":{"type":"Polygon","coordinates":[[[102.84874518772104,16.50302118580723],[102.84878806499447,16.503302349914794],[102.84906619866487,16.50447301802895],[102.85058455611268,16.504529006757362],[102.85064678161834,16.50296213214982],[102.84981959224129,16.50295338809785],[102.84874518772104,16.50302118580723]]]},"properties":{"id":"publicfacilities-000040","label":"วัดป่าเทพนิมิตบ้านหนองกุง","sourceRecord":40,"sourceFolder":"สาธารณูปการ","sourceFile":"สาธารณูปการ.shp","datasetId":"publicfacilities","geometryDisplayRepair":false,"villageIds":["v17","v07"],"villageId":null,"electionIds":["e03","e02"],"electionId":null,"insideMunicipality":true,"sourceTypeCode":6}},{"type":"Feature","id":"publicfacilities-000041","geometry":{"type":"Polygon","coordinates":[[[102.83365662022638,16.475682992071018],[102.83456051096314,16.475732420924388],[102.83464299963958,16.474838506142447],[102.83368470762639,16.474774835337087],[102.83365662022638,16.475682992071018]]]},"properties":{"id":"publicfacilities-000041","label":"ศูนย์การศึกษาพิเศษเขตการศึกษา 9 จังหวัดขอนแก่น","sourceRecord":41,"sourceFolder":"สาธารณูปการ","sourceFile":"สาธารณูปการ.shp","datasetId":"publicfacilities","geometryDisplayRepair":false,"villageIds":[],"villageId":null,"electionIds":[],"electionId":null,"insideMunicipality":true,"sourceTypeCode":17}},{"type":"Feature","id":"publicfacilities-000042","geometry":{"type":"Polygon","coordinates":[[[102.84197947478285,16.45734617752909],[102.8420045380542,16.4573980085566],[102.84234180914017,16.45723941183026],[102.84231011256531,16.45718449138458],[102.84197701638864,16.457341092256264],[102.84197947478285,16.45734617752909]]]},"properties":{"id":"publicfacilities-000042","label":"พรประภาอพาร์ทเมนท์","sourceRecord":42,"sourceFolder":"สาธารณูปการ","sourceFile":"สาธารณูปการ.shp","datasetId":"publicfacilities","geometryDisplayRepair":false,"villageIds":["v20"],"villageId":"v20","electionIds":["e02"],"electionId":"e02","insideMunicipality":false,"sourceTypeCode":13}},{"type":"Feature","id":"publicfacilities-000043","geometry":{"type":"Polygon","coordinates":[[[102.84637019633976,16.47696270766645],[102.84708684240127,16.477024120556248],[102.84711663259401,16.476780096695975],[102.8464051174208,16.47666708987864],[102.84637019633976,16.47696270766645]]]},"properties":{"id":"publicfacilities-000043","label":"โรงเรียนหนองไผ่มอดินแดง","sourceRecord":43,"sourceFolder":"สาธารณูปการ","sourceFile":"สาธารณูปการ.shp","datasetId":"publicfacilities","geometryDisplayRepair":false,"villageIds":["v14"],"villageId":"v14","electionIds":["e02"],"electionId":"e02","insideMunicipality":true,"sourceTypeCode":4}},{"type":"Feature","id":"publicfacilities-000044","geometry":{"type":"Polygon","coordinates":[[[102.840702969583,16.458047996721238],[102.84082491295854,16.458364776067167],[102.84101396620167,16.458291814538157],[102.84091545519179,16.45798379154451],[102.840702969583,16.458047996721238]]]},"properties":{"id":"publicfacilities-000044","label":"โรงเรียนอนุบาลปิ่นทิพย์","sourceRecord":44,"sourceFolder":"สาธารณูปการ","sourceFile":"สาธารณูปการ.shp","datasetId":"publicfacilities","geometryDisplayRepair":false,"villageIds":["v20"],"villageId":"v20","electionIds":["e02"],"electionId":"e02","insideMunicipality":true,"sourceTypeCode":4}},{"type":"Feature","id":"publicfacilities-000045","geometry":{"type":"Polygon","coordinates":[[[102.86059604246789,16.508623845950034],[102.86000896089448,16.508540846574693],[102.85961452921441,16.508938531232072],[102.85989700369574,16.50973440382914],[102.85993922116572,16.509857735355787],[102.8606034903144,16.509619789603175],[102.86085008338932,16.51020695091354],[102.86164818394296,16.50965592224362],[102.86128330686182,16.50901683150802],[102.86103280928555,16.50862374089361],[102.86078183757809,16.508648127240566],[102.86059604246789,16.508623845950034]]]},"properties":{"id":"publicfacilities-000045","label":"วัดนาถวนาราม","sourceRecord":45,"sourceFolder":"สาธารณูปการ","sourceFile":"สาธารณูปการ.shp","datasetId":"publicfacilities","geometryDisplayRepair":false,"villageIds":["v07"],"villageId":"v07","electionIds":["e03"],"electionId":"e03","insideMunicipality":true,"sourceTypeCode":6}},{"type":"Feature","id":"publicfacilities-000046","geometry":{"type":"Polygon","coordinates":[[[102.89601525750213,16.519481449265353],[102.89605511668985,16.519547072285985],[102.896497727883,16.519381774466467],[102.89697698668041,16.51919455178958],[102.89640509065389,16.51817217113548],[102.89586373612194,16.51826905522804],[102.8958928813673,16.518466347474288],[102.8959515681263,16.518860062879913],[102.89601525750213,16.519481449265353]]]},"properties":{"id":"publicfacilities-000046","label":"วัดท่าโพธิ์บ้านห้วยชัน","sourceRecord":46,"sourceFolder":"สาธารณูปการ","sourceFile":"สาธารณูปการ.shp","datasetId":"publicfacilities","geometryDisplayRepair":false,"villageIds":["v04"],"villageId":"v04","electionIds":["e03"],"electionId":"e03","insideMunicipality":true,"sourceTypeCode":6}},{"type":"Feature","id":"publicfacilities-000047","geometry":{"type":"Polygon","coordinates":[[[102.85725548300663,16.510170707996654],[102.85811958989174,16.51049444770066],[102.85862834115848,16.510246370443852],[102.85888896583148,16.510067605689358],[102.85878459696391,16.509926419289705],[102.85857233010817,16.510065367885527],[102.85852298169661,16.51009905415279],[102.8584705970898,16.510102686041066],[102.858425962438,16.510079539690356],[102.85838282133132,16.509992444514783],[102.85836090561979,16.50989118834852],[102.85834558643698,16.509606288836718],[102.858067729974,16.509527546316736],[102.85772156873207,16.50941465173012],[102.85725548300663,16.510170707996654]]]},"properties":{"id":"publicfacilities-000047","label":"โรงเรียนบ้านเต่านอ","sourceRecord":47,"sourceFolder":"สาธารณูปการ","sourceFile":"สาธารณูปการ.shp","datasetId":"publicfacilities","geometryDisplayRepair":false,"villageIds":["v07"],"villageId":"v07","electionIds":["e03"],"electionId":"e03","insideMunicipality":true,"sourceTypeCode":4}},{"type":"Feature","id":"publicfacilities-000048","geometry":{"type":"Polygon","coordinates":[[[102.79878210906095,16.468661335921475],[102.79880305528452,16.469531526167902],[102.79966399535019,16.469452611051608],[102.80014046445959,16.46940069333093],[102.80049895953327,16.46936649378397],[102.80027069380625,16.467600236928497],[102.79877884467365,16.467740864688878],[102.79878210906095,16.468661335921475]]]},"properties":{"id":"publicfacilities-000048","label":"โรงเรียนสีหราชเดโชชัย","sourceRecord":48,"sourceFolder":"สาธารณูปการ","sourceFile":"สาธารณูปการ.shp","datasetId":"publicfacilities","geometryDisplayRepair":false,"villageIds":["v19","v23"],"villageId":null,"electionIds":["e01"],"electionId":"e01","insideMunicipality":true,"sourceTypeCode":4}},{"type":"Feature","id":"publicfacilities-000049","geometry":{"type":"Polygon","coordinates":[[[102.85839529426624,16.47495558018314],[102.85938693083733,16.47568997859545],[102.86045283150968,16.474605886682586],[102.85995079578902,16.474322438930084],[102.85931773817548,16.47398818728799],[102.85878979242806,16.47378884471371],[102.85860243825431,16.474275094498612],[102.85839529426624,16.47495558018314]]]},"properties":{"id":"publicfacilities-000049","label":"โรงเรียนบ้านโกทา","sourceRecord":49,"sourceFolder":"สาธารณูปการ","sourceFile":"สาธารณูปการ.shp","datasetId":"publicfacilities","geometryDisplayRepair":false,"villageIds":["v15","v25"],"villageId":null,"electionIds":["e03"],"electionId":"e03","insideMunicipality":true,"sourceTypeCode":4}},{"type":"Feature","id":"publicfacilities-000050","geometry":{"type":"Polygon","coordinates":[[[102.84070062418932,16.474317224352816],[102.84066998508628,16.473736547974795],[102.83926120189946,16.47370318339962],[102.83928725662985,16.473273256081228],[102.83848005760677,16.473199219868313],[102.83845137690889,16.4737170342586],[102.83848851266204,16.474583369220255],[102.83850237316067,16.47492421570837],[102.83960877873763,16.475008129272403],[102.83956364334621,16.47425295434661],[102.84070062418932,16.474317224352816]]]},"properties":{"id":"publicfacilities-000050","label":"ศูนย์การศึกษาพิเศษเขตการศึกษา 9","sourceRecord":50,"sourceFolder":"สาธารณูปการ","sourceFile":"สาธารณูปการ.shp","datasetId":"publicfacilities","geometryDisplayRepair":false,"villageIds":["v14"],"villageId":"v14","electionIds":["e02"],"electionId":"e02","insideMunicipality":true,"sourceTypeCode":4}},{"type":"Feature","id":"publicfacilities-000051","geometry":{"type":"Polygon","coordinates":[[[102.85478702063998,16.514054205317866],[102.8556130081051,16.514250069926266],[102.85657905856516,16.513303810822645],[102.85677519977695,16.513007858753273],[102.85684478961223,16.51283875592762],[102.8569024910047,16.51266273495736],[102.8566327599875,16.512445487935114],[102.85654104838702,16.512380670073295],[102.85584459170627,16.51240619402361],[102.85540161741233,16.513071133623647],[102.85478702063998,16.514054205317866]]]},"properties":{"id":"publicfacilities-000051","label":"โรงเรียนไพบูลย์วิทยา","sourceRecord":51,"sourceFolder":"สาธารณูปการ","sourceFile":"สาธารณูปการ.shp","datasetId":"publicfacilities","geometryDisplayRepair":false,"villageIds":["v17","v07"],"villageId":null,"electionIds":["e03","e02"],"electionId":null,"insideMunicipality":true,"sourceTypeCode":4}},{"type":"Feature","id":"publicfacilities-000052","geometry":{"type":"Polygon","coordinates":[[[102.83188396889673,16.458100280207958],[102.83295017658361,16.45781859069683],[102.83299061387996,16.457787035983745],[102.83306271363512,16.45774169187762],[102.83315770121567,16.457700333612348],[102.83326215953593,16.457676410126634],[102.83333039019169,16.457666355113968],[102.83355564059052,16.45752136296871],[102.83297440528172,16.456730800210877],[102.83135662989055,16.45705096399612],[102.8316523400524,16.458149805782742],[102.83188396889673,16.458100280207958]]]},"properties":{"id":"publicfacilities-000052","label":"โรงเรียนเทศบาลบ้านหนองแวง","sourceRecord":52,"sourceFolder":"สาธารณูปการ","sourceFile":"สาธารณูปการ.shp","datasetId":"publicfacilities","geometryDisplayRepair":false,"villageIds":[],"villageId":null,"electionIds":[],"electionId":null,"insideMunicipality":true,"sourceTypeCode":4}},{"type":"Feature","id":"publicfacilities-000053","geometry":{"type":"Polygon","coordinates":[[[102.85120664129892,16.46064785204915],[102.85182042829844,16.462601043213294],[102.85192355229344,16.462888523976883],[102.85416030886527,16.462332482411195],[102.85403621448876,16.462072500189215],[102.85352752263516,16.46104604293657],[102.85341949948831,16.461037077488633],[102.85323602602199,16.460657052776646],[102.85299287527481,16.46035168987447],[102.85287687556273,16.460291216536223],[102.85227705397276,16.4603844159375],[102.85216729943015,16.46028784713672],[102.85160849292429,16.4604460160781],[102.85120664129892,16.46064785204915]]]},"properties":{"id":"publicfacilities-000053","label":"มหาวิทยาลัยมหามกุฏราชวิทยาลัยวิทยาเขตอีสาน","sourceRecord":53,"sourceFolder":"สาธารณูปการ","sourceFile":"สาธารณูปการ.shp","datasetId":"publicfacilities","geometryDisplayRepair":false,"villageIds":["v13"],"villageId":"v13","electionIds":["e02"],"electionId":"e02","insideMunicipality":true,"sourceTypeCode":4}},{"type":"Feature","id":"publicfacilities-000054","geometry":{"type":"Polygon","coordinates":[[[102.84207507477504,16.457367627780823],[102.84241479986225,16.45802700035525],[102.843484017749,16.45744056092912],[102.84319725748045,16.45684937916907],[102.84272203733288,16.457073867064533],[102.84207507477504,16.457367627780823]]]},"properties":{"id":"publicfacilities-000054","label":"สถานีวิทยุโทรทัศน์กองทัพบกช่อง 5","sourceRecord":54,"sourceFolder":"สาธารณูปการ","sourceFile":"สาธารณูปการ.shp","datasetId":"publicfacilities","geometryDisplayRepair":false,"villageIds":["v20"],"villageId":"v20","electionIds":["e02"],"electionId":"e02","insideMunicipality":true,"sourceTypeCode":17}},{"type":"Feature","id":"publicfacilities-000055","geometry":{"type":"Polygon","coordinates":[[[102.84041587335467,16.486382326346412],[102.84112882813226,16.48759166845399],[102.84149671139423,16.48757735052893],[102.8416341162577,16.487593716707465],[102.84184244651118,16.487631455123573],[102.84185418713508,16.487234457980943],[102.84180090443132,16.487114510652496],[102.84171569962879,16.486964924489012],[102.84163154015782,16.486868219987603],[102.84153496605246,16.486737735629262],[102.84147340228961,16.486595268661485],[102.84136675783196,16.48635160171425],[102.84125564411272,16.486148317353717],[102.8411998211286,16.486029685939762],[102.84041587335467,16.486382326346412]]]},"properties":{"id":"publicfacilities-000055","label":"โรงเรียนกัลยาณีวิทยา","sourceRecord":55,"sourceFolder":"สาธารณูปการ","sourceFile":"สาธารณูปการ.shp","datasetId":"publicfacilities","geometryDisplayRepair":false,"villageIds":["v14","v02"],"villageId":null,"electionIds":["e02","e01"],"electionId":null,"insideMunicipality":true,"sourceTypeCode":4}},{"type":"Feature","id":"publicfacilities-000056","geometry":{"type":"Polygon","coordinates":[[[102.82968350599683,16.49949434117584],[102.82975541485993,16.500585721859757],[102.8298036226296,16.50121185115137],[102.83065696909478,16.50092643350435],[102.8305951058523,16.499632024342535],[102.82968474000364,16.499494884286182],[102.82968350599683,16.49949434117584]]]},"properties":{"id":"publicfacilities-000056","label":"หมวดการทางขอนแก่นที่ 1 (หนองกุง)","sourceRecord":56,"sourceFolder":"สาธารณูปการ","sourceFile":"สาธารณูปการ.shp","datasetId":"publicfacilities","geometryDisplayRepair":false,"villageIds":["v02"],"villageId":"v02","electionIds":["e01"],"electionId":"e01","insideMunicipality":true,"sourceTypeCode":17}},{"type":"Feature","id":"publicfacilities-000057","geometry":{"type":"Polygon","coordinates":[[[102.83085601556645,16.469499800662348],[102.83096759026925,16.47131382225595],[102.83106429876057,16.473326180917418],[102.83167407753643,16.473301420591056],[102.83229156206069,16.473260027891765],[102.83230341951551,16.473321467936508],[102.83294539451819,16.473292576054103],[102.83298095267178,16.473572240590283],[102.8330340303334,16.474188393643697],[102.83319224315423,16.474179325724055],[102.83354328717967,16.473546848203657],[102.83411852055056,16.47298568870117],[102.83403116590733,16.472195707583438],[102.83388998395549,16.470096249052368],[102.83388967079118,16.470067040375877],[102.8338152580272,16.469516332199433],[102.83422394740677,16.469190856715326],[102.8343659749559,16.468998109858124],[102.83442808005113,16.468842676885707],[102.83447609958941,16.468625537215225],[102.83085601556645,16.469499800662348]]]},"properties":{"id":"publicfacilities-000057","label":"สำนักงานพัฒนาที่ดินเขต 5 ขอนแก่น","sourceRecord":57,"sourceFolder":"สาธารณูปการ","sourceFile":"สาธารณูปการ.shp","datasetId":"publicfacilities","geometryDisplayRepair":false,"villageIds":[],"villageId":null,"electionIds":[],"electionId":null,"insideMunicipality":true,"sourceTypeCode":17}},{"type":"Feature","id":"publicfacilities-000058","geometry":{"type":"Polygon","coordinates":[[[102.8531863696835,16.470737266471456],[102.85250375313419,16.47038660129615],[102.85231276926477,16.47080955785414],[102.85306725576237,16.471059236900174],[102.8531863696835,16.470737266471456]]]},"properties":{"id":"publicfacilities-000058","label":"สำนักงานเขตพื้นที่การศึกษามัธยมศึกษาเขต 25 จังหวัดขอนแก่น","sourceRecord":58,"sourceFolder":"สาธารณูปการ","sourceFile":"สาธารณูปการ.shp","datasetId":"publicfacilities","geometryDisplayRepair":false,"villageIds":["v13"],"villageId":"v13","electionIds":["e02"],"electionId":"e02","insideMunicipality":true,"sourceTypeCode":17}},{"type":"Feature","id":"publicfacilities-000059","geometry":{"type":"Polygon","coordinates":[[[102.79931248862924,16.481200536057827],[102.79981188813612,16.481159638342262],[102.79986719051385,16.481458283418974],[102.80088023904227,16.4812981461463],[102.80062248588662,16.480306952965332],[102.79923389411645,16.48046964492419],[102.79931248862924,16.481200536057827]]]},"properties":{"id":"publicfacilities-000059","label":"วัดอดุลแก้วมอดี","sourceRecord":59,"sourceFolder":"สาธารณูปการ","sourceFile":"สาธารณูปการ.shp","datasetId":"publicfacilities","geometryDisplayRepair":false,"villageIds":["v19","v23"],"villageId":null,"electionIds":["e01"],"electionId":"e01","insideMunicipality":true,"sourceTypeCode":6}},{"type":"Feature","id":"publicfacilities-000060","geometry":{"type":"Polygon","coordinates":[[[102.8008007769446,16.47924445989239],[102.79864318171344,16.479486556621236],[102.79863148544187,16.48041520353593],[102.80089371697801,16.48016433153238],[102.8008008367532,16.479245223973432],[102.8008007769446,16.47924445989239]]]},"properties":{"id":"publicfacilities-000060","label":"สำนักงานคณะกรรมการกิจการกระจายเสียงกิจการโทรทัศน์เขต 6 (ขอนแก่น)","sourceRecord":60,"sourceFolder":"สาธารณูปการ","sourceFile":"สาธารณูปการ.shp","datasetId":"publicfacilities","geometryDisplayRepair":false,"villageIds":["v19","v23"],"villageId":null,"electionIds":["e01"],"electionId":"e01","insideMunicipality":true,"sourceTypeCode":17}},{"type":"Feature","id":"publicfacilities-000061","geometry":{"type":"Polygon","coordinates":[[[102.8008007769446,16.47924445989239],[102.80066531387334,16.47752159931368],[102.80065141477527,16.47743113526976],[102.80062265807786,16.476890281379603],[102.80055981612699,16.476156905925695],[102.80048793803232,16.47527152884692],[102.80041469667863,16.47431594053228],[102.80032493742026,16.472980226952174],[102.8002996743249,16.472462720755136],[102.80023233328316,16.47134315034758],[102.80017790906543,16.470574507144526],[102.80013109017638,16.469884737492457],[102.80010290493539,16.46952823310882],[102.80005056564436,16.469488214852266],[102.79968899649074,16.46952755140093],[102.79883971394429,16.469603852095776],[102.79880367649038,16.469622060327108],[102.79879850380648,16.47013427147613],[102.79877790665468,16.47141053879584],[102.79877030723839,16.472082526861954],[102.79883617799997,16.472081330508043],[102.79883225187866,16.47226970403208],[102.79867655703431,16.472278646820936],[102.7986708416774,16.472310539472304],[102.79864983795375,16.473815120052794],[102.79862199321684,16.474017186773846],[102.79860934849793,16.475231162144937],[102.79858658986225,16.476624975541664],[102.79857959063204,16.477300960793325],[102.79867535384193,16.47745708976109],[102.79865695355814,16.47839341908719],[102.79864318171344,16.479486556621236],[102.8008007769446,16.47924445989239]]]},"properties":{"id":"publicfacilities-000061","label":"สถานพินิจและคุ้มครองเด็กและเยาวชนจังหวัดขอนแก่น","sourceRecord":61,"sourceFolder":"สาธารณูปการ","sourceFile":"สาธารณูปการ.shp","datasetId":"publicfacilities","geometryDisplayRepair":false,"villageIds":["v19","v23"],"villageId":null,"electionIds":["e01"],"electionId":"e01","insideMunicipality":true,"sourceTypeCode":17}},{"type":"Feature","id":"publicfacilities-000062","geometry":{"type":"Polygon","coordinates":[[[102.84645649449809,16.47558920603587],[102.84657249798734,16.47559863223437],[102.84758515522947,16.475684701850387],[102.84775796890247,16.474604267939977],[102.84791563849018,16.473576149095912],[102.84746947867183,16.47345593519569],[102.84682970675293,16.473279851061264],[102.84645649449809,16.47558920603587]]]},"properties":{"id":"publicfacilities-000062","label":"สำนักงานเทศบาลเมืองศิลา","sourceRecord":62,"sourceFolder":"สาธารณูปการ","sourceFile":"สาธารณูปการ.shp","datasetId":"publicfacilities","geometryDisplayRepair":false,"villageIds":["v14"],"villageId":"v14","electionIds":["e02"],"electionId":"e02","insideMunicipality":true,"sourceTypeCode":17}},{"type":"Feature","id":"publicfacilities-000063","geometry":{"type":"Polygon","coordinates":[[[102.83114286867624,16.478290631429072],[102.83116712172765,16.483749663565067],[102.83457737227141,16.482610566695733],[102.83446990237483,16.47822234296433],[102.83114286867624,16.478290631429072]]]},"properties":{"id":"publicfacilities-000063","label":"ศูนย์ฝึกอบรมตำรวจภูธรภาค 4","sourceRecord":63,"sourceFolder":"สาธารณูปการ","sourceFile":"สาธารณูปการ.shp","datasetId":"publicfacilities","geometryDisplayRepair":false,"villageIds":["v27"],"villageId":"v27","electionIds":["e01"],"electionId":"e01","insideMunicipality":true,"sourceTypeCode":4}},{"type":"Feature","id":"publicfacilities-000064","geometry":{"type":"Polygon","coordinates":[[[102.81563120153064,16.481510471835428],[102.81582951952537,16.481502218669913],[102.81580816582935,16.481311104453816],[102.81560851998104,16.481333280948522],[102.81563120153064,16.481510471835428]]]},"properties":{"id":"publicfacilities-000064","label":"อมรบุตรเพลส","sourceRecord":64,"sourceFolder":"สาธารณูปการ","sourceFile":"สาธารณูปการ.shp","datasetId":"publicfacilities","geometryDisplayRepair":false,"villageIds":["v12"],"villageId":"v12","electionIds":["e01"],"electionId":"e01","insideMunicipality":true,"sourceTypeCode":13}},{"type":"Feature","id":"publicfacilities-000065","geometry":{"type":"Polygon","coordinates":[[[102.81546595938943,16.481392015473027],[102.81549495088582,16.48156445788098],[102.8155860036244,16.481555074060363],[102.81554732136755,16.481378175200806],[102.81546595938943,16.481392015473027]]]},"properties":{"id":"publicfacilities-000065","label":"นวลพรรณโฮมเพลส","sourceRecord":65,"sourceFolder":"สาธารณูปการ","sourceFile":"สาธารณูปการ.shp","datasetId":"publicfacilities","geometryDisplayRepair":false,"villageIds":["v12"],"villageId":"v12","electionIds":["e01"],"electionId":"e01","insideMunicipality":true,"sourceTypeCode":13}},{"type":"Feature","id":"publicfacilities-000066","geometry":{"type":"Polygon","coordinates":[[[102.81483482307969,16.48228827953987],[102.8146830280318,16.482301860160437],[102.8146968942809,16.482472956439842],[102.81484418704764,16.482459591488958],[102.81483482307969,16.48228827953987]]]},"properties":{"id":"publicfacilities-000066","label":"ดุสิตาเพลส","sourceRecord":66,"sourceFolder":"สาธารณูปการ","sourceFile":"สาธารณูปการ.shp","datasetId":"publicfacilities","geometryDisplayRepair":false,"villageIds":["v12"],"villageId":"v12","electionIds":["e01"],"electionId":"e01","insideMunicipality":true,"sourceTypeCode":13}},{"type":"Feature","id":"publicfacilities-000067","geometry":{"type":"Polygon","coordinates":[[[102.81476422864644,16.482537331823753],[102.81497378327066,16.482525411152388],[102.81494037514909,16.48227664715629],[102.81486174583513,16.48228941689029],[102.8148786262526,16.482465613911877],[102.81476473262859,16.482477408434004],[102.81476422864644,16.482537331823753]]]},"properties":{"id":"publicfacilities-000067","label":"เรือนตะวัน","sourceRecord":67,"sourceFolder":"สาธารณูปการ","sourceFile":"สาธารณูปการ.shp","datasetId":"publicfacilities","geometryDisplayRepair":false,"villageIds":["v12"],"villageId":"v12","electionIds":["e01"],"electionId":"e01","insideMunicipality":true,"sourceTypeCode":13}},{"type":"Feature","id":"publicfacilities-000068","geometry":{"type":"Polygon","coordinates":[[[102.81097603708444,16.489268806801025],[102.81117918574361,16.489451944334768],[102.81131227732304,16.489313941915086],[102.8111030260189,16.489120662840175],[102.81097603708444,16.489268806801025]]]},"properties":{"id":"publicfacilities-000068","label":"ไดมอนด์เพลส","sourceRecord":68,"sourceFolder":"สาธารณูปการ","sourceFile":"สาธารณูปการ.shp","datasetId":"publicfacilities","geometryDisplayRepair":false,"villageIds":["v12"],"villageId":"v12","electionIds":["e01"],"electionId":"e01","insideMunicipality":true,"sourceTypeCode":13}},{"type":"Feature","id":"publicfacilities-000069","geometry":{"type":"Polygon","coordinates":[[[102.81574329137226,16.485630013972628],[102.81597651920998,16.48566107398877],[102.81601089613446,16.48548727641595],[102.81579769061851,16.48545357253064],[102.81574329137226,16.485630013972628]]]},"properties":{"id":"publicfacilities-000069","label":"ศรีโสธรอพาร์ทเมนท์","sourceRecord":69,"sourceFolder":"สาธารณูปการ","sourceFile":"สาธารณูปการ.shp","datasetId":"publicfacilities","geometryDisplayRepair":false,"villageIds":["v12"],"villageId":"v12","electionIds":["e01"],"electionId":"e01","insideMunicipality":true,"sourceTypeCode":13}},{"type":"Feature","id":"publicfacilities-000070","geometry":{"type":"Polygon","coordinates":[[[102.85638317479412,16.492175349068567],[102.8565938179779,16.49065923772577],[102.85353452398732,16.490937116363042],[102.85356167517563,16.49202487935718],[102.85520817982791,16.49206201362089],[102.85638317479412,16.492175349068567]]]},"properties":{"id":"publicfacilities-000070","label":"วัดป่าสุนทรวนาราม","sourceRecord":70,"sourceFolder":"สาธารณูปการ","sourceFile":"สาธารณูปการ.shp","datasetId":"publicfacilities","geometryDisplayRepair":false,"villageIds":["v26","v28"],"villageId":null,"electionIds":["e03","e02"],"electionId":null,"insideMunicipality":true,"sourceTypeCode":6}},{"type":"Feature","id":"publicfacilities-000071","geometry":{"type":"Polygon","coordinates":[[[102.8078072230665,16.482842975996757],[102.808209333648,16.482743183443183],[102.80744598499983,16.48119264917772],[102.80739893846193,16.481038561347866],[102.80703420176143,16.481062697759434],[102.80710894872433,16.48130874785559],[102.80722390112305,16.48149158846094],[102.80733939309945,16.481834361720757],[102.80760926403653,16.482389245385335],[102.8078072230665,16.482842975996757]]]},"properties":{"id":"publicfacilities-000071","label":"วัดโนนม่วง","sourceRecord":71,"sourceFolder":"สาธารณูปการ","sourceFile":"สาธารณูปการ.shp","datasetId":"publicfacilities","geometryDisplayRepair":false,"villageIds":["v19","v12"],"villageId":null,"electionIds":["e01"],"electionId":"e01","insideMunicipality":true,"sourceTypeCode":6}},{"type":"Feature","id":"publicfacilities-000072","geometry":{"type":"Polygon","coordinates":[[[102.80192139320256,16.481720002045222],[102.80264453889006,16.481745584955902],[102.80263773083045,16.481336702763063],[102.80182245070267,16.481309377094888],[102.80192139320256,16.481720002045222]]]},"properties":{"id":"publicfacilities-000072","label":"อมรพันธ์เพลส","sourceRecord":72,"sourceFolder":"สาธารณูปการ","sourceFile":"สาธารณูปการ.shp","datasetId":"publicfacilities","geometryDisplayRepair":false,"villageIds":["v19"],"villageId":"v19","electionIds":["e01"],"electionId":"e01","insideMunicipality":true,"sourceTypeCode":13}},{"type":"Feature","id":"publicfacilities-000073","geometry":{"type":"Polygon","coordinates":[[[102.81962165905247,16.488684345261532],[102.81996872057319,16.48868685828884],[102.81998707033289,16.488218860667814],[102.8196069384899,16.488215180743246],[102.81962165905247,16.488684345261532]]]},"properties":{"id":"publicfacilities-000073","label":"ศุภวรรณอพาร์ทเมนท์","sourceRecord":73,"sourceFolder":"สาธารณูปการ","sourceFile":"สาธารณูปการ.shp","datasetId":"publicfacilities","geometryDisplayRepair":false,"villageIds":["v27"],"villageId":"v27","electionIds":["e01"],"electionId":"e01","insideMunicipality":true,"sourceTypeCode":13}},{"type":"Feature","id":"publicfacilities-000074","geometry":{"type":"Polygon","coordinates":[[[102.81463310056773,16.486403447198793],[102.81465872787473,16.48626512655678],[102.81368557398756,16.48619630169873],[102.8136748254129,16.48637080685861],[102.81463310056773,16.486403447198793]]]},"properties":{"id":"publicfacilities-000074","label":"อาณัฐชัยอพาร์ทเมนท์","sourceRecord":74,"sourceFolder":"สาธารณูปการ","sourceFile":"สาธารณูปการ.shp","datasetId":"publicfacilities","geometryDisplayRepair":false,"villageIds":["v12"],"villageId":"v12","electionIds":["e01"],"electionId":"e01","insideMunicipality":true,"sourceTypeCode":13}},{"type":"Feature","id":"publicfacilities-000075","geometry":{"type":"Polygon","coordinates":[[[102.81355032321436,16.485779573777368],[102.81355486912365,16.4858530461995],[102.81368059618512,16.485841637867555],[102.81367819031284,16.485771284490966],[102.81355032321436,16.485779573777368]]]},"properties":{"id":"publicfacilities-000075","label":"ภูมิเพลส","sourceRecord":75,"sourceFolder":"สาธารณูปการ","sourceFile":"สาธารณูปการ.shp","datasetId":"publicfacilities","geometryDisplayRepair":false,"villageIds":["v12"],"villageId":"v12","electionIds":["e01"],"electionId":"e01","insideMunicipality":true,"sourceTypeCode":13}},{"type":"Feature","id":"publicfacilities-000076","geometry":{"type":"Polygon","coordinates":[[[102.8305425416715,16.463315430610695],[102.83123114986043,16.463218481090262],[102.83115569907231,16.462715210733588],[102.83108464725366,16.46273197417337],[102.83111805429567,16.462949248759404],[102.83052138464045,16.46305435431948],[102.8305425416715,16.463315430610695]]]},"properties":{"id":"publicfacilities-000076","label":"โรงเรียนฮักสคูล","sourceRecord":76,"sourceFolder":"สาธารณูปการ","sourceFile":"สาธารณูปการ.shp","datasetId":"publicfacilities","geometryDisplayRepair":false,"villageIds":[],"villageId":null,"electionIds":[],"electionId":null,"insideMunicipality":false,"sourceTypeCode":4}},{"type":"Feature","id":"publicfacilities-000077","geometry":{"type":"Polygon","coordinates":[[[102.8167941712462,16.481954487594674],[102.81693825922427,16.48179278551284],[102.8170092124733,16.481901140998303],[102.81712676977429,16.48185575233634],[102.81689980835736,16.481464533603265],[102.81659438437067,16.481649140200894],[102.8167941712462,16.481954487594674]]]},"properties":{"id":"publicfacilities-000077","label":"ซีดาร์อพาร์ทเมนท์","sourceRecord":77,"sourceFolder":"สาธารณูปการ","sourceFile":"สาธารณูปการ.shp","datasetId":"publicfacilities","geometryDisplayRepair":false,"villageIds":["v27"],"villageId":"v27","electionIds":["e01"],"electionId":"e01","insideMunicipality":true,"sourceTypeCode":13}},{"type":"Feature","id":"publicfacilities-000078","geometry":{"type":"Polygon","coordinates":[[[102.83286426138163,16.515848198349794],[102.8328724650218,16.515118383041997],[102.83211732194218,16.515076734129476],[102.83220556339873,16.516007022842455],[102.83286426138163,16.515848198349794]]]},"properties":{"id":"publicfacilities-000078","label":"โรงงานคอนกรีตผสมเสร็จซีแพคบ้านสำราญ","sourceRecord":78,"sourceFolder":"สาธารณูปการ","sourceFile":"สาธารณูปการ.shp","datasetId":"publicfacilities","geometryDisplayRepair":false,"villageIds":["v02"],"villageId":"v02","electionIds":["e01"],"electionId":"e01","insideMunicipality":true,"sourceTypeCode":11}},{"type":"Feature","id":"publicfacilities-000079","geometry":{"type":"Polygon","coordinates":[[[102.86063345088081,16.477200443501008],[102.86068467954162,16.47720451603342],[102.86071124236102,16.477057644344097],[102.86065993081338,16.477049390427233],[102.86063345088081,16.477200443501008]]]},"properties":{"id":"publicfacilities-000079","label":"บริการงานไปรษณีย์","sourceRecord":79,"sourceFolder":"สาธารณูปการ","sourceFile":"สาธารณูปการ.shp","datasetId":"publicfacilities","geometryDisplayRepair":false,"villageIds":["v15"],"villageId":"v15","electionIds":["e03"],"electionId":"e03","insideMunicipality":true,"sourceTypeCode":14}},{"type":"Feature","id":"publicfacilities-000080","geometry":{"type":"Polygon","coordinates":[[[102.83998044210661,16.498818130499608],[102.84000442975045,16.498783981883644],[102.8398526715757,16.498384269730476],[102.83979825756208,16.498230613868476],[102.83973321704595,16.4978511172467],[102.83942963140603,16.4978804913982],[102.8392263990261,16.497892158310382],[102.83907378410852,16.497865221487842],[102.83883533339628,16.49775856888707],[102.83877049244641,16.498013555769294],[102.83875644442739,16.49813476366526],[102.83873455033914,16.498379046893746],[102.83871394958052,16.498896930154444],[102.8391270482837,16.498897268065875],[102.83954363024566,16.498865816750367],[102.83979380195228,16.498837424172667],[102.83998044210661,16.498818130499608]]]},"properties":{"id":"publicfacilities-000080","label":"ลานกีฬาต้านยาเสพติดบ้านหนองกุง","sourceRecord":80,"sourceFolder":"สาธารณูปการ","sourceFile":"สาธารณูปการ.shp","datasetId":"publicfacilities","geometryDisplayRepair":false,"villageIds":["v02","v17"],"villageId":null,"electionIds":["e02","e01"],"electionId":null,"insideMunicipality":true,"sourceTypeCode":2}},{"type":"Feature","id":"publicfacilities-000081","geometry":{"type":"Polygon","coordinates":[[[102.85254250197241,16.472504919409822],[102.85274624908746,16.472579237392633],[102.8528056431251,16.472426462689096],[102.85259380774258,16.472352294629047],[102.85254250197241,16.472504919409822]]]},"properties":{"id":"publicfacilities-000081","label":"ขามแก่นเพลส","sourceRecord":81,"sourceFolder":"สาธารณูปการ","sourceFile":"สาธารณูปการ.shp","datasetId":"publicfacilities","geometryDisplayRepair":false,"villageIds":["v13"],"villageId":"v13","electionIds":["e02"],"electionId":"e02","insideMunicipality":true,"sourceTypeCode":13}},{"type":"Feature","id":"publicfacilities-000082","geometry":{"type":"Polygon","coordinates":[[[102.84652449054668,16.463012485976517],[102.84533196991872,16.460726404976768],[102.84601944666737,16.4604316637731],[102.84528381446478,16.458962813196596],[102.84447729855104,16.459369405827637],[102.84488596636254,16.460136014146244],[102.84397063692545,16.460604788172514],[102.84383027459684,16.460673366471834],[102.84561475818984,16.463955509324556],[102.84577123698526,16.46388429637769],[102.846717504475,16.46340806101962],[102.84652449054668,16.463012485976517]]]},"properties":{"id":"publicfacilities-000082","label":"โรงพยาบาลค่ายศรีพัชรินทร","sourceRecord":82,"sourceFolder":"สาธารณูปการ","sourceFile":"สาธารณูปการ.shp","datasetId":"publicfacilities","geometryDisplayRepair":false,"villageIds":["v20","v13"],"villageId":null,"electionIds":["e02"],"electionId":"e02","insideMunicipality":true,"sourceTypeCode":15}},{"type":"Feature","id":"publicfacilities-000083","geometry":{"type":"Polygon","coordinates":[[[102.81429083224866,16.481738708679778],[102.81430829491781,16.481840249016166],[102.81480596681519,16.481759379287592],[102.81478342269261,16.481643649125196],[102.81429083224866,16.481738708679778]]]},"properties":{"id":"publicfacilities-000083","label":"แกรนด์พาเลสอพาร์ทเมนท์","sourceRecord":83,"sourceFolder":"สาธารณูปการ","sourceFile":"สาธารณูปการ.shp","datasetId":"publicfacilities","geometryDisplayRepair":false,"villageIds":["v12"],"villageId":"v12","electionIds":["e01"],"electionId":"e01","insideMunicipality":true,"sourceTypeCode":13}},{"type":"Feature","id":"publicfacilities-000084","geometry":{"type":"Polygon","coordinates":[[[102.84299914091943,16.46313130176292],[102.84311239267802,16.46308991111227],[102.8434041316503,16.462872277047307],[102.84319221777832,16.462593134317586],[102.84292238070655,16.46268195270926],[102.84299914091943,16.46313130176292]]]},"properties":{"id":"publicfacilities-000084","label":"โรงเรียนอนุบาลราตรี","sourceRecord":84,"sourceFolder":"สาธารณูปการ","sourceFile":"สาธารณูปการ.shp","datasetId":"publicfacilities","geometryDisplayRepair":false,"villageIds":["v20"],"villageId":"v20","electionIds":["e02"],"electionId":"e02","insideMunicipality":true,"sourceTypeCode":4}},{"type":"Feature","id":"publicfacilities-000085","geometry":{"type":"Polygon","coordinates":[[[102.83120068075533,16.497142545386886],[102.8311972938395,16.49794275354582],[102.83237204008881,16.497997397580093],[102.8322023679205,16.49682539344813],[102.83192988749542,16.49708861167819],[102.83120068075533,16.497142545386886]]]},"properties":{"id":"publicfacilities-000085","label":"โรงเรียนหนองกุงวิทยาคาร","sourceRecord":85,"sourceFolder":"สาธารณูปการ","sourceFile":"สาธารณูปการ.shp","datasetId":"publicfacilities","geometryDisplayRepair":false,"villageIds":["v02"],"villageId":"v02","electionIds":["e01"],"electionId":"e01","insideMunicipality":true,"sourceTypeCode":4}},{"type":"Feature","id":"publicfacilities-000086","geometry":{"type":"Polygon","coordinates":[[[102.84215221081351,16.49963059537841],[102.84310273981943,16.499559859314946],[102.84303974979476,16.49872763311785],[102.84202370699424,16.49889436840746],[102.84200702084031,16.499085595301914],[102.84215221081351,16.49963059537841]]]},"properties":{"id":"publicfacilities-000086","label":"ศูนย์พัฒนาเด็กเล็กเทศบาลเมืองศิลา","sourceRecord":86,"sourceFolder":"สาธารณูปการ","sourceFile":"สาธารณูปการ.shp","datasetId":"publicfacilities","geometryDisplayRepair":false,"villageIds":["v17"],"villageId":"v17","electionIds":["e02"],"electionId":"e02","insideMunicipality":true,"sourceTypeCode":null}},{"type":"Feature","id":"publicfacilities-000087","geometry":{"type":"Polygon","coordinates":[[[102.84202342060722,16.499091304329905],[102.84216134285681,16.499622612127073],[102.84308664612604,16.499547974112286],[102.84302877256194,16.498739983590486],[102.84204333805272,16.498900607478916],[102.84202342060722,16.499091304329905]]]},"properties":{"id":"publicfacilities-000087","label":"ศูนย์พัฒนาเด็กเล็กเทศบาลเมืองศิลา","sourceRecord":87,"sourceFolder":"สาธารณูปการ","sourceFile":"สาธารณูปการ.shp","datasetId":"publicfacilities","geometryDisplayRepair":false,"villageIds":["v17"],"villageId":"v17","electionIds":["e02"],"electionId":"e02","insideMunicipality":true,"sourceTypeCode":4}},{"type":"Feature","id":"publicfacilities-000088","geometry":{"type":"Polygon","coordinates":[[[102.83482686441954,16.486379059250694],[102.834599087317,16.486412065106855],[102.83459759423138,16.48653370820056],[102.83483195517852,16.486503292021254],[102.83482686441954,16.486379059250694]]]},"properties":{"id":"publicfacilities-000088","label":"วรากูลเนอสเชอรี่","sourceRecord":88,"sourceFolder":"สาธารณูปการ","sourceFile":"สาธารณูปการ.shp","datasetId":"publicfacilities","geometryDisplayRepair":false,"villageIds":["v24"],"villageId":"v24","electionIds":["e02"],"electionId":"e02","insideMunicipality":true,"sourceTypeCode":4}},{"type":"Feature","id":"publicfacilities-000089","geometry":{"type":"Polygon","coordinates":[[[102.83831986143556,16.487155156906823],[102.83844631793731,16.487101185090722],[102.83832068174483,16.486764344323667],[102.83818886207713,16.486811021034896],[102.83831986143556,16.487155156906823]]]},"properties":{"id":"publicfacilities-000089","label":"ต้นกล้าเนอสเชอรี่","sourceRecord":89,"sourceFolder":"สาธารณูปการ","sourceFile":"สาธารณูปการ.shp","datasetId":"publicfacilities","geometryDisplayRepair":false,"villageIds":["v14","v02"],"villageId":null,"electionIds":["e02","e01"],"electionId":null,"insideMunicipality":true,"sourceTypeCode":4}},{"type":"Feature","id":"publicfacilities-000090","geometry":{"type":"Polygon","coordinates":[[[102.87221671157421,16.47869273052605],[102.87305744098643,16.4784261396295],[102.87281677871228,16.477807074726854],[102.87191168664319,16.478014210997145],[102.87221671157421,16.47869273052605]]]},"properties":{"id":"publicfacilities-000090","label":"โรงเรียนอนุบาลตั้งใจ","sourceRecord":90,"sourceFolder":"สาธารณูปการ","sourceFile":"สาธารณูปการ.shp","datasetId":"publicfacilities","geometryDisplayRepair":false,"villageIds":["v08"],"villageId":"v08","electionIds":["e03"],"electionId":"e03","insideMunicipality":true,"sourceTypeCode":4}},{"type":"Feature","id":"publicfacilities-000091","geometry":{"type":"Polygon","coordinates":[[[102.8536950006988,16.474766296927072],[102.85353210785466,16.474762981565014],[102.85351722533885,16.474816390454926],[102.8534247655841,16.47509707931346],[102.85365813155666,16.475104403949604],[102.8536950006988,16.474766296927072]]]},"properties":{"id":"publicfacilities-000091","label":"โรงเรียนอนุบาลเบญจพร","sourceRecord":91,"sourceFolder":"สาธารณูปการ","sourceFile":"สาธารณูปการ.shp","datasetId":"publicfacilities","geometryDisplayRepair":false,"villageIds":["v15"],"villageId":"v15","electionIds":["e03"],"electionId":"e03","insideMunicipality":true,"sourceTypeCode":4}},{"type":"Feature","id":"publicfacilities-000092","geometry":{"type":"Polygon","coordinates":[[[102.82090592064262,16.495056562326184],[102.82090592064262,16.495056562326177],[102.82102749545592,16.495422937420884],[102.82165691510309,16.49547794623936],[102.8216741089763,16.495092083821707],[102.82130036978168,16.494722810683502],[102.82050889228707,16.494313648532554],[102.82071108047886,16.495012505579098],[102.82090592064262,16.495056562326184]]]},"properties":{"id":"publicfacilities-000092","label":"วัดสระแก้ว","sourceRecord":92,"sourceFolder":"สาธารณูปการ","sourceFile":"สาธารณูปการ.shp","datasetId":"publicfacilities","geometryDisplayRepair":false,"villageIds":["v03"],"villageId":"v03","electionIds":["e01"],"electionId":"e01","insideMunicipality":true,"sourceTypeCode":6}},{"type":"Feature","id":"publicfacilities-000093","geometry":{"type":"Polygon","coordinates":[[[102.8516241898579,16.508097118228406],[102.85199086258491,16.50893762950567],[102.85218545651803,16.509138597322934],[102.85225911900557,16.509102374446314],[102.85227139633847,16.508615327818966],[102.85256515217665,16.5079782107245],[102.85256623274381,16.507350459228075],[102.85196038881374,16.507432244781896],[102.85111848429221,16.507353052594002],[102.85130327187362,16.507831660454002],[102.8516241898579,16.508097118228406]]]},"properties":{"id":"publicfacilities-000093","label":"วัดป่าบ้านเต่านอ","sourceRecord":93,"sourceFolder":"สาธารณูปการ","sourceFile":"สาธารณูปการ.shp","datasetId":"publicfacilities","geometryDisplayRepair":false,"villageIds":["v17"],"villageId":"v17","electionIds":["e02"],"electionId":"e02","insideMunicipality":true,"sourceTypeCode":6}},{"type":"Feature","id":"publicfacilities-000094","geometry":{"type":"Polygon","coordinates":[[[102.87939386337571,16.459485260832697],[102.87939386337571,16.459485260832697],[102.8808212851474,16.459471606565476],[102.88082615650545,16.458892782686178],[102.87938264586423,16.45894455514811],[102.87939386337571,16.459485260832697]]]},"properties":{"id":"publicfacilities-000094","label":"วัดผาสุกประสิทธิการาม(ใบบุญ)","sourceRecord":94,"sourceFolder":"สาธารณูปการ","sourceFile":"สาธารณูปการ.shp","datasetId":"publicfacilities","geometryDisplayRepair":false,"villageIds":["v16"],"villageId":"v16","electionIds":["e03"],"electionId":"e03","insideMunicipality":true,"sourceTypeCode":null}},{"type":"Feature","id":"publicfacilities-000095","geometry":{"type":"Polygon","coordinates":[[[102.87939386337571,16.459485260832697],[102.8808212851474,16.459471606565476],[102.88082664423625,16.458898900332347],[102.87937630612308,16.458945025748182],[102.87939386337571,16.459485260832697]]]},"properties":{"id":"publicfacilities-000095","label":"วัดผาสุกประสิทธิการาม(ใบบุญ)","sourceRecord":95,"sourceFolder":"สาธารณูปการ","sourceFile":"สาธารณูปการ.shp","datasetId":"publicfacilities","geometryDisplayRepair":false,"villageIds":["v16"],"villageId":"v16","electionIds":["e03"],"electionId":"e03","insideMunicipality":true,"sourceTypeCode":6}},{"type":"Feature","id":"publicfacilities-000096","geometry":{"type":"Polygon","coordinates":[[[102.88552447669011,16.465098589966104],[102.8869760844412,16.46506772125632],[102.88694971302013,16.464097365629623],[102.88551274265569,16.464111763951525],[102.88552447669011,16.465098589966104]]]},"properties":{"id":"publicfacilities-000096","label":"เทวาลัยศิวะมหาเทพ","sourceRecord":96,"sourceFolder":"สาธารณูปการ","sourceFile":"สาธารณูปการ.shp","datasetId":"publicfacilities","geometryDisplayRepair":false,"villageIds":["v16"],"villageId":"v16","electionIds":["e03"],"electionId":"e03","insideMunicipality":true,"sourceTypeCode":6}},{"type":"Feature","id":"publicfacilities-000097","geometry":{"type":"Polygon","coordinates":[[[102.89560189723551,16.506455180483492],[102.89596924676704,16.507141753219848],[102.89727260993008,16.506608030372654],[102.89674133404525,16.505545937279905],[102.89669185613134,16.50559038153925],[102.89663448055944,16.505610796680596],[102.89634711675926,16.50574675469921],[102.89560189723551,16.506455180483492],[102.89560189723551,16.506455180483492]]]},"properties":{"id":"publicfacilities-000097","label":"วัดป่าธรรมจักร","sourceRecord":97,"sourceFolder":"สาธารณูปการ","sourceFile":"สาธารณูปการ.shp","datasetId":"publicfacilities","geometryDisplayRepair":false,"villageIds":["v05","v04"],"villageId":null,"electionIds":["e03"],"electionId":"e03","insideMunicipality":true,"sourceTypeCode":6}},{"type":"Feature","id":"publicfacilities-000098","geometry":{"type":"Polygon","coordinates":[[[102.83192240946705,16.497980272107576],[102.83237162395262,16.498014735155042],[102.83227864497147,16.497326263791606],[102.83187037307876,16.497405689570993],[102.83192240946705,16.497980272107576]]]},"properties":{"id":"publicfacilities-000098","label":"ศูนย์สุขภาพชุมชนบ้านหนองกุง","sourceRecord":98,"sourceFolder":"สาธารณูปการ","sourceFile":"สาธารณูปการ.shp","datasetId":"publicfacilities","geometryDisplayRepair":false,"villageIds":["v02"],"villageId":"v02","electionIds":["e01"],"electionId":"e01","insideMunicipality":true,"sourceTypeCode":15}},{"type":"Feature","id":"publicfacilities-000099","geometry":{"type":"Polygon","coordinates":[[[102.79879409718977,16.467735198375536],[102.80060343060485,16.46755237315312],[102.8004265011194,16.46612555228239],[102.79877813671155,16.466247266638376],[102.79879409718977,16.467735198375536],[102.79879409718977,16.467735198375536]]]},"properties":{"id":"publicfacilities-000099","label":"โรงพยาบาลธัญญารักษณ์ขอนแก่น","sourceRecord":99,"sourceFolder":"สาธารณูปการ","sourceFile":"สาธารณูปการ.shp","datasetId":"publicfacilities","geometryDisplayRepair":false,"villageIds":["v19","v23"],"villageId":null,"electionIds":["e01"],"electionId":"e01","insideMunicipality":true,"sourceTypeCode":15}},{"type":"Feature","id":"publicfacilities-000100","geometry":{"type":"Polygon","coordinates":[[[102.81585011248859,16.491882736922477],[102.81585011248859,16.491882736922477],[102.81586206922077,16.49188396866036],[102.81585888208829,16.49182247755334],[102.81645000001384,16.491786874285324],[102.81642051601173,16.491716750133847],[102.81610388762658,16.491263255953623],[102.81575549879989,16.491333611736305],[102.81577128141534,16.491532432047766],[102.81563454144768,16.491858668434123],[102.81585011248859,16.491882736922477]]]},"properties":{"id":"publicfacilities-000100","label":"โรงพยาบาลส่งเสริมสุขภาพตำบลบ้านโนนม่วง","sourceRecord":100,"sourceFolder":"สาธารณูปการ","sourceFile":"สาธารณูปการ.shp","datasetId":"publicfacilities","geometryDisplayRepair":false,"villageIds":["v03"],"villageId":"v03","electionIds":["e01"],"electionId":"e01","insideMunicipality":true,"sourceTypeCode":15}}]}