{"type":"FeatureCollection","features":[{"type":"Feature","id":"religion-000001","geometry":{"type":"Point","coordinates":[102.89781654512447,16.51816281531479]},"properties":{"id":"religion-000001","label":"วัดท่าโพธิ์","sourceRecord":1,"sourceFolder":"ศาสนสถาน","sourceFile":"ศาสนสถาน.shp","datasetId":"religion","geometryDisplayRepair":false,"villageIds":["v04"],"villageId":"v04","electionIds":["e03"],"electionId":"e03","insideMunicipality":true}},{"type":"Feature","id":"religion-000002","geometry":{"type":"Point","coordinates":[102.9020416567979,16.471146219813836]},"properties":{"id":"religion-000002","label":"วัดท่าราษฎร์","sourceRecord":2,"sourceFolder":"ศาสนสถาน","sourceFile":"ศาสนสถาน.shp","datasetId":"religion","geometryDisplayRepair":false,"villageIds":["v10"],"villageId":"v10","electionIds":["e03"],"electionId":"e03","insideMunicipality":true}},{"type":"Feature","id":"religion-000003","geometry":{"type":"Point","coordinates":[102.87573496845332,16.483285415393322]},"properties":{"id":"religion-000003","label":"วัดสวรรค์วนาราม","sourceRecord":3,"sourceFolder":"ศาสนสถาน","sourceFile":"ศาสนสถาน.shp","datasetId":"religion","geometryDisplayRepair":false,"villageIds":["v22"],"villageId":"v22","electionIds":["e03"],"electionId":"e03","insideMunicipality":true}},{"type":"Feature","id":"religion-000004","geometry":{"type":"Point","coordinates":[102.83485848186059,16.497164441326994]},"properties":{"id":"religion-000004","label":"วัดสว่างสุทธาราม","sourceRecord":4,"sourceFolder":"ศาสนสถาน","sourceFile":"ศาสนสถาน.shp","datasetId":"religion","geometryDisplayRepair":false,"villageIds":["v02"],"villageId":"v02","electionIds":["e01"],"electionId":"e01","insideMunicipality":true}},{"type":"Feature","id":"religion-000005","geometry":{"type":"Point","coordinates":[102.82265496859932,16.494560415277117]},"properties":{"id":"religion-000005","label":"วัดสระแก้ว","sourceRecord":5,"sourceFolder":"ศาสนสถาน","sourceFile":"ศาสนสถาน.shp","datasetId":"religion","geometryDisplayRepair":false,"villageIds":["v03"],"villageId":"v03","electionIds":["e01"],"electionId":"e01","insideMunicipality":true}},{"type":"Feature","id":"religion-000006","geometry":{"type":"Point","coordinates":[102.80163814008382,16.48045359821831]},"properties":{"id":"religion-000006","label":"วัดอดุลแก้วมอดี","sourceRecord":6,"sourceFolder":"ศาสนสถาน","sourceFile":"ศาสนสถาน.shp","datasetId":"religion","geometryDisplayRepair":false,"villageIds":["v19"],"villageId":"v19","electionIds":["e01"],"electionId":"e01","insideMunicipality":true}},{"type":"Feature","id":"religion-000007","geometry":{"type":"Point","coordinates":[102.8819694643155,16.45854158175117]},"properties":{"id":"religion-000007","label":"วัดผาสุกประสิทธิการาม (ใบบุญ)","sourceRecord":7,"sourceFolder":"ศาสนสถาน","sourceFile":"ศาสนสถาน.shp","datasetId":"religion","geometryDisplayRepair":false,"villageIds":["v16"],"villageId":"v16","electionIds":["e03"],"electionId":"e03","insideMunicipality":true}},{"type":"Feature","id":"religion-000008","geometry":{"type":"Point","coordinates":[102.85771362176602,16.49075945317571]},"properties":{"id":"religion-000008","label":"วัดป่าสุนทรวนาราม","sourceRecord":8,"sourceFolder":"ศาสนสถาน","sourceFile":"ศาสนสถาน.shp","datasetId":"religion","geometryDisplayRepair":false,"villageIds":["v28"],"villageId":"v28","electionIds":["e03"],"electionId":"e03","insideMunicipality":true}},{"type":"Feature","id":"religion-000009","geometry":{"type":"Point","coordinates":[102.85349662619255,16.50730557262954]},"properties":{"id":"religion-000009","label":"วัดป่าบ้านเต่านอ","sourceRecord":9,"sourceFolder":"ศาสนสถาน","sourceFile":"ศาสนสถาน.shp","datasetId":"religion","geometryDisplayRepair":false,"villageIds":["v07"],"villageId":"v07","electionIds":["e03"],"electionId":"e03","insideMunicipality":true}},{"type":"Feature","id":"religion-000010","geometry":{"type":"Point","coordinates":[102.8616909596305,16.50859422359946]},"properties":{"id":"religion-000010","label":"วัดนาถวนาราม","sourceRecord":10,"sourceFolder":"ศาสนสถาน","sourceFile":"ศาสนสถาน.shp","datasetId":"religion","geometryDisplayRepair":false,"villageIds":["v07"],"villageId":"v07","electionIds":["e03"],"electionId":"e03","insideMunicipality":true}},{"type":"Feature","id":"religion-000011","geometry":{"type":"Point","coordinates":[102.81810579727077,16.490363232258044]},"properties":{"id":"religion-000011","label":"วัดม่วงศรี","sourceRecord":11,"sourceFolder":"ศาสนสถาน","sourceFile":"ศาสนสถาน.shp","datasetId":"religion","geometryDisplayRepair":false,"villageIds":["v03"],"villageId":"v03","electionIds":["e01"],"electionId":"e01","insideMunicipality":true}},{"type":"Feature","id":"religion-000012","geometry":{"type":"Point","coordinates":[102.8289709685745,16.48695541529905]},"properties":{"id":"religion-000012","label":"วัดป่ามหาวนาราม","sourceRecord":12,"sourceFolder":"ศาสนสถาน","sourceFile":"ศาสนสถาน.shp","datasetId":"religion","geometryDisplayRepair":false,"villageIds":["v27"],"villageId":"v27","electionIds":["e01"],"electionId":"e01","insideMunicipality":true}},{"type":"Feature","id":"religion-000013","geometry":{"type":"Point","coordinates":[102.79418300989511,16.495001778184303]},"properties":{"id":"religion-000013","label":"สำนักสงฆ์แก้วบุญเรือง","sourceRecord":13,"sourceFolder":"ศาสนสถาน","sourceFile":"ศาสนสถาน.shp","datasetId":"religion","geometryDisplayRepair":false,"villageIds":["v12"],"villageId":"v12","electionIds":["e01"],"electionId":"e01","insideMunicipality":false}},{"type":"Feature","id":"religion-000014","geometry":{"type":"Point","coordinates":[102.808985662163,16.481499816332782]},"properties":{"id":"religion-000014","label":"วัดป่าโนนม่วง","sourceRecord":14,"sourceFolder":"ศาสนสถาน","sourceFile":"ศาสนสถาน.shp","datasetId":"religion","geometryDisplayRepair":false,"villageIds":["v12"],"villageId":"v12","electionIds":["e01"],"electionId":"e01","insideMunicipality":true}},{"type":"Feature","id":"religion-000015","geometry":{"type":"Point","coordinates":[102.89776463967047,16.500008836408554]},"properties":{"id":"religion-000015","label":"วัดสโมสรวนาราม","sourceRecord":15,"sourceFolder":"ศาสนสถาน","sourceFile":"ศาสนสถาน.shp","datasetId":"religion","geometryDisplayRepair":false,"villageIds":["v05"],"villageId":"v05","electionIds":["e03"],"electionId":"e03","insideMunicipality":true}},{"type":"Feature","id":"religion-000016","geometry":{"type":"Point","coordinates":[102.86369728852222,16.49503680236893]},"properties":{"id":"religion-000016","label":"วัดโพธิ์ศรี","sourceRecord":16,"sourceFolder":"ศาสนสถาน","sourceFile":"ศาสนสถาน.shp","datasetId":"religion","geometryDisplayRepair":false,"villageIds":["v18"],"villageId":"v18","electionIds":["e03"],"electionId":"e03","insideMunicipality":true}},{"type":"Feature","id":"religion-000017","geometry":{"type":"Point","coordinates":[102.86181257248529,16.475129937803253]},"properties":{"id":"religion-000017","label":"วัดเกษรวนาราม","sourceRecord":17,"sourceFolder":"ศาสนสถาน","sourceFile":"ศาสนสถาน.shp","datasetId":"religion","geometryDisplayRepair":false,"villageIds":["v25"],"villageId":"v25","electionIds":["e03"],"electionId":"e03","insideMunicipality":true}},{"type":"Feature","id":"religion-000018","geometry":{"type":"Point","coordinates":[102.89848594658838,16.505661436121272]},"properties":{"id":"religion-000018","label":"วัดป่าธรรมจักร","sourceRecord":18,"sourceFolder":"ศาสนสถาน","sourceFile":"ศาสนสถาน.shp","datasetId":"religion","geometryDisplayRepair":false,"villageIds":["v05"],"villageId":"v05","electionIds":["e03"],"electionId":"e03","insideMunicipality":true}},{"type":"Feature","id":"religion-000019","geometry":{"type":"Point","coordinates":[102.86813714848931,16.460894790336877]},"properties":{"id":"religion-000019","label":"วัดป่าเรไร","sourceRecord":19,"sourceFolder":"ศาสนสถาน","sourceFile":"ศาสนสถาน.shp","datasetId":"religion","geometryDisplayRepair":false,"villageIds":["v16"],"villageId":"v16","electionIds":["e03"],"electionId":"e03","insideMunicipality":true}},{"type":"Feature","id":"religion-000020","geometry":{"type":"Point","coordinates":[102.85152045553667,16.469606389576995]},"properties":{"id":"religion-000020","label":"วัดป่ารัตนมงคล","sourceRecord":20,"sourceFolder":"ศาสนสถาน","sourceFile":"ศาสนสถาน.shp","datasetId":"religion","geometryDisplayRepair":false,"villageIds":["v13"],"villageId":"v13","electionIds":["e02"],"electionId":"e02","insideMunicipality":true}},{"type":"Feature","id":"religion-000021","geometry":{"type":"Point","coordinates":[102.873326643679,16.459928432426885]},"properties":{"id":"religion-000021","label":"วัดสว่างดอนยาง","sourceRecord":21,"sourceFolder":"ศาสนสถาน","sourceFile":"ศาสนสถาน.shp","datasetId":"religion","geometryDisplayRepair":false,"villageIds":["v16"],"villageId":"v16","electionIds":["e03"],"electionId":"e03","insideMunicipality":true}},{"type":"Feature","id":"religion-000022","geometry":{"type":"Point","coordinates":[102.85150794175415,16.504170840102297]},"properties":{"id":"religion-000022","label":"วัดป่าเทพนิมิต","sourceRecord":22,"sourceFolder":"ศาสนสถาน","sourceFile":"ศาสนสถาน.shp","datasetId":"religion","geometryDisplayRepair":false,"villageIds":["v07"],"villageId":"v07","electionIds":["e03"],"electionId":"e03","insideMunicipality":true}},{"type":"Feature","id":"religion-000023","geometry":{"type":"Point","coordinates":[102.85052959932547,16.48150847386951]},"properties":{"id":"religion-000023","label":"วัดจุณณะปิยะวนาวาส","sourceRecord":23,"sourceFolder":"ศาสนสถาน","sourceFile":"ศาสนสถาน.shp","datasetId":"religion","geometryDisplayRepair":false,"villageIds":["v26"],"villageId":"v26","electionIds":["e02"],"electionId":"e02","insideMunicipality":true}},{"type":"Feature","id":"religion-000024","geometry":{"type":"Point","coordinates":[102.8884651044913,16.464061831847587]},"properties":{"id":"religion-000024","label":"เทวาลัยศิวะมหาเทพ","sourceRecord":24,"sourceFolder":"ศาสนสถาน","sourceFile":"ศาสนสถาน.shp","datasetId":"religion","geometryDisplayRepair":false,"villageIds":["v16"],"villageId":"v16","electionIds":["e03"],"electionId":"e03","insideMunicipality":true}}]}